{
  "version": 0.6,
  "generator": "Overpass API 0.7.56.7 b85c4387",
  "osm3s": {
    "timestamp_osm_base": "2021-01-06T10:38:03Z",
    "timestamp_areas_base": "2021-01-06T10:28:03Z",
    "copyright": "The data included in this document is from www.openstreetmap.org. The data is made available under ODbL."
  },
  "elements": [

{
  "type": "node",
  "id": 252918375,
  "lat": 51.2974302,
  "lon": 12.0612878,
  "tags": {
    "addr:city": "Bad Dürrenberg",
    "addr:housenumber": "16",
    "addr:postcode": "06231",
    "addr:street": "Apothekerberg",
    "amenity": "restaurant",
    "cuisine": "german",
    "diet:vegan": "yes",
    "diet:vegetarian": "yes",
    "name": "Alte Apotheke",
    "opening_hours": "Mo-Fr 06:30+; Sa,Su 08:00+",
    "phone": "+49 3462 542280",
    "tourism": "hotel",
    "website": "https://www.hotel-alte-apotheke.de"
  }
},
{
  "type": "node",
  "id": 253686370,
  "lat": 51.3307441,
  "lon": 12.4131078,
  "tags": {
    "addr:city": "Leipzig",
    "addr:housenumber": "108",
    "addr:postcode": "04317",
    "addr:street": "Oststraße",
    "amenity": "fast_food",
    "contact:website": "https://www.linus-pizzaeck.de",
    "cuisine": "indian;italian;mexican",
    "diet:vegan": "yes",
    "diet:vegetarian": "yes",
    "name": "Linus Pizzaeck",
    "opening_hours": "Mo-Fr 10:30-14:00,17:00-23:00; Sa 16:00-23:00; Su,PH 12:00-23:00",
    "wheelchair": "no"
  }
},
{
  "type": "node",
  "id": 254013793,
  "lat": 51.3353140,
  "lon": 12.3314111,
  "tags": {
    "addr:city": "Leipzig",
    "addr:housenumber": "5",
    "addr:postcode": "04177",
    "addr:street": "Endersstraße",
    "amenity": "cafe",
    "diet:vegan": "yes",
    "name": "Konditorei und Cafe Krüsmann",
    "opening_hours": "Tu-Fr 09:00-18:00; Sa 08:00-17:30; Su 12:00-17:30",
    "shop": "bakery",
    "website": "https://www.konditor-exklusiv.de"
  }
},
{
  "type": "node",
  "id": 254015733,
  "lat": 51.3362666,
  "lon": 12.3939418,
  "tags": {
    "addr:city": "Leipzig",
    "addr:housenumber": "1e",
    "addr:postcode": "04103",
    "addr:street": "Gutenbergplatz",
    "amenity": "fast_food",
    "contact:phone": "+49 341 2171717",
    "contact:website": "https://www.uno-pizza.de/uno-pizza-leipzig/",
    "cuisine": "pizza",
    "diet:vegan": "yes",
    "diet:vegetarian": "yes",
    "name": "Uno Pizza",
    "opening_hours": "Su-Th 11:00-23:00, Fr,Sa 11:00-24:00",
    "opening_hours:covid19": "Mo-Su 11:00-23:00",
    "wheelchair": "yes"
  }
},
{
  "type": "node",
  "id": 269857170,
  "lat": 51.3645556,
  "lon": 12.3662311,
  "tags": {
    "addr:city": "Leipzig",
    "addr:housenumber": "46",
    "addr:postcode": "04155",
    "addr:street": "Lindenthaler Straße",
    "amenity": "fast_food",
    "cuisine": "pizza",
    "diet:vegetarian": "yes",
    "name": "UNO Pizza",
    "opening_hours": "Mo-Su 11:00-24:00",
    "takeaway": "preferred",
    "wheelchair": "limited"
  }
},
{
  "type": "node",
  "id": 276380292,
  "lat": 51.3308881,
  "lon": 12.3974311,
  "tags": {
    "addr:city": "Leipzig",
    "addr:housenumber": "39",
    "addr:postcode": "04317",
    "addr:street": "Prager Straße",
    "amenity": "restaurant",
    "contact:phone": "+49 341 9904742",
    "contact:website": "https://www.maharani-restaurant-leipzig.de",
    "cuisine": "indian",
    "diet:vegetarian": "yes",
    "name": "Maharani",
    "opening_hours": "Mo-Sa 10:30-14:30,17:00-23:00; Su,PH 12:00-23:00",
    "wheelchair": "no"
  }
},
{
  "type": "node",
  "id": 281940398,
  "lat": 51.3298601,
  "lon": 12.4049965,
  "tags": {
    "addr:city": "Leipzig",
    "addr:housenumber": "13",
    "addr:postcode": "04317",
    "addr:street": "Riebeckstraße",
    "amenity": "fast_food",
    "cuisine": "oriental;kebab",
    "diet:vegan": "yes",
    "diet:vegetarian": "yes",
    "name": "Dönizza",
    "opening_hours": "Mo-Fr 11:00-00:00; Sa-Su 12:00-00:00",
    "opening_hours:signed": "no",
    "wheelchair": "limited"
  }
},
{
  "type": "node",
  "id": 282473154,
  "lat": 51.4823823,
  "lon": 11.9610093,
  "tags": {
    "addr:city": "Halle (Saale)",
    "addr:housenumber": "2",
    "addr:postcode": "06108",
    "addr:street": "Ankerstraße",
    "amenity": "restaurant",
    "diet:vegan": "yes",
    "diet:vegetarian": "yes",
    "name": "Saalekahn",
    "opening_hours": "Mo-Th 12:00-23:00; Fr-Sa 12:00-24:00; Su,PH 12:00-22:00",
    "phone": "+49 345 2323-200",
    "website": "https://www.ankerhof.de/htdocs/saalekahn.shtml",
    "wheelchair": "no"
  }
},
{
  "type": "node",
  "id": 295257208,
  "lat": 51.3662458,
  "lon": 12.3666394,
  "tags": {
    "addr:city": "Leipzig",
    "addr:housenumber": "62",
    "addr:postcode": "04155",
    "addr:street": "Lindenthaler Straße",
    "amenity": "cafe",
    "cuisine": "ice_cream",
    "diet:vegan": "no",
    "diet:vegetarian": "yes",
    "internet_access": "no",
    "name": "Softeis",
    "opening_hours": "Mo-Fr 12:00-18:00; Sa,Su,PH 13:00-18:00",
    "wheelchair": "yes"
  }
},
{
  "type": "node",
  "id": 302835320,
  "lat": 51.4738785,
  "lon": 11.9616488,
  "tags": {
    "addr:city": "Halle (Saale)",
    "addr:housenumber": "40",
    "addr:postcode": "06110",
    "addr:street": "Torstraße",
    "amenity": "fast_food",
    "brand": "Telepizza",
    "brand:wikidata": "Q2699863",
    "brand:wikipedia": "en:Telepizza",
    "contact:phone": "+49 345 68286000",
    "contact:website": "https://www.telepizza.de/halle/",
    "cuisine": "pizza",
    "diet:vegan": "yes",
    "name": "Telepizza",
    "opening_hours": "11:00-22:00",
    "takeaway": "yes",
    "toilets:wheelchair": "no",
    "wheelchair": "no",
    "wheelchair:description": "Ganz rechts ist eine Betonrampe zum hoch fahren. Aber für den Rollstuhl viel zu steil und in schlechtem zu Stand."
  }
},
{
  "type": "node",
  "id": 302860064,
  "lat": 51.3413205,
  "lon": 12.3754113,
  "tags": {
    "addr:city": "Leipzig",
    "addr:country": "DE",
    "addr:housenumber": "2",
    "addr:postcode": "04109",
    "addr:street": "Katharinenstraße",
    "amenity": "restaurant",
    "contact:website": "https://www.rizzi-leipzig.de",
    "cuisine": "italian",
    "diet:vegetarian": "yes",
    "name": "Pizzeria Rizzi",
    "opening_hours": "Su-Th 11:00-23:00, Fr,Sa 11:00-24:00",
    "outdoor_seating": "yes",
    "wheelchair": "no"
  }
},
{
  "type": "node",
  "id": 307612249,
  "lat": 51.5832466,
  "lon": 11.8101874,
  "tags": {
    "addr:city": "Wettin-Löbejün",
    "addr:housenumber": "5",
    "addr:postcode": "06193",
    "addr:street": "Burgstraße",
    "amenity": "cafe",
    "cuisine": "german",
    "diet:vegetarian": "yes",
    "email": "burgcafe-wettin@web.de",
    "fax": "+49 34607 34478",
    "name": "Burgcafe Arndt",
    "opening_hours": "Mo off; Tu-Fr 12:00-23:00; Sa 11:00-24:00; Su 11:00-20:00",
    "operator": "Doris Arndt",
    "phone": "+49 34607 20265",
    "smoking": "outside",
    "website": "https://www.burgcafe-wettin.de",
    "wheelchair": "no"
  }
},
{
  "type": "node",
  "id": 309747715,
  "lat": 51.4805900,
  "lon": 11.9793227,
  "tags": {
    "addr:city": "Halle (Saale)",
    "addr:country": "DE",
    "addr:housenumber": "8",
    "addr:postcode": "06108",
    "addr:street": "Augustastraße",
    "amenity": "restaurant",
    "cuisine": "indian",
    "diet:vegan": "yes",
    "diet:vegetarian": "yes",
    "email": "indian.restaurent_shiva@hotmail.de",
    "internet_access": "no",
    "name": "Shiva",
    "opening_hours": "Mo-Su 11:30-15:00,17:30-23:30",
    "operator": "Top Bahadur Basnet",
    "phone": "+49 345 4789517",
    "smoking": "no",
    "website": "http://www.shiva-halle.de",
    "wheelchair": "limited"
  }
},
{
  "type": "node",
  "id": 310218385,
  "lat": 51.3365638,
  "lon": 12.3730280,
  "tags": {
    "addr:city": "Leipzig",
    "addr:country": "DE",
    "addr:housenumber": "1",
    "addr:postcode": "04109",
    "addr:street": "Lotterstraße",
    "amenity": "restaurant",
    "cuisine": "regional",
    "diet:vegetarian": "yes",
    "name": "Ratskeller Leipzig",
    "opening_hours": "Mo-Sa 12:00-23:00, Su 11:00-15:30",
    "phone": "+49 341 1234567",
    "start_date": "1904",
    "toilets:wheelchair": "yes",
    "website": "http://www.ratskellerleipzig.de",
    "wheelchair": "yes",
    "wheelchair:description": "Treppenlift außer Betrieb.",
    "wikidata": "Q1493519",
    "wikipedia": "de:Ratskeller Leipzig"
  }
},
{
  "type": "node",
  "id": 310395329,
  "lat": 51.3369165,
  "lon": 12.3759280,
  "tags": {
    "addr:city": "Leipzig",
    "addr:country": "DE",
    "addr:housenumber": "3",
    "addr:postcode": "04109",
    "addr:street": "Schillerstraße",
    "amenity": "restaurant",
    "contact:email": "info@restaurant-schiller.com",
    "contact:phone": "+49 341 96285777",
    "contact:website": "https://www.restaurant-schiller.com",
    "diet:vegan": "yes",
    "diet:vegetarian": "yes",
    "name": "Schiller",
    "name:ja": "シラー",
    "opening_hours": "Mo-Fr 08:00-22:00, Sa 08:00-24:00, Su 08:00-22:00",
    "outdoor_seating": "yes",
    "takeaway": "yes",
    "wheelchair": "no"
  }
},
{
  "type": "node",
  "id": 311488696,
  "lat": 51.3243100,
  "lon": 12.4020997,
  "tags": {
    "addr:city": "Leipzig",
    "addr:housenumber": "65",
    "addr:postcode": "04317",
    "addr:street": "Riebeckstraße",
    "amenity": "cafe",
    "diet:vegetarian": "yes",
    "name": "Coffee Choice",
    "opening_hours": "Mo-Th 08:00-17:00; Fr 08:00-16:00",
    "phone": "+49 341 4428597"
  }
},
{
  "type": "node",
  "id": 332389532,
  "lat": 51.3410949,
  "lon": 12.3754093,
  "tags": {
    "addr:city": "Leipzig",
    "addr:country": "DE",
    "addr:housenumber": "2",
    "addr:postcode": "04109",
    "addr:street": "Katharinenstraße",
    "amenity": "cafe",
    "diet:vegan": "no",
    "diet:vegetarian": "yes",
    "name": "Cafe Stein",
    "name:ja": "カフェ シュタイン",
    "opening_hours": "08:00+",
    "phone": "+49 341 2122233",
    "toilets:wheelchair": "no",
    "website": "https://stein-cafe.de/",
    "wheelchair": "yes"
  }
},
{
  "type": "node",
  "id": 341153539,
  "lat": 51.3211375,
  "lon": 12.4207371,
  "tags": {
    "addr:city": "Leipzig",
    "addr:housenumber": "35",
    "addr:postcode": "04299",
    "addr:street": "Ferdinand-Jost-Straße",
    "amenity": "cafe",
    "contact:email": "info@la-tortita.de",
    "contact:facebook": "https://www.facebook.com/latortita.leipzig",
    "contact:instagram": "https://www.instagram.com/nosch.latortita",
    "contact:website": "https://www.la-tortita.de",
    "cuisine": "coffee_shop",
    "description": "Café.Bar.Catering",
    "diet:vegan": "yes",
    "diet:vegetarian": "yes",
    "name": "La Tortita Nosch",
    "outdoor_seating": "no",
    "planned:opening_hours": "Th-Sa 16:00-22:00"
  }
},
{
  "type": "node",
  "id": 344544355,
  "lat": 51.3686603,
  "lon": 12.3656673,
  "tags": {
    "addr:city": "Leipzig",
    "addr:housenumber": "9",
    "addr:postcode": "04157",
    "addr:street": "Landsberger Straße",
    "amenity": "restaurant",
    "cuisine": "italian",
    "diet:vegetarian": "yes",
    "name": "Allegretto",
    "opening_hours": "Tu-Su 11:30-14:30,17:00-21:00",
    "website": "http://www.allegretto-leipzig.de",
    "wheelchair": "no"
  }
},
{
  "type": "node",
  "id": 347549906,
  "lat": 51.3349547,
  "lon": 12.3787708,
  "tags": {
    "addr:city": "Leipzig",
    "addr:housenumber": "5",
    "addr:postcode": "04103",
    "addr:street": "Grünewaldstraße",
    "amenity": "fast_food",
    "cuisine": "vietnamese",
    "diet:vegetarian": "yes",
    "name": "Onkel Do's",
    "opening_hours": "Mo-Sa 11:00-22:00, Su,PH 12:00-22:00",
    "wheelchair": "limited",
    "wheelchair:description": "ca. 2cm hohe Schwelle am Eingang,"
  }
},
{
  "type": "node",
  "id": 359549718,
  "lat": 51.3433412,
  "lon": 12.3719475,
  "tags": {
    "addr:city": "Leipzig",
    "addr:housenumber": "1",
    "addr:postcode": "04109",
    "addr:street": "Richard-Wagner-Platz",
    "amenity": "restaurant",
    "contact:email": "leipzig@enchilada.de",
    "contact:facebook": "https://www.facebook.com/enchilada.le/",
    "contact:instagram": "https://www.instagram.com/enchilada_puro_mexico/",
    "contact:phone": "+49 341 3086786",
    "contact:website": "https://leipzig.enchilada.de",
    "cuisine": "mexican",
    "diet:vegetarian": "yes",
    "name": "Enchilada",
    "opening_hours": "Mo-Sa 17:00-24:00+, Su 09:00-22:00+",
    "opening_hours:covid19": "Mo-Su 17:00-21:00",
    "toilets:wheelchair": "no",
    "wheelchair": "limited"
  }
},
{
  "type": "node",
  "id": 369296778,
  "lat": 51.3061761,
  "lon": 12.3811532,
  "tags": {
    "addr:city": "Leipzig",
    "addr:housenumber": "47",
    "addr:postcode": "04277",
    "addr:street": "Bornaische Straße",
    "amenity": "fast_food",
    "contact:facebook": "https://www.facebook.com/Pizzeria-Kruste-Vegan-130355045211471/",
    "cuisine": "pizza",
    "diet:vegan": "yes",
    "name": "Pizzeria \"Kruste\"",
    "opening_hours": "Mo-Su 10:00-23:00",
    "opening_hours:covid19": "Mo-Su 15:00-22:00",
    "wheelchair": "no"
  }
},
{
  "type": "node",
  "id": 369296807,
  "lat": 51.3079664,
  "lon": 12.3783866,
  "tags": {
    "addr:city": "Leipzig",
    "addr:housenumber": "23",
    "addr:postcode": "04277",
    "addr:street": "Bornaische Straße",
    "air_conditioning": "no",
    "amenity": "fast_food",
    "cuisine": "pizza",
    "delivery": "yes",
    "diet:vegetarian": "yes",
    "drive_through": "no",
    "internet_access": "no",
    "name": "Happy Hour",
    "opening_hours": "Mo-Sa 11:00-22:45; So,PH 12:00-22:45",
    "outdoor_seating": "no",
    "phone": "+49 341 3032548",
    "smoking": "outside",
    "survey:date": "2020-02-28",
    "takeaway": "yes",
    "wheelchair": "no"
  }
},
{
  "type": "node",
  "id": 369416906,
  "lat": 51.3361813,
  "lon": 12.4231112,
  "tags": {
    "addr:city": "Leipzig",
    "addr:housenumber": "63",
    "addr:postcode": "04318",
    "addr:street": "Theodor-Neubauer-Straße",
    "amenity": "cafe",
    "cuisine": "ice_cream",
    "diet:vegetarian": "yes",
    "name": "Eiscafe am Stünzer Park",
    "name:ja": "アイスカフェ・アム ・シュテュンツァーパーク",
    "opening_hours": "Th-Su 08:00-18:00",
    "phone": "+49 341 6995706",
    "toilets:wheelchair": "no",
    "wheelchair": "yes"
  }
},
{
  "type": "node",
  "id": 386028210,
  "lat": 51.3091916,
  "lon": 12.3754511,
  "tags": {
    "addr:city": "Leipzig",
    "addr:housenumber": "7",
    "addr:postcode": "04277",
    "addr:state": "DE",
    "addr:street": "Bornaische Straße",
    "amenity": "fast_food",
    "cuisine": "vietnamese;chinese;asian",
    "diet:vegan": "yes",
    "diet:vegetarian": "yes",
    "name": "Vegan Express",
    "opening_hours": "11:00-22:00",
    "outdoor_seating": "yes",
    "phone": "+49 341 46369871"
  }
},
{
  "type": "node",
  "id": 386028215,
  "lat": 51.3099103,
  "lon": 12.3739189,
  "tags": {
    "addr:city": "Leipzig",
    "addr:country": "DE",
    "addr:housenumber": "3",
    "addr:postcode": "04277",
    "addr:street": "Bornaische Straße",
    "amenity": "fast_food",
    "contact:website": "https://www.willsons-leipzig.de",
    "cuisine": "bbq;burger",
    "diet:vegan": "yes",
    "drive_through": "no",
    "name": "Willsons",
    "opening_hours": "Mo-Th 10:30-23:00; Fr-Sa 10:30-03:00; Su 10:30-23:00"
  }
},
{
  "type": "node",
  "id": 401788307,
  "lat": 51.3406793,
  "lon": 12.3752927,
  "tags": {
    "addr:city": "Leipzig",
    "addr:country": "DE",
    "addr:housenumber": "1",
    "addr:postcode": "04109",
    "addr:street": "Markt",
    "amenity": "restaurant",
    "contact:email": "info@dasalterathaus-leipzig.de",
    "contact:fax": "+49 341 2306258",
    "contact:phone": "+49 341 2306036",
    "contact:website": "http://www.dasalterathaus-leipzig.de",
    "cuisine": "regional",
    "diet:vegetarian": "yes",
    "name": "Das Alte Rathaus",
    "opening_hours": "Mo-Su 11:00-23:00",
    "operator": "Geyer Gastronomie Restaurantbetriebs GmbH",
    "outdoor_seating": "yes",
    "toilets:wheelchair": "yes",
    "wheelchair": "yes"
  }
},
{
  "type": "node",
  "id": 404695286,
  "lat": 51.3189231,
  "lon": 12.3996642,
  "tags": {
    "addr:city": "Leipzig",
    "addr:country": "DE",
    "addr:housenumber": "44",
    "addr:postcode": "04103",
    "addr:street": "Straße des 18. Oktober",
    "amenity": "fast_food",
    "contact:facebook": "https://www.facebook.com/Troja21leipzig",
    "contact:phone": "+49 341 3085085",
    "cuisine": "mediterranean",
    "diet:vegetarian": "yes",
    "name": "Troja",
    "opening_hours": "Mo-Sa 10:00-22:00",
    "wheelchair": "yes"
  }
},
{
  "type": "node",
  "id": 413572583,
  "lat": 51.4835257,
  "lon": 11.9943745,
  "tags": {
    "addr:city": "Halle (Saale)",
    "addr:country": "DE",
    "addr:housenumber": "21",
    "addr:postcode": "06112",
    "addr:street": "Freiimfelder Straße",
    "amenity": "ice_cream",
    "cuisine": "ice_cream",
    "diet:vegan": "yes",
    "name": "Eisdiele Schmidt",
    "opening_hours": "Mo,Tu off; We-Su 10:00-19:00",
    "outdoor_seating": "no",
    "phone": "+49 345 5600952",
    "toilets:wheelchair": "no",
    "wheelchair": "no",
    "wheelchair:description": "Treppen im Eingangsbereich"
  }
},
{
  "type": "node",
  "id": 416549667,
  "lat": 51.3159247,
  "lon": 12.3730710,
  "tags": {
    "addr:city": "Leipzig",
    "addr:country": "DE",
    "addr:housenumber": "120",
    "addr:postcode": "04275",
    "addr:street": "Karl-Liebknecht-Straße",
    "amenity": "fast_food",
    "cuisine": "asian",
    "diet:vegetarian": "yes",
    "name": "Asia Wok",
    "opening_hours": "Mo-Fr 10:30-15:00,16:00-20:00; Sa 12:00-19:00",
    "phone": "+49 341 4289370",
    "toilets:wheelchair": "no",
    "wheelchair": "yes"
  }
},
{
  "type": "node",
  "id": 458735523,
  "lat": 51.5158245,
  "lon": 11.9131226,
  "tags": {
    "addr:city": "Halle (Saale)",
    "addr:housenumber": "4",
    "addr:postcode": "06120",
    "addr:street": "Heideringpassage",
    "amenity": "fast_food",
    "cuisine": "oriental",
    "diet:vegetarian": "yes",
    "name": "Döner 66",
    "opening_hours": "PH,Mo-Su 11:00-21:00",
    "toilets:wheelchair": "no",
    "wheelchair": "limited"
  }
},
{
  "type": "node",
  "id": 471978357,
  "lat": 51.4801977,
  "lon": 12.0124661,
  "tags": {
    "addr:city": "Halle (Saale)",
    "addr:housenumber": "14",
    "addr:postcode": "06116",
    "addr:street": "Fiete-Schulze-Straße",
    "amenity": "fast_food",
    "contact:phone": "+49 345 6788999",
    "contact:website": "https://www.uno-pizza.de/uno-pizza-halle/",
    "cuisine": "pizza",
    "delivery": "yes",
    "diet:vegan": "yes",
    "diet:vegetarian": "yes",
    "name": "Uno Pizza",
    "opening_hours": "Su-Fr 11:00-23:00; Sa 11:00-24:00",
    "takeaway": "yes"
  }
},
{
  "type": "node",
  "id": 496111415,
  "lat": 51.3392450,
  "lon": 12.3796821,
  "tags": {
    "addr:city": "Leipzig",
    "addr:country": "DE",
    "addr:housenumber": "11",
    "addr:postcode": "04109",
    "addr:street": "Augustusplatz",
    "amenity": "restaurant",
    "brand": "Vapiano",
    "brand:wikidata": "Q506252",
    "brand:wikipedia": "en:Vapiano",
    "cuisine": "italian",
    "diet:vegetarian": "yes",
    "name": "Vapiano",
    "opening_hours": "Mo-Th 11:00-24:00, Fr,Sa 11:00-01:00, Su,PH 11:00-24:00",
    "smoking": "no",
    "toilets:wheelchair": "yes",
    "website": "http://www.vapiano.de",
    "wheelchair": "yes",
    "wheelchair:description": "Rolli Toilette nur mit Mitarbeiter erreichbar (Aufzug außerhalb des Gastbereichs)"
  }
},
{
  "type": "node",
  "id": 501570683,
  "lat": 51.3414853,
  "lon": 12.3754254,
  "tags": {
    "addr:city": "Leipzig",
    "addr:country": "DE",
    "addr:housenumber": "4",
    "addr:postcode": "04109",
    "addr:street": "Katharinenstraße",
    "amenity": "cafe",
    "cuisine": "ice_cream",
    "diet:vegetarian": "yes",
    "name": "Milchbar Pinguin",
    "opening_hours": "Mo-Sa 09:00-22:00; PH,Su 10:00-21:00",
    "phone": "+49 341 9601979",
    "toilets:wheelchair": "no",
    "website": "https://www.milch-bar-pinguin.de/",
    "wheelchair": "no",
    "wheelchair:description": "Toilette im 1. Stock - kein Aufzug"
  }
},
{
  "type": "node",
  "id": 501578983,
  "lat": 51.3416275,
  "lon": 12.3740170,
  "tags": {
    "addr:city": "Leipzig",
    "addr:country": "DE",
    "addr:housenumber": "4",
    "addr:postcode": "04109",
    "addr:street": "Hainstraße",
    "amenity": "fast_food",
    "contact:fax": "+49 341 2618959",
    "contact:phone": "+49 341 9939653",
    "cuisine": "asian",
    "diet:vegan": "yes",
    "diet:vegetarian": "yes",
    "name": "Asia Bistro & Supermarkt",
    "opening_hours": "Mo-Sa 09:30-20:00",
    "operator:tax": "231/257/09400",
    "payment:credit_cards": "no",
    "wheelchair": "limited",
    "wheelchair:description": "Restaurant voll barrierefrei, Supermarkt aber nicht"
  }
},
{
  "type": "node",
  "id": 512195494,
  "lat": 51.3246130,
  "lon": 12.3739473,
  "tags": {
    "addr:city": "Leipzig",
    "addr:housenumber": "65",
    "addr:postcode": "04275",
    "addr:street": "Karl-Liebknecht-Straße",
    "air_conditioning": "no",
    "amenity": "fast_food",
    "cuisine": "kebab",
    "diet:vegetarian": "yes",
    "drive_through": "no",
    "internet_access": "no",
    "name": "Kebabhaus Sim Sim",
    "opening_hours": "Su-Th 10:30-01:00, Fr,Sa 10:30-01:00+",
    "outdoor_seating": "sidewalk",
    "survey:date": "2020-02-28",
    "takeaway": "yes",
    "toilets:wheelchair": "no",
    "wheelchair": "limited"
  }
},
{
  "type": "node",
  "id": 578246181,
  "lat": 51.4919059,
  "lon": 11.9656933,
  "tags": {
    "addr:city": "Halle (Saale)",
    "addr:country": "DE",
    "addr:housenumber": "1",
    "addr:postcode": "06108",
    "addr:street": "Bernburger Straße",
    "amenity": "bar",
    "contact:facebook": "https://www.facebook.com/mosdaniels/",
    "contact:phone": "+49 345 6869800",
    "contact:website": "http://www.mosdaniels.de",
    "diet:vegan": "yes",
    "diet:vegetarian": "yes",
    "name": "Mo's Daniel's",
    "opening_hours": "Mo-Sa 18:00-01:00",
    "wheelchair": "limited"
  }
},
{
  "type": "node",
  "id": 593924008,
  "lat": 51.3429502,
  "lon": 12.3731798,
  "tags": {
    "addr:city": "Leipzig",
    "addr:housenumber": "4",
    "addr:postcode": "04109",
    "addr:street": "Brühl",
    "amenity": "fast_food",
    "contact:email": "essen@curryundco.com",
    "contact:phone": "+49 341 99856739",
    "contact:website": "https://www.curryundco.com/leipzig-zentrum",
    "cuisine": "regional",
    "diet:vegan": "yes",
    "diet:vegetarian": "yes",
    "name": "Curry & Co",
    "opening_hours": "Mo-Sa 11:00-21:00; PH off",
    "outdoor_seating": "yes",
    "toilets:wheelchair": "no",
    "wheelchair": "limited"
  }
},
{
  "type": "node",
  "id": 599205995,
  "lat": 51.3331237,
  "lon": 12.3732585,
  "tags": {
    "addr:city": "Leipzig",
    "addr:housenumber": "2A",
    "addr:postcode": "04107",
    "addr:street": "Straße des 17. Juni",
    "amenity": "canteen",
    "contact:website": "https://www.studentenwerk-leipzig.de/mensen-cafeterien/einrichtungen/peterssteinweg",
    "diet:vegan": "yes",
    "diet:vegetarian": "yes",
    "name": "Mensa Peterssteinweg",
    "opening_hours": "Mo-Fr 08:00-14:00",
    "wheelchair": "yes"
  }
},
{
  "type": "node",
  "id": 620944124,
  "lat": 51.3348188,
  "lon": 12.3786759,
  "tags": {
    "addr:city": "Leipzig",
    "addr:housenumber": "5",
    "addr:postcode": "04103",
    "addr:street": "Grünewaldstraße",
    "amenity": "restaurant",
    "contact:facebook": "https://www.facebook.com/Pizzeria-Del-Cavliere-1438062609596427/",
    "cuisine": "pizza",
    "diet:vegan": "yes",
    "diet:vegetarian": "yes",
    "name": "Pizzeria del Cavaliere",
    "opening_hours": "Mo-Su 11:00-23:00",
    "organic": "only",
    "wheelchair": "limited"
  }
},
{
  "type": "node",
  "id": 640015737,
  "lat": 51.3451798,
  "lon": 12.3798641,
  "tags": {
    "addr:city": "Leipzig",
    "addr:country": "DE",
    "addr:housenumber": "7",
    "addr:postcode": "04109",
    "addr:street": "Willy-Brandt-Platz",
    "amenity": "fast_food",
    "brand": "McDonald's",
    "brand:wikidata": "Q38076",
    "brand:wikipedia": "en:McDonald's",
    "cuisine": "burger",
    "diet:vegan": "yes",
    "diet:vegetarian": "yes",
    "internet_access": "wlan",
    "internet_access:fee": "no",
    "internet_access:operator": "Telekom",
    "level": "1",
    "name": "McDonald's",
    "opening_hours": "24/7",
    "payment:credit_cards": "yes",
    "phone": "+49 341 9617251",
    "takeaway": "yes",
    "website": "http://www.mcdonalds.de",
    "wheelchair": "limited"
  }
},
{
  "type": "node",
  "id": 661171881,
  "lat": 51.3382468,
  "lon": 12.3274762,
  "tags": {
    "addr:city": "Leipzig",
    "addr:housenumber": "8",
    "addr:postcode": "04177",
    "addr:street": "Georg-Schwarz-Straße",
    "amenity": "fast_food",
    "contact:facebook": "https://www.facebook.com/profile.php?id=100054565249400",
    "diet:vegan": "yes",
    "diet:vegetarian": "yes",
    "name": "El Mediterraneo"
  }
},
{
  "type": "node",
  "id": 661190063,
  "lat": 51.3381117,
  "lon": 12.3330935,
  "tags": {
    "addr:city": "Leipzig",
    "addr:housenumber": "24",
    "addr:postcode": "04177",
    "addr:street": "Demmeringstraße",
    "amenity": "cafe",
    "diet:vegan": "no",
    "diet:vegetarian": "yes",
    "name": "Internetcafé Ronza",
    "opening_hours": "Mo,We-Fr 10:00-23:00; Sa,Su,PH 11:00-23:00",
    "wheelchair": "limited"
  }
},
{
  "type": "node",
  "id": 661222428,
  "lat": 51.3382311,
  "lon": 12.3330375,
  "tags": {
    "addr:city": "Leipzig",
    "addr:housenumber": "1",
    "addr:postcode": "04177",
    "addr:street": "Rietschelstraße",
    "amenity": "fast_food",
    "diet:vegan": "yes",
    "diet:vegetarian": "yes",
    "name": "To Dung Bistro",
    "opening_hours": "Mo-Fr 10:30-21:00; Sa,Su,PH 11:30-21:00",
    "wheelchair": "no"
  }
},
{
  "type": "node",
  "id": 683792616,
  "lat": 51.3478207,
  "lon": 11.9780393,
  "tags": {
    "addr:city": "Merseburg",
    "addr:housenumber": "81A",
    "addr:postcode": "06217",
    "addr:street": "Geusaer Straße",
    "amenity": "fast_food",
    "cuisine": "kebab",
    "diet:vegetarian": "yes",
    "name": "Side Döner",
    "opening_hours": "Mo-Fr 10:00-21:00; Sa 10:30-21:00; Su,PH 11:00-21:00",
    "wheelchair": "yes"
  }
},
{
  "type": "node",
  "id": 701606825,
  "lat": 51.3197244,
  "lon": 12.4206422,
  "tags": {
    "addr:city": "Leipzig",
    "addr:housenumber": "24",
    "addr:postcode": "04299",
    "addr:street": "Rudolph-Herrmann-Straße",
    "amenity": "fast_food",
    "cuisine": "asian",
    "diet:vegan": "no",
    "diet:vegetarian": "yes",
    "name": "Asia Pfanne",
    "opening_hours": "Mo-Fr 11:00-20:30; Sa 11:30-16:00"
  }
},
{
  "type": "node",
  "id": 703921614,
  "lat": 51.3201484,
  "lon": 12.4134573,
  "tags": {
    "addr:city": "Leipzig",
    "addr:housenumber": "5d",
    "addr:postcode": "04299",
    "addr:street": "Lichtenbergweg",
    "amenity": "restaurant",
    "contact:website": "https://www.stoetteritz.de",
    "diet:vegan": "no",
    "diet:vegetarian": "yes",
    "name": "Canapée",
    "opening_hours": "Mo-Fr 11:30-14:00"
  }
},
{
  "type": "node",
  "id": 711744198,
  "lat": 51.4844933,
  "lon": 11.9677199,
  "tags": {
    "addr:city": "Halle (Saale)",
    "addr:country": "DE",
    "addr:housenumber": "3",
    "addr:postcode": "06108",
    "addr:street": "Kleine Marktstraße",
    "amenity": "restaurant",
    "brand": "Hans im Glück",
    "brand:wikidata": "Q22569868",
    "brand:wikipedia": "de:Hans im Glück (Restaurantkette)",
    "contact:facebook": "https://www.facebook.com/hansimglueck.halle.amhaendelhaus",
    "contact:phone": "+49 345 94099040",
    "contact:website": "https://hansimglueck-burgergrill.de/standort/halle-am-haendelhaus/",
    "cuisine": "burger",
    "diet:vegan": "yes",
    "diet:vegetarian": "yes",
    "drink:cocktail": "served",
    "name": "Hans im Glück",
    "opening_hours": "Mo-Th,Su 11:00-23:00; Fr,Sa 11:00-00:00",
    "outdoor_seating": "yes",
    "payment:cash": "yes",
    "payment:girocard": "yes",
    "payment:maestro": "yes",
    "payment:mastercard": "yes",
    "payment:visa": "yes",
    "smoking": "isolated",
    "toilets:wheelchair": "no",
    "wheelchair": "limited"
  }
},
{
  "type": "node",
  "id": 788761098,
  "lat": 51.4853151,
  "lon": 11.9685849,
  "tags": {
    "addr:city": "Halle (Saale)",
    "addr:country": "DE",
    "addr:housenumber": "51",
    "addr:postcode": "06108",
    "addr:street": "Große Ulrichstraße",
    "amenity": "cafe",
    "contact:phone": "+49 345 5110712",
    "contact:website": "https://www.ntcafe.de",
    "diet:vegetarian": "yes",
    "name": "Café nt",
    "note": "smoking=isolated angebracht? siehe http://wiki.openstreetmap.org/wiki/DE:Key:smoking#innen Wheelchair: to be checked (Stufen zur toilette?) limited?",
    "opening_hours": "Mo-Sa 10:00-22:00; Su 10:00-18:00",
    "operator": "gastro GmbH",
    "smoking": "separated",
    "wheelchair": "no"
  }
},
{
  "type": "node",
  "id": 798356361,
  "lat": 51.3083868,
  "lon": 12.3760159,
  "tags": {
    "addr:city": "Leipzig",
    "addr:housenumber": "22",
    "addr:postcode": "04277",
    "addr:street": "Bornaische Straße",
    "amenity": "cafe",
    "diet:vegan": "no",
    "diet:vegetarian": "yes",
    "name": "Bäckerei Wendl",
    "opening_hours": "Mo-Sa 06:30-19:30; Su 07:00-17:00",
    "wheelchair": "yes"
  }
},
{
  "type": "node",
  "id": 814769385,
  "lat": 51.3314042,
  "lon": 12.3739434,
  "tags": {
    "addr:city": "Leipzig",
    "addr:housenumber": "1",
    "addr:postcode": "04107",
    "addr:street": "Karl-Liebknecht-Straße",
    "amenity": "restaurant",
    "contact:facebook": "https://www.facebook.com/anchayleipzig",
    "contact:instagram": "https://www.instagram.com/anchay.leipzig/",
    "contact:phone": "+49 341 97856141",
    "contact:website": "https://an-chay.de/",
    "cuisine": "asian",
    "diet:vegan": "only",
    "name": "An Chay",
    "opening_hours": "Mo-Su 11:30-22:00",
    "wheelchair": "yes"
  }
},
{
  "type": "node",
  "id": 836094555,
  "lat": 51.4968059,
  "lon": 11.9643914,
  "tags": {
    "addr:city": "Halle (Saale)",
    "addr:housenumber": "2",
    "addr:postcode": "06114",
    "addr:street": "Böckstraße",
    "amenity": "fast_food",
    "contact:facebook": "https://www.facebook.com/PinocchioBoeckstrasse/",
    "contact:phone": "+49 345 5231869",
    "contact:website": "https://www.pinocchioinhalle.de",
    "cuisine": "pizza",
    "diet:vegetarian": "yes",
    "name": "Pizzeria Pinocchio",
    "opening_hours": "Mo-Su,PH 11:00-22:00",
    "wheelchair": "no"
  }
},
{
  "type": "node",
  "id": 890992516,
  "lat": 51.3409053,
  "lon": 12.3681369,
  "tags": {
    "addr:city": "Leipzig",
    "addr:country": "DE",
    "addr:housenumber": "12",
    "addr:postcode": "04109",
    "addr:street": "Gottschedstraße",
    "amenity": "bar",
    "diet:vegetarian": "yes",
    "food": "yes",
    "gayfriendly": "yes",
    "name": "Barcelona",
    "name:de": "Barcelona Tapas Bar",
    "opening_hours": "Mo-Sa 17:00-02:30; Su 09:00-02:30",
    "outdoor_seating": "yes",
    "wheelchair": "no"
  }
},
{
  "type": "node",
  "id": 916961060,
  "lat": 51.3412307,
  "lon": 12.3742962,
  "tags": {
    "addr:city": "Leipzig",
    "addr:housenumber": "7",
    "addr:postcode": "04109",
    "addr:street": "Markt",
    "amenity": "restaurant",
    "cuisine": "regional",
    "diet:vegetarian": "yes",
    "name": "Weinstock",
    "opening_hours": "PH,Mo-Su 11:00-23:00",
    "toilets:wheelchair": "yes",
    "website": "https://www.restaurant-weinstock-leipzig.de/",
    "wheelchair": "limited"
  }
},
{
  "type": "node",
  "id": 942721131,
  "lat": 51.4871679,
  "lon": 11.9698115,
  "tags": {
    "addr:city": "Halle (Saale)",
    "addr:housenumber": "22",
    "addr:postcode": "06108",
    "addr:street": "Universitätsring",
    "amenity": "fast_food",
    "brand": "Subway",
    "brand:wikidata": "Q244457",
    "brand:wikipedia": "en:Subway (restaurant)",
    "contact:phone": "+49 345 94979848",
    "contact:website": "https://www.subway-halle.de",
    "cuisine": "sandwich",
    "delivery": "yes",
    "diet:vegan": "yes",
    "diet:vegetarian": "yes",
    "name": "Subway",
    "opening_hours": "Mo-Fr 09:00-22:00; Sa-Su 12:00-22:00",
    "takeaway": "yes",
    "wheelchair": "yes"
  }
},
{
  "type": "node",
  "id": 1029695425,
  "lat": 51.3543455,
  "lon": 12.4127570,
  "tags": {
    "addr:city": "Leipzig",
    "addr:housenumber": "83",
    "addr:postcode": "04347",
    "addr:street": "Gorkistraße",
    "amenity": "restaurant",
    "contact:facebook": "https://www.facebook.com/ElTorro.info",
    "cuisine": "mexican",
    "diet:vegan": "yes",
    "diet:vegetarian": "yes",
    "name": "El Torro",
    "opening_hours": "Mo-Sa 16:00-22:00+; Su,PH 11:30-22:00+",
    "phone": "+49 341 2346092",
    "website": "http://www.eltorro.info",
    "wheelchair": "no"
  }
},
{
  "type": "node",
  "id": 1034448971,
  "lat": 51.4832003,
  "lon": 11.9649977,
  "tags": {
    "addr:city": "Halle (Saale)",
    "addr:country": "DE",
    "addr:housenumber": "11",
    "addr:postcode": "06108",
    "addr:street": "Große Klausstraße",
    "amenity": "pub",
    "contact:facebook": "https://www.facebook.com/Kaffee1990/",
    "diet:vegan": "yes",
    "diet:vegetarian": "yes",
    "food": "yes",
    "name": "Nöö",
    "opening_hours": "Su-Th 10:00-01:00; Fr-Sa 10:00-02:00",
    "outdoor_seating": "yes",
    "smoking": "yes",
    "toilets:wheelchair": "no",
    "wheelchair": "limited"
  }
},
{
  "type": "node",
  "id": 1034449861,
  "lat": 51.4843710,
  "lon": 11.9662724,
  "tags": {
    "addr:city": "Halle (Saale)",
    "addr:housenumber": "2",
    "addr:postcode": "06108",
    "addr:street": "Kleine Ulrichstraße",
    "amenity": "restaurant",
    "description": "Vegetarisches Bistro und Restaurant\nauf der Tageskarte werden vegane Gerichte angeboten\nvegane Gerichte sind als solche auch gekennzeichnet",
    "diet:vegan": "yes",
    "diet:vegetarian": "only",
    "name": "Ökoase",
    "opening_hours": "Mo-Su 11:00-18:00",
    "phone": "+49 345 2901604",
    "toilets:wheelchair": "no",
    "website": "http://www.oekoase-halle.de",
    "wheelchair": "limited",
    "wheelchair:description": "Kleine Stufe am Eingang, leicht zu überwinden, oder Rampe kann angelegt werden. Parkplatz im Parkhaus Händelhauskarree oder Große Nikolaistraße (direkt vor dem Händel-Haus). Behinderten-WC nicht vorhanden."
  }
},
{
  "type": "node",
  "id": 1037059970,
  "lat": 51.4856228,
  "lon": 11.9663357,
  "tags": {
    "addr:city": "Halle (Saale)",
    "addr:country": "DE",
    "addr:housenumber": "11",
    "addr:postcode": "06108",
    "addr:street": "Kleine Ulrichstraße",
    "amenity": "pub",
    "brewery": "yes;Guinness;Killkenny",
    "contact:facebook": "https://www.facebook.com/kaffeeschuppen",
    "description": "lots of whiskey, single malt too",
    "diet:vegan": "yes",
    "diet:vegetarian": "yes",
    "name": "Kaffeeschuppen",
    "opening_hours": "Mo-Th 09:00-01:00; Fr-Sa 09:00-02:00; Su 10:00-01:00",
    "opening_hours:url": "https://web2.cylex.de/firma-home/kaffeeschuppen-halle-5215683.html",
    "operator": "Sascha Kluge",
    "payment:cash": "yes",
    "phone": "+49 345 20808-03",
    "smoking": "isolated",
    "toilets:wheelchair": "no",
    "website": "https://www.kaffeeschuppen.de/",
    "wheelchair": "no",
    "wheelchair:description": "keine Rampe, eine Stufe"
  }
},
{
  "type": "node",
  "id": 1037235900,
  "lat": 51.4853210,
  "lon": 11.9713058,
  "tags": {
    "addr:city": "Halle (Saale)",
    "addr:country": "DE",
    "addr:housenumber": "7",
    "addr:postcode": "06108",
    "addr:street": "Mittelstraße",
    "amenity": "bar",
    "contact:instagram": "https://www.instagram.com/czech_bar/",
    "contact:website": "https://www.facebook.com/Czech-139350349441083/",
    "diet:vegan": "yes",
    "diet:vegetarian": "yes",
    "name": "Czech",
    "opening_hours": "Mo-Fr 11:00-01:00; Sa-Su 18:00-00:30",
    "wheelchair": "no"
  }
},
{
  "type": "node",
  "id": 1037236274,
  "lat": 51.4863816,
  "lon": 11.9676866,
  "tags": {
    "addr:city": "Halle (Saale)",
    "addr:country": "DE",
    "addr:housenumber": "41",
    "addr:postcode": "06108",
    "addr:street": "Große Ulrichstraße",
    "amenity": "restaurant",
    "cuisine": "asian",
    "diet:vegan": "limited",
    "diet:vegetarian": "yes",
    "name": "Anh Asia",
    "opening_hours": "Tu-Th 10:30-21:30; Fr-Sa 10:30-23:00; Su 11:00-22:00",
    "phone": "+49 345 52485122",
    "wheelchair": "no"
  }
},
{
  "type": "node",
  "id": 1038238639,
  "lat": 51.4872334,
  "lon": 11.9683896,
  "tags": {
    "addr:city": "Halle (Saale)",
    "addr:housenumber": "6",
    "addr:postcode": "06108",
    "addr:street": "Universitätsring",
    "amenity": "restaurant",
    "contact:email": "halle@enchilada.de",
    "contact:facebook": "https://www.facebook.com/enchilada.hal/",
    "contact:instagram": "https://www.instagram.com/enchilada_halle/",
    "contact:phone": "+49 345 47896090",
    "contact:website": "https://halle.enchilada.de",
    "cuisine": "mexican",
    "diet:vegan": "yes",
    "diet:vegetarian": "yes",
    "name": "Enchilada",
    "opening_hours": "Mo-Sa 18:00-01:00, Su off",
    "smoking": "isolated",
    "toilets:wheelchair": "yes",
    "wheelchair": "limited"
  }
},
{
  "type": "node",
  "id": 1045144852,
  "lat": 51.4972230,
  "lon": 11.9638301,
  "tags": {
    "addr:city": "Halle (Saale)",
    "addr:housenumber": "10",
    "addr:postcode": "06114",
    "addr:street": "Adolfstraße",
    "amenity": "cafe",
    "diet:vegan": "yes",
    "diet:vegetarian": "yes",
    "name": "Rosenburg",
    "opening_hours": "Mo-Su 10:00-19:00",
    "opening_hours:covid19": "Mo-Su 10:00-17:00",
    "toilets:wheelchair": "no",
    "wheelchair": "limited"
  }
},
{
  "type": "node",
  "id": 1045144871,
  "lat": 51.4955458,
  "lon": 11.9664838,
  "tags": {
    "addr:city": "Halle (Saale)",
    "addr:country": "DE",
    "addr:housenumber": "133",
    "addr:postcode": "06114",
    "addr:street": "Reilstraße",
    "amenity": "bar",
    "contact:facebook": "https://www.facebook.com/zweiZKB/",
    "diet:vegan": "limited",
    "name": "Zwei Zimmer Küche Bar",
    "opening_hours": "Su-Th 12:00-02:00; Fr-Sa 12:00-03:00",
    "wheelchair": "limited"
  }
},
{
  "type": "node",
  "id": 1080490341,
  "lat": 51.3086827,
  "lon": 12.3765642,
  "tags": {
    "addr:city": "Leipzig",
    "addr:housenumber": "11",
    "addr:postcode": "04277",
    "addr:street": "Bornaische Straße",
    "air_conditioning": "no",
    "amenity": "fast_food",
    "cuisine": "pizza",
    "delivery": "yes",
    "diet:vegetarian": "yes",
    "drive_through": "no",
    "email": "pizzarevolution@web.de",
    "fax": "+49 341 30818362",
    "internet_access": "no",
    "name": "Pizza Revolution",
    "note": "ehem. Zoofachgeschäft R. Stauche",
    "opening_hours": "Mo-Fr 10:30-14:30,16:30-22:30; Sa 16:00-22:30; Su 11:30-22:30",
    "operator": "Siear Sharifie",
    "outdoor_seating": "sidewalk",
    "phone": "+49 341 30818362",
    "survey:date": "2020-02-27",
    "takeaway": "yes",
    "website": "https://www.revolution-pizza.de",
    "wheelchair": "no"
  }
},
{
  "type": "node",
  "id": 1117815968,
  "lat": 51.3068304,
  "lon": 12.3737199,
  "tags": {
    "addr:city": "Leipzig",
    "addr:housenumber": "29",
    "addr:postcode": "04277",
    "addr:street": "Wolfgang-Heinze-Straße",
    "amenity": "fast_food",
    "contact:facebook": "https://www.facebook.com/lonestaratacolypse/",
    "cuisine": "tex-mex",
    "description": "Vegan Tex-Mex",
    "diet:lactose_free": "only",
    "diet:vegan": "only",
    "drive_through": "no",
    "name": "Atacolypse",
    "opening_hours": "We-Mo 13:00-21:00",
    "opening_hours:covid19": "same",
    "outdoor_seating": "yes",
    "payment:cash": "yes",
    "takeaway": "yes",
    "wheelchair": "limited"
  }
},
{
  "type": "node",
  "id": 1119052634,
  "lat": 51.3102458,
  "lon": 12.3726144,
  "tags": {
    "addr:city": "Leipzig",
    "addr:housenumber": "136",
    "addr:postcode": "04277",
    "addr:street": "Kochstraße",
    "amenity": "fast_food",
    "cuisine": "german;burger",
    "diet:vegan": "yes",
    "diet:vegetarian": "yes",
    "name": "Curry Süd Imbiss",
    "opening_hours": "Mo-Th 11:00-22:00; Fr 11:00-01:00, Sa 12:00-01:00, Su 12:00-22:00",
    "toilets:wheelchair": "no",
    "website": "http://www.burger-am-kreuz.de/",
    "wheelchair": "no"
  }
},
{
  "type": "node",
  "id": 1185202509,
  "lat": 51.4896696,
  "lon": 11.9676367,
  "tags": {
    "addr:city": "Halle (Saale)",
    "addr:country": "DE",
    "addr:housenumber": "41",
    "addr:postcode": "06108",
    "addr:street": "Harz",
    "amenity": "restaurant",
    "contact:website": "https://www.studentenwerk-halle.de/mensen-cafebars/mensen-in-halle/harzmensa/",
    "cuisine": "canteen",
    "delivery": "no",
    "diet:vegan": "yes",
    "diet:vegetarian": "yes",
    "name": "Harzmensa",
    "opening_hours": "Mo-Fr 11:15-14:00",
    "outdoor_seating": "yes",
    "smoking": "no",
    "takeaway": "yes",
    "wheelchair": "yes"
  }
},
{
  "type": "node",
  "id": 1226029816,
  "lat": 51.3447571,
  "lon": 12.3816671,
  "tags": {
    "addr:city": "Leipzig",
    "addr:country": "DE",
    "addr:housenumber": "5",
    "addr:postcode": "04109",
    "addr:street": "Willy-Brandt-Platz",
    "brand": "Ditsch",
    "brand:wikidata": "Q911573",
    "brand:wikipedia": "en:Ditsch",
    "cuisine": "pizza",
    "diet:vegetarian": "yes",
    "level": "0",
    "name": "Ditsch",
    "opening_hours": "Mo-Sa 10:00-21:00; Su 10:30-18:00",
    "operator": "Ditsch GmbH",
    "ref": "6085",
    "shop": "bakery",
    "website": "https://www.ditsch.de/",
    "wheelchair": "yes"
  }
},
{
  "type": "node",
  "id": 1303805709,
  "lat": 51.3177873,
  "lon": 12.3838441,
  "tags": {
    "addr:city": "Leipzig",
    "addr:country": "DE",
    "addr:housenumber": "13",
    "addr:postcode": "04275",
    "addr:street": "Altenburger Straße",
    "amenity": "restaurant",
    "diet:vegan": "yes",
    "diet:vegetarian": "yes",
    "name": "Media City Bistro",
    "opening_hours": "Mo-Fr 08:00-17:00",
    "toilets:wheelchair": "yes",
    "wheelchair": "yes"
  }
},
{
  "type": "node",
  "id": 1304091106,
  "lat": 51.3068850,
  "lon": 12.3800520,
  "tags": {
    "addr:city": "Leipzig",
    "addr:country": "DE",
    "addr:housenumber": "54",
    "addr:postcode": "04277",
    "addr:street": "Bornaische Straße",
    "amenity": "restaurant",
    "cuisine": "international",
    "delivery": "no",
    "diet:vegan": "yes",
    "diet:vegetarian": "only",
    "name": "Zest",
    "opening_hours": "Mo,We,Th 17:00+; Fr,Sa,Su,PH 11:00+",
    "outdoor_seating": "yes",
    "phone": "+49 (0) 341 23 19 126",
    "smoking": "outside",
    "takeaway": "no",
    "website": "http://www.zest-leipzig.de/",
    "wheelchair": "no"
  }
},
{
  "type": "node",
  "id": 1342645854,
  "lat": 51.3520520,
  "lon": 12.4083283,
  "tags": {
    "addr:city": "Leipzig",
    "addr:country": "DE",
    "addr:housenumber": "1",
    "addr:postcode": "04347",
    "addr:street": "Dimpfelstraße",
    "amenity": "restaurant",
    "cuisine": "asian",
    "diet:vegetarian": "yes",
    "name": "Madame Thanh",
    "opening_hours": "Mo-Su 11:00-22:00",
    "phone": "+49 341 3086932",
    "wheelchair": "no"
  }
},
{
  "type": "node",
  "id": 1411601850,
  "lat": 51.3220234,
  "lon": 12.4186091,
  "tags": {
    "addr:city": "Leipzig",
    "addr:housenumber": "14",
    "addr:postcode": "04299",
    "addr:street": "Weißestraße",
    "amenity": "fast_food",
    "cuisine": "turkish",
    "diet:vegan": "yes",
    "diet:vegetarian": "yes",
    "name": "Yunus",
    "opening_hours": "Mo-Fr 10:30-22:00; Sa 11:00-22:00; Su,PH 12:00-22:00"
  }
},
{
  "type": "node",
  "id": 1449420916,
  "lat": 51.3414899,
  "lon": 12.3786549,
  "tags": {
    "addr:city": "Leipzig",
    "addr:country": "DE",
    "addr:housenumber": "16",
    "addr:postcode": "04109",
    "addr:street": "Nikolaistraße",
    "amenity": "restaurant",
    "changing_table": "no",
    "cuisine": "indian",
    "diet:vegetarian": "yes",
    "email": "info@mumbai-lounge.de",
    "name": "Mumbai",
    "name:ja": "ムンバイ",
    "opening_hours": "Sa 11:30-23:00; Mo-Fr,Su 13:00-23:00",
    "operator": "Nadeem Randhawa",
    "outdoor_seating": "yes",
    "phone": "+49 341 5502595",
    "toilets": "yes",
    "toilets:wheelchair": "no",
    "website": "https://www.mumbai-lounge.de/",
    "wheelchair": "limited"
  }
},
{
  "type": "node",
  "id": 1475009992,
  "lat": 51.4826808,
  "lon": 11.9708291,
  "tags": {
    "addr:city": "Halle (Saale)",
    "addr:country": "DE",
    "addr:housenumber": "24",
    "addr:postcode": "06108",
    "addr:street": "Marktplatz",
    "amenity": "restaurant",
    "cuisine": "italian",
    "diet:vegan": "limited",
    "diet:vegetarian": "yes",
    "name": "Rossini",
    "opening_hours": "Mo-Sa 09:00-22:00; Su 10:00-22:00",
    "outdoor_seating": "yes",
    "phone": "+49 345 6856521",
    "toilets:wheelchair": "yes",
    "wheelchair": "yes",
    "wheelchair:description": "Rampe, Aufzug, Behinderten-WC und -Parkplatz vorhanden (Parkhaus Händelhauskarree)."
  }
},
{
  "type": "node",
  "id": 1487575423,
  "lat": 51.3546814,
  "lon": 12.4127722,
  "tags": {
    "addr:city": "Leipzig",
    "addr:housenumber": "84",
    "addr:postcode": "04347",
    "addr:street": "Gorkistraße",
    "amenity": "fast_food",
    "cuisine": "kebab",
    "diet:vegan": "no",
    "diet:vegetarian": "yes",
    "name": "Bistro Schönefeld",
    "opening_hours": "Mo-Sa 10:00-22:00; Su 12:00-22:00"
  }
},
{
  "type": "node",
  "id": 1487575426,
  "lat": 51.3542585,
  "lon": 12.4121167,
  "tags": {
    "addr:city": "Leipzig",
    "addr:housenumber": "92",
    "addr:postcode": "04347",
    "addr:street": "Gorkistraße",
    "amenity": "fast_food",
    "cuisine": "pizza",
    "diet:vegetarian": "yes",
    "email": "info@pizzeria-family.de",
    "name": "Pizzeria Family Service",
    "opening_hours": "Mo-Fr 10:00-14:30; Mo-Fr 16:30-22:45; Sa 11:00-14:30; Sa 16:30-22:45; Su 11:00-22:45",
    "phone": "+49 341 2334917",
    "website": "https://www.familypizza.de/",
    "wheelchair": "limited"
  }
},
{
  "type": "node",
  "id": 1538147900,
  "lat": 51.4877831,
  "lon": 11.9708458,
  "tags": {
    "addr:city": "Halle (Saale)",
    "addr:country": "DE",
    "addr:housenumber": "3",
    "addr:postcode": "06108",
    "addr:street": "August-Bebel-Straße",
    "amenity": "restaurant",
    "contact:facebook": "https://www.facebook.com/LeFeuHalle/",
    "contact:phone": "+49 345 13 25 96 69",
    "contact:website": "https://www.lefeu.de/le-feu-halle-saale",
    "cuisine": "french",
    "description": "omnivores Flammkuchen-Restaurant\ngroß Auswahl an vegan bestellbaren Flammkuchen - diese sind gut gekennzeichnet",
    "diet:vegan": "yes",
    "diet:vegetarian": "yes",
    "disused:amenity": "restaurant",
    "name": "Le Feu",
    "opening_hours": "Su-Th 17:00-22:00; Fr-Sa 17:00-23:00",
    "outdoor_seating": "no",
    "wheelchair": "no"
  }
},
{
  "type": "node",
  "id": 1562519987,
  "lat": 51.4880551,
  "lon": 11.9770411,
  "tags": {
    "addr:city": "Halle (Saale)",
    "addr:housenumber": "3",
    "addr:postcode": "06112",
    "addr:street": "Am Steintor",
    "amenity": "fast_food",
    "contact:email": "info@bistro-sundarban.de",
    "contact:facebook": "https://www.facebook.com/Bistro-Sundarban-am-Steintor-571323043020423/",
    "contact:website": "http://www.bistro-sundarban.de",
    "cuisine": "indian;turkish",
    "diet:vegan": "yes",
    "diet:vegetarian": "yes",
    "name": "Bistro Sundarban",
    "opening_hours": "Mo-Sa 11:00-22:00; Su,PH 12:00-22:00",
    "operator": "H. Kestel",
    "phone": "+49 179 4554442",
    "toilets:wheelchair": "no",
    "wheelchair": "no"
  }
},
{
  "type": "node",
  "id": 1634338630,
  "lat": 51.3390782,
  "lon": 12.3920558,
  "tags": {
    "addr:city": "Leipzig",
    "addr:housenumber": "11-13",
    "addr:postcode": "04103",
    "addr:street": "Dresdner Straße",
    "amenity": "restaurant",
    "cuisine": "german",
    "diet:vegetarian": "yes",
    "email": "kontakt@zunftkeller.de",
    "fax": "+49 341 2246846",
    "internet_access": "no",
    "name": "Zunftkeller",
    "opening_hours": "Mo 17:00-24:00; Tu-Sa 11:00-24:00; Su 11:00-15:00",
    "outdoor_seating": "yes",
    "phone": "+49 341 2188319",
    "smoking": "no",
    "website": "https://www.zunftkeller.de/",
    "wheelchair": "no"
  }
},
{
  "type": "node",
  "id": 1634514338,
  "lat": 51.3531808,
  "lon": 11.9905999,
  "tags": {
    "addr:city": "Merseburg",
    "addr:country": "DE",
    "addr:housenumber": "2",
    "addr:postcode": "06217",
    "addr:street": "Teichstraße",
    "amenity": "restaurant",
    "cuisine": "chinese",
    "diet:vegetarian": "yes",
    "name": "China-Restaurant Dynastie",
    "old_name": "Hong Kong",
    "opening_hours": "Tu 17:30-22:00; We-Su,PH 11:00-14:30,17:30-22:00",
    "phone": "+49 3461 214066",
    "toilets:wheelchair": "no",
    "wheelchair": "yes"
  }
},
{
  "type": "node",
  "id": 1639760594,
  "lat": 51.4882466,
  "lon": 11.9671873,
  "tags": {
    "addr:city": "Halle (Saale)",
    "addr:housenumber": "9",
    "addr:postcode": "06108",
    "addr:street": "Neumarktstraße",
    "amenity": "cafe",
    "contact:facebook": "https://www.facebook.com/bewaffeldich/",
    "contact:instagram": "https://www.instagram.com/bewaffeldich/",
    "contact:website": "https://www.bewaffel-dich.de",
    "cuisine": "waffle",
    "diet:vegan": "yes",
    "diet:vegetarian": "yes",
    "internet_access": "wlan",
    "internet_access:fee": "no",
    "name": "Bewaffel Dich",
    "opening_hours": "Mo-Th 09:00-23:00; Fr-Sa 09:00-00:00; Su 09:00-23:00",
    "outdoor_seating": "yes",
    "wheelchair": "limited"
  }
},
{
  "type": "node",
  "id": 1641981285,
  "lat": 51.3387156,
  "lon": 12.4026678,
  "tags": {
    "addr:city": "Leipzig",
    "addr:housenumber": "62",
    "addr:postcode": "04317",
    "addr:street": "Dresdner Straße",
    "amenity": "fast_food",
    "cuisine": "kebab",
    "diet:vegan": "yes",
    "diet:vegetarian": "yes",
    "name": "Olive",
    "opening_hours": "Mo-So 09:00-00:00"
  }
},
{
  "type": "node",
  "id": 1647840525,
  "lat": 51.3359785,
  "lon": 12.4041638,
  "tags": {
    "addr:city": "Leipzig",
    "addr:housenumber": "68",
    "addr:postcode": "04317",
    "addr:street": "Täubchenweg",
    "amenity": "fast_food",
    "cuisine": "pizza",
    "delivery": "yes",
    "diet:vegan": "yes",
    "diet:vegetarian": "yes",
    "name": "Star Pizza",
    "opening_hours": "Mo-Sa 10:30-14:30,17:00-23:00; Su,PH 12:00-23:00",
    "phone": "+49 341 6994664",
    "takeaway": "yes",
    "website": "https://www.star-pizza-leipzig.de"
  }
},
{
  "type": "node",
  "id": 1661228222,
  "lat": 51.3451105,
  "lon": 12.3799897,
  "tags": {
    "addr:city": "Leipzig",
    "addr:country": "DE",
    "addr:housenumber": "5",
    "addr:postcode": "04109",
    "addr:street": "Willy-Brandt-Platz",
    "amenity": "fast_food",
    "brand": "Subway",
    "brand:wikidata": "Q244457",
    "brand:wikipedia": "en:Subway (restaurant)",
    "cuisine": "sandwich",
    "diet:vegetarian": "yes",
    "layer": "1",
    "level": "0",
    "name": "Subway",
    "opening_hours": "Mo-Th 05:00-24:00; Su,PH 09:00-24:00, Fr,Sa 05:00-01:00",
    "phone": "+49 341 225541",
    "ref": "34045",
    "takeaway": "yes",
    "website": "http://www.subway-leipzig.de",
    "wheelchair": "limited"
  }
},
{
  "type": "node",
  "id": 1663291851,
  "lat": 51.3162777,
  "lon": 12.3731226,
  "tags": {
    "addr:city": "Leipzig",
    "addr:country": "DE",
    "addr:housenumber": "114",
    "addr:postcode": "04275",
    "addr:street": "Karl-Liebknecht-Straße",
    "amenity": "fast_food",
    "cuisine": "vietnamese",
    "diet:vegan": "yes",
    "diet:vegetarian": "yes",
    "name": "Cá Pha'o",
    "opening_hours": "Mo,We-Fr 11:30-22:30; Sa,Su 12:00-22:30",
    "outdoor_seating": "yes",
    "shop": "butcher",
    "takeaway": "yes"
  }
},
{
  "type": "node",
  "id": 1663291884,
  "lat": 51.3164622,
  "lon": 12.3731148,
  "tags": {
    "addr:city": "Leipzig",
    "addr:country": "DE",
    "addr:housenumber": "112",
    "addr:postcode": "04275",
    "addr:street": "Karl-Liebknecht-Straße",
    "amenity": "restaurant",
    "diet:vegan": "only",
    "name": "Symbiose",
    "opening_hours": "Tu-Th 17:00-22:30; Fr-Sa 17:00-23:30; Su 10:00-22:00",
    "website": "https://www.symbiose-leipzig.de/",
    "wheelchair": "no"
  }
},
{
  "type": "node",
  "id": 1675706101,
  "lat": 51.5125023,
  "lon": 11.9587678,
  "tags": {
    "addr:city": "Halle (Saale)",
    "addr:country": "DE",
    "addr:housenumber": "15",
    "addr:postcode": "06118",
    "addr:street": "Trothaer Straße",
    "amenity": "restaurant",
    "cuisine": "chinese",
    "diet:vegetarian": "yes",
    "name": "China Garden",
    "opening_hours": "Mo-Su,PH 11:30-15:00,17:00-23:00",
    "phone": "+49 345 5320670"
  }
},
{
  "type": "node",
  "id": 1676156956,
  "lat": 51.4852757,
  "lon": 11.9680151,
  "tags": {
    "addr:city": "Halle (Saale)",
    "addr:country": "DE",
    "addr:housenumber": "16",
    "addr:postcode": "06108",
    "addr:street": "Große Ulrichstraße",
    "amenity": "restaurant",
    "cuisine": "indian",
    "diet:vegan": "limited",
    "diet:vegetarian": "yes",
    "email": "kontakt@house-of-india.de",
    "fax": "+49 345 6857573",
    "name": "House Of India",
    "opening_hours": "Mo-Sa 11:30-14:30, 17:30-23:30; Su 11:30-23:30",
    "phone": "+49 345 2083888",
    "website": "https://www.house-of-india.de/",
    "wheelchair": "no",
    "wheelchair:description": "Aufzug erst nach einigen Treppen erreichbar:"
  }
},
{
  "type": "node",
  "id": 1701119442,
  "lat": 51.5121840,
  "lon": 11.9593887,
  "tags": {
    "addr:city": "Halle (Saale)",
    "addr:housenumber": "14",
    "addr:postcode": "06118",
    "addr:street": "Trothaer Straße",
    "contact:website": "https://www.naturata-halle.de",
    "diet:vegan": "yes",
    "diet:vegetarian": "yes",
    "name": "naturata",
    "opening_hours": "Mo-Sa 08:00-20:00",
    "organic": "only",
    "shop": "supermarket",
    "wheelchair": "limited"
  }
},
{
  "type": "node",
  "id": 1827096199,
  "lat": 51.3468367,
  "lon": 12.4086003,
  "tags": {
    "addr:city": "Leipzig",
    "addr:housenumber": "89",
    "addr:postcode": "04315",
    "addr:street": "Mariannenstraße",
    "alt_name": "NUR Leipzig",
    "amenity": "cafe",
    "cuisine": "coffee_shop",
    "diet:vegan": "only",
    "name": "nähmaschineundregenschirm",
    "opening_hours": "Th-Su 15:00-24:00",
    "short_name": "NUR",
    "wheelchair": "no"
  }
},
{
  "type": "node",
  "id": 1902279166,
  "lat": 51.4959637,
  "lon": 11.9650240,
  "tags": {
    "addr:city": "Halle (Saale)",
    "addr:housenumber": "12",
    "addr:postcode": "06114",
    "addr:street": "Stephanusstraße",
    "diet:vegan": "yes",
    "diet:vegetarian": "yes",
    "name": "Biomarkt am Reileck",
    "opening_hours": "Mo-Fr 09:30-19:00; Sa 09:00-13:00; PH off",
    "organic": "only",
    "shop": "convenience",
    "website": "http://www.biomarkt-halle.de",
    "wheelchair": "no"
  }
},
{
  "type": "node",
  "id": 1931764008,
  "lat": 51.4881925,
  "lon": 11.9707479,
  "tags": {
    "addr:city": "Halle (Saale)",
    "addr:country": "DE",
    "addr:housenumber": "53",
    "addr:postcode": "06108",
    "addr:street": "August-Bebel-Straße",
    "amenity": "restaurant",
    "contact:email": "afamia-eck@hotmail.com",
    "contact:facebook": "https://www.facebook.com/Afamia-Eck-484508991704649/",
    "contact:instagram": "https://www.instagram.com/afamiaeck53/",
    "contact:phone": "+49 345 47885417",
    "contact:website": "https://www.afamia-halle.de",
    "cuisine": "oriental;burger",
    "delivery": "no",
    "description": "orientalisches omvivores Bistro/Gaststätte wechselndes Angebot an Nachspeisen und Hauptgerichten wie vegane Döner mit Seitan, Burger, Falaffel-Variationen, Kartoffelpizza sehr offen und kreativ was veganes Essen angeht viele Innen-Sitzplätze",
    "diet:vegan": "yes",
    "diet:vegetarian": "yes",
    "name": "Afamia Eck",
    "opening_hours": "Mo-Sa 11:00-21:00",
    "outdoor_seating": "no",
    "smoking": "no",
    "takeaway": "yes",
    "toilets:wheelchair": "no",
    "wheelchair": "no"
  }
},
{
  "type": "node",
  "id": 1943778686,
  "lat": 51.4853313,
  "lon": 11.9679623,
  "tags": {
    "addr:city": "Halle (Saale)",
    "addr:housenumber": "16",
    "addr:postcode": "06108",
    "addr:street": "Große Ulrichstraße",
    "diet:vegan": "yes",
    "diet:vegetarian": "yes",
    "name": "biorio",
    "opening_hours": "Mo-Fr 09:00-20:00; Sa 09:00-19:00",
    "organic": "only",
    "shop": "supermarket",
    "wheelchair": "yes"
  }
},
{
  "type": "node",
  "id": 1953511394,
  "lat": 51.3366949,
  "lon": 12.4062996,
  "tags": {
    "addr:city": "Leipzig",
    "addr:housenumber": "28",
    "addr:postcode": "04317",
    "addr:street": "Kippenbergstraße",
    "amenity": "fast_food",
    "contact:facebook": "https://www.facebook.com/Zu-Sp%C3%A4t-310145699093440/",
    "cuisine": "fastfood;hotdogs;fries;cake;beer;cola;coffee;Mate",
    "delivery:covid19": "no",
    "diet:vegan": "only",
    "diet:vegetarian": "only",
    "drink:club-mate": "yes",
    "internet_access": "no",
    "name": "Bistro \"Zu Spät\"",
    "opening_hours": "Mo-Sa 16:00-00:00",
    "opening_hours:covid19": "Mo-Sa 15:30-19:30",
    "takeaway:covid19": "yes",
    "wheelchair": "no"
  }
},
{
  "type": "node",
  "id": 1955876490,
  "lat": 51.4956736,
  "lon": 11.9664836,
  "tags": {
    "addr:city": "Halle (Saale)",
    "addr:housenumber": "133",
    "addr:postcode": "06114",
    "addr:street": "Reilstraße",
    "amenity": "fast_food",
    "cuisine": "kebab",
    "diet:vegan": "limited",
    "diet:vegan:labeled": "no",
    "diet:vegetarian": "yes",
    "name": "Tomate Döner",
    "opening_hours": "Mo-Su 11:00-22:00",
    "wheelchair": "no"
  }
},
{
  "type": "node",
  "id": 1973589945,
  "lat": 51.3427729,
  "lon": 12.3626550,
  "tags": {
    "addr:city": "Leipzig",
    "addr:housenumber": "8",
    "addr:postcode": "04109",
    "addr:street": "Jahnallee",
    "amenity": "restaurant",
    "cuisine": "italian",
    "diet:vegan": "yes",
    "diet:vegetarian": "yes",
    "name": "Osteria Pizzeria L'arena",
    "opening_hours": "Mo-Su 11:00-22:00",
    "toilets:wheelchair": "no",
    "wheelchair": "limited"
  }
},
{
  "type": "node",
  "id": 2018747313,
  "lat": 51.4778155,
  "lon": 11.9703782,
  "tags": {
    "addr:city": "Halle (Saale)",
    "addr:housenumber": "4",
    "addr:postcode": "06110",
    "addr:street": "Franckeplatz",
    "amenity": "restaurant",
    "contact:facebook": "https://www.facebook.com/nudelmacher",
    "contact:instagram": "https://www.instagram.com/nudelnmachengluecklich/",
    "contact:phone": "+49 345 25060878",
    "contact:website": "https://www.nudelmanufaktur-halle.de",
    "cuisine": "italian",
    "diet:vegan": "limited",
    "diet:vegetarian": "yes",
    "email": "die@nudelmanufaktur-halle.de",
    "name": "Nudelmanufaktur",
    "opening_hours": "Mo,We 11:30-15:30; Tu,Th 11:30-20:00; Fr-Sa 11:30-21:00",
    "outdoor_seating": "yes",
    "wheelchair": "no"
  }
},
{
  "type": "node",
  "id": 2021867958,
  "lat": 51.3379469,
  "lon": 12.3660355,
  "tags": {
    "addr:city": "Leipzig",
    "addr:country": "DE",
    "addr:housenumber": "19",
    "addr:postcode": "04109",
    "addr:street": "Kolonnadenstraße",
    "amenity": "cafe",
    "diet:vegetarian": "only",
    "internet_access": "wlan",
    "internet_access:fee": "no",
    "name": "Libelle",
    "opening_hours": "Sa 20:00+; Su[3] 12:00+",
    "website": "https://www.libelle-leipzig.de",
    "wheelchair": "limited"
  }
},
{
  "type": "node",
  "id": 2030536901,
  "lat": 51.4849562,
  "lon": 11.9702197,
  "tags": {
    "addr:city": "Halle (Saale)",
    "addr:country": "DE",
    "addr:housenumber": "8",
    "addr:postcode": "06108",
    "addr:street": "Barfüßerstraße",
    "amenity": "restaurant",
    "cuisine": "german",
    "diet:vegetarian": "yes",
    "email": "info@wildschuetz-halle.de",
    "name": "Wildschütz",
    "note": "Spezialität: Wildgerichte",
    "opening_hours": "Tu-Sa 11:00-14:00,17:00-23:00; Su 11:00-20:00",
    "phone": "+49 345 4458725",
    "website": "http://wildschuetz-halle.de",
    "wheelchair": "limited",
    "wheelchair:description": "Eingang über Hof, eine Stufe"
  }
},
{
  "type": "node",
  "id": 2051567009,
  "lat": 51.4899957,
  "lon": 11.9655845,
  "tags": {
    "addr:city": "Halle (Saale)",
    "addr:country": "DE",
    "addr:housenumber": "21",
    "addr:postcode": "06108",
    "addr:street": "Geiststraße",
    "diet:vegan": "yes",
    "diet:vegetarian": "yes",
    "name": "ÖkoHalle",
    "opening_hours": "Mo-Th 09:00-13:00,15:00-18:30; Fr 09:00-18:30; Sa 09:00-13:00; Su,PH off",
    "organic": "only",
    "shop": "convenience",
    "wheelchair": "no"
  }
},
{
  "type": "node",
  "id": 2054728126,
  "lat": 51.4017037,
  "lon": 12.4000562,
  "tags": {
    "addr:city": "Leipzig",
    "addr:country": "DE",
    "addr:housenumber": "4",
    "addr:postcode": "04356",
    "addr:street": "Handelsstraße",
    "amenity": "restaurant",
    "cuisine": "american",
    "diet:vegan": "yes",
    "diet:vegetarian": "yes",
    "email": "info@bowlplay.de",
    "fax": "+49 341 5243610",
    "name": "Grand Canyon",
    "opening_hours": "Mo-Fr 11:30-24:00; Sa 00:00-01:00,10:00-24:00; Su 00:00-02:00,10:00-24:00",
    "outdoor_seating": "no",
    "phone": "+49 341 5243888",
    "takeaway": "no",
    "website": "http://www.bowlplay.de/cms/index.php/gastronomie/restaurant"
  }
},
{
  "type": "node",
  "id": 2065237786,
  "lat": 51.4840227,
  "lon": 11.9715581,
  "tags": {
    "addr:city": "Halle (Saale)",
    "addr:housenumber": "79",
    "addr:postcode": "06108",
    "addr:street": "Große Steinstraße",
    "contact:phone": "+49 345 2034240",
    "contact:website": "https://www.naturell-halle.de",
    "diet:vegan": "yes",
    "diet:vegetarian": "yes",
    "name": "Naturell",
    "opening_hours": "Mo-Fr 09:30-19:00; Sa 10:00-14:00; Su,PH off",
    "organic": "only",
    "shop": "supermarket",
    "wheelchair": "no"
  }
},
{
  "type": "node",
  "id": 2068490774,
  "lat": 51.4873171,
  "lon": 11.9673680,
  "tags": {
    "addr:city": "Halle (Saale)",
    "addr:housenumber": "9",
    "addr:postcode": "06108",
    "addr:street": "Universitätsring",
    "amenity": "bar",
    "contact:email": "the-one-halle@gmx.de",
    "contact:facebook": "https://www.facebook.com/the.1.halle",
    "contact:fax": "+49 345 4704564",
    "contact:instagram": "https://www.instagram.com/the_one_halle/",
    "contact:phone": "+49 157 75356067",
    "contact:website": "https://www.the-one-halle.de",
    "cuisine": "burger",
    "diet:vegan": "yes",
    "diet:vegetarian": "yes",
    "name": "the one",
    "opening_hours": "Tu-Th 17:00-22:00; Fr,Sa 17:00-00:00; Mo,Su,PH off",
    "smoking": "separated",
    "wheelchair": "no"
  }
},
{
  "type": "node",
  "id": 2140362874,
  "lat": 51.3451549,
  "lon": 12.3810193,
  "tags": {
    "addr:city": "Leipzig",
    "addr:housenumber": "5",
    "addr:postcode": "04109",
    "addr:street": "Willy-Brandt-Platz",
    "brand": "Le Crobag",
    "brand:wikidata": "Q1558025",
    "brand:wikipedia": "de:Le Crobag",
    "diet:vegan": "no",
    "diet:vegetarian": "yes",
    "level": "1",
    "name": "Le Crobag",
    "opening_hours": "Mo-Fr 05:30-20:00; Sa,Su,PH 06:00-20:00",
    "shop": "bakery",
    "toilets:wheelchair": "no"
  }
},
{
  "type": "node",
  "id": 2179499253,
  "lat": 51.3385368,
  "lon": 12.3271424,
  "tags": {
    "addr:city": "Leipzig",
    "addr:country": "DE",
    "addr:housenumber": "9",
    "addr:postcode": "04177",
    "addr:street": "Georg-Schwarz-Straße",
    "amenity": "cafe",
    "diet:vegan": "no",
    "diet:vegetarian": "yes",
    "name": "hinZundkunZ",
    "opening_hours": "Tu,Th 15:00-19:00; We 10:00-19:00",
    "toilets:wheelchair": "no",
    "website": "https://www.kunzstoffe.de",
    "wheelchair": "no"
  }
},
{
  "type": "node",
  "id": 2210315474,
  "lat": 51.3183016,
  "lon": 12.3785866,
  "tags": {
    "addr:city": "Leipzig",
    "addr:country": "DE",
    "addr:housenumber": "111",
    "addr:postcode": "04275",
    "addr:street": "Arthur-Hoffmann-Straße",
    "amenity": "restaurant",
    "contact:website": "http://www.skaska.eu/skaska%20Leipzig/INDEX%20LEIPZIG.htm",
    "cuisine": "russian",
    "diet:vegan": "no",
    "diet:vegetarian": "yes",
    "email": "skaska-laden@web.de",
    "name": "Skaska",
    "opening_hours": "Tu-Sa 17:30-23:00; Su 11:30-14:30,17:30-23:00",
    "phone": "+49 341 65839172",
    "website": "http://skaska.eu/"
  }
},
{
  "type": "node",
  "id": 2322858124,
  "lat": 51.4796143,
  "lon": 11.9703883,
  "tags": {
    "addr:city": "Halle (Saale)",
    "addr:country": "DE",
    "addr:housenumber": "18",
    "addr:postcode": "06108",
    "addr:street": "Rannische Straße",
    "diet:vegan": "yes",
    "diet:vegetarian": "yes",
    "name": "Weltladen Halle (Saale)",
    "opening_hours": "Mo-Fr 10:00-18:00; Sa 10:00-14:00",
    "phone": "+49 345 2901049",
    "shop": "convenience",
    "source": "www.weltladenhalle.de",
    "website": "https://www.weltladenhalle.de/",
    "wheelchair": "limited"
  }
},
{
  "type": "node",
  "id": 2325557423,
  "lat": 51.3088791,
  "lon": 12.3729716,
  "tags": {
    "addr:city": "Leipzig",
    "addr:country": "DE",
    "addr:housenumber": "12a",
    "addr:postcode": "04277",
    "addr:street": "Wolfgang-Heinze-Straße",
    "addr:suburb": "Connewitz",
    "amenity": "fast_food",
    "capacity": "10",
    "contact:mobile": "+49 163 9650919",
    "cuisine": "burger",
    "diet:vegan": "only",
    "drive_through": "no",
    "name": "Dein Deli",
    "opening_hours": "Tu-Su,PH 12:00-22:00; Mo off",
    "outdoor_seating": "no",
    "takeaway": "yes",
    "website": "dein-deli.de",
    "wheelchair": "no"
  }
},
{
  "type": "node",
  "id": 2371803959,
  "lat": 51.3569726,
  "lon": 11.9911235,
  "tags": {
    "addr:city": "Merseburg",
    "addr:housenumber": "1",
    "addr:postcode": "06217",
    "addr:street": "Bahnhofsplatz",
    "amenity": "fast_food",
    "contact:email": "merseburg@freddy-fresh.de",
    "contact:phone": "+49 3461 2897799",
    "contact:website": "https://www.freddy-fresh.de",
    "cuisine": "pizza",
    "diet:vegan": "yes",
    "diet:vegetarian": "yes",
    "level": "0",
    "name": "Freddy Fresh",
    "opening_hours": "Mo-Su 10:30-22:00",
    "wheelchair": "yes"
  }
},
{
  "type": "node",
  "id": 2413048665,
  "lat": 51.3449528,
  "lon": 12.3811076,
  "tags": {
    "addr:city": "Leipzig",
    "addr:housenumber": "5",
    "addr:postcode": "04109",
    "addr:street": "Willy-Brandt-Platz",
    "amenity": "fast_food",
    "cuisine": "asian",
    "diet:vegan": "yes",
    "diet:vegetarian": "yes",
    "name": "asiahung",
    "opening_hours": "PH,Mo-Su 10:00-21:00",
    "takeaway": "yes"
  }
},
{
  "type": "node",
  "id": 2415756481,
  "lat": 51.4754283,
  "lon": 11.9778323,
  "tags": {
    "addr:city": "Halle (Saale)",
    "addr:housenumber": "44",
    "addr:postcode": "06110",
    "addr:street": "Willy-Brandt-Straße",
    "amenity": "restaurant",
    "contact:email": "info@hallenser-kartoffelhaus.de",
    "contact:facebook": "https://www.facebook.com/Hallenser.Kartoffelhaus/",
    "contact:fax": "+49 345 2038792",
    "contact:phone": "+49 345 502545",
    "contact:website": "https://www.hallenser-kartoffelhaus.de/",
    "cuisine": "regional",
    "diet:vegan": "yes",
    "name": "Hallenser Kartoffelhaus",
    "opening_hours": "Tu-Su 11:30-22:30",
    "operator": "Philipp Kasten",
    "wheelchair": "limited",
    "wheelchair:description": "Eingang über Hinterhof mögl."
  }
},
{
  "type": "node",
  "id": 2496741334,
  "lat": 51.4858657,
  "lon": 11.9665075,
  "tags": {
    "addr:city": "Halle (Saale)",
    "addr:country": "DE",
    "addr:housenumber": "25",
    "addr:postcode": "06108",
    "addr:street": "Kleine Ulrichstraße",
    "amenity": "cafe",
    "contact:facebook": "https://www.facebook.com/naschmadame",
    "contact:instagram": "https://www.instagram.com/naschmadame",
    "contact:phone": "+49 345 2084446",
    "contact:website": "http://www.nasch-madame.de",
    "cuisine": "cake",
    "diet:gluten_free": "yes",
    "diet:vegan": "yes",
    "diet:vegetarian": "only",
    "name": "Nasch Madame - Konditorei",
    "opening_hours": "We-Fr 13:00-18:00; Sa 10:00-18:00; Su 12:00-17:00",
    "toilets:wheelchair": "no",
    "wheelchair": "no"
  }
},
{
  "type": "node",
  "id": 2508720672,
  "lat": 51.3400756,
  "lon": 12.3768400,
  "tags": {
    "addr:city": "Leipzig",
    "addr:housenumber": "2",
    "addr:postcode": "04109",
    "addr:street": "Reichsstraße",
    "amenity": "cafe",
    "changing_table": "yes",
    "changing_table:location": "dedicated_room",
    "contact:website": "https://www.cafecentral-leipzig.de",
    "cuisine": "italian",
    "diet:vegan": "yes",
    "diet:vegetarian": "yes",
    "internet_access": "yes",
    "name": "Café Central",
    "name:ja": "カフェ・セントラル",
    "opening_hours": "Mo-Sa 09:00-22:00; PH,Su 09:00-20:00",
    "wheelchair": "no"
  }
},
{
  "type": "node",
  "id": 2508764519,
  "lat": 51.3417853,
  "lon": 12.3779507,
  "tags": {
    "addr:city": "Leipzig",
    "addr:country": "DE",
    "addr:housenumber": "31",
    "addr:postcode": "04109",
    "addr:street": "Nikolaistraße",
    "alt_name": "Trattoria Toskana",
    "amenity": "restaurant",
    "contact:facebook": "https://www.facebook.com/Toskana-Leipzig-1384153831850146",
    "contact:instagram": "https://www.instagram.com/trattoriatoskana",
    "contact:website": "https://www.toskana-leipzig.de",
    "cuisine": "italian;pizza;burger;steak;ice_cream",
    "diet:vegetarian": "yes",
    "name": "Toskana",
    "opening_hours": "Mo-Su 11:00-23:00",
    "outdoor_seating": "yes",
    "payment:girocard": "yes",
    "phone": "+49 341 96286970",
    "takeaway": "yes"
  }
},
{
  "type": "node",
  "id": 2531221700,
  "lat": 51.4793644,
  "lon": 11.9205143,
  "tags": {
    "addr:city": "Halle (Saale)",
    "addr:country": "DE",
    "addr:housenumber": "17",
    "addr:postcode": "06122",
    "addr:street": "Neustädter Passage",
    "amenity": "fast_food",
    "brand": "Subway",
    "brand:wikidata": "Q244457",
    "brand:wikipedia": "en:Subway (restaurant)",
    "contact:facebook": "https://www.facebook.com/pages/category/Sandwich-Shop/Subway-Halle-Neustadt-223215021143927/",
    "contact:phone": "+49 345 47889859",
    "cuisine": "sandwich",
    "diet:vegan": "limited",
    "diet:vegetarian": "yes",
    "name": "Subway",
    "opening_hours": "Mo-We 09:00-22:00; Th-Sa 09:00-23:00; Su 10:00-22:00",
    "takeaway": "yes",
    "wheelchair": "yes",
    "wheelchair:description": "Tische unterfahrbar"
  }
},
{
  "type": "node",
  "id": 2546754464,
  "lat": 51.3369015,
  "lon": 12.3587044,
  "tags": {
    "addr:city": "Leipzig",
    "addr:country": "DE",
    "addr:housenumber": "71",
    "addr:postcode": "04109",
    "addr:street": "Käthe-Kollwitz-Straße",
    "amenity": "restaurant",
    "contact:email": "Restaurant-MeinLeipzig@web.de",
    "contact:phone": "+49 341 2155944",
    "cuisine": "regional",
    "diet:vegan": "no",
    "diet:vegetarian": "yes",
    "name": "Mein Leipzig",
    "opening_hours": "Mo-Fr 11:00-14:30",
    "website": "https://restaurant-meinleipzig.de",
    "wheelchair": "yes"
  }
},
{
  "type": "node",
  "id": 2608744242,
  "lat": 51.3284428,
  "lon": 12.3731499,
  "tags": {
    "addr:city": "Leipzig",
    "addr:country": "DE",
    "addr:housenumber": "24",
    "addr:postcode": "04107",
    "addr:street": "Karl-Liebknecht-Straße",
    "amenity": "fast_food",
    "brand": "Burger King",
    "brand:wikidata": "Q177054",
    "brand:wikipedia": "en:Burger King",
    "contact:phone": "+49 341 99390361",
    "contact:website": "https://www.burgerking.de/kingfinder/19982?id=976",
    "cuisine": "burger",
    "delivery": "yes",
    "description": "Behinderten-WC / Wickelraum",
    "diet:vegetarian": "yes",
    "fax": "+49 341 99390363",
    "internet_access": "wlan",
    "name": "Burger King",
    "opening_hours": "Mo-Sa 09:00-18:00; Su,PH 11:00-18:00",
    "operator": "R&S GastroSysteme Karli GmbH",
    "takeaway": "yes",
    "toilets:wheelchair": "yes",
    "wheelchair": "yes"
  }
},
{
  "type": "node",
  "id": 2715257424,
  "lat": 51.4851730,
  "lon": 11.9608908,
  "tags": {
    "addr:city": "Halle (Saale)",
    "addr:housenumber": "6",
    "addr:postcode": "06108",
    "addr:street": "Pfälzer Ufer",
    "amenity": "cafe",
    "contact:email": "sonnendeckhalle@yahoo.de",
    "contact:facebook": "https://www.facebook.com/sonnendeckhalle/",
    "contact:instagram": "https://www.instagram.com/sonnendeckhalle/",
    "contact:phone": "+49 163 2049161",
    "contact:website": "https://sonnendeckhalle.wixsite.com/sonnendeckhalle/",
    "diet:vegan": "limited",
    "diet:vegetarian": "yes",
    "name": "Sonnendeck",
    "opening_hours": "Mo-Fr 11:00-18:00+; Sa-Su 10:00-18:00+",
    "operator": "WINZ-Catering UG",
    "outdoor_seating": "terrace",
    "wheelchair": "no"
  }
},
{
  "type": "node",
  "id": 2733272356,
  "lat": 51.3083691,
  "lon": 12.3730618,
  "tags": {
    "addr:city": "Leipzig",
    "addr:country": "DE",
    "addr:housenumber": "20",
    "addr:postcode": "04277",
    "addr:street": "Wolfgang-Heinze-Straße",
    "addr:suburb": "Connewitz",
    "diet:vegan": "yes",
    "name": "Lazy Dog",
    "opening_hours": "Mo-Fr 11:00-01:00; Sa 13:00-01:00; Su,PH 13:00-00:00",
    "shop": "yes",
    "toilets:wheelchair": "no",
    "wheelchair": "no"
  }
},
{
  "type": "node",
  "id": 2791600291,
  "lat": 51.4777426,
  "lon": 11.9870829,
  "tags": {
    "addr:city": "Halle (Saale)",
    "addr:country": "DE",
    "addr:housenumber": "1",
    "addr:postcode": "06112",
    "addr:street": "Hans-Dietrich-Genscher-Platz",
    "amenity": "cafe",
    "brand": "Coffee Fellows",
    "brand:wikidata": "Q23461429",
    "brand:wikipedia": "en:Coffee Fellows",
    "contact:website": "https://coffee-fellows.com/",
    "cuisine": "coffee_shop",
    "diet:vegan": "yes",
    "diet:vegetarian": "yes",
    "internet_access": "wlan",
    "internet_access:fee": "no",
    "level": "-1",
    "name": "Coffee Fellows",
    "opening_hours": "Mo-Fr 06:00-20:00; Sa-Su 08:00-20:00",
    "phone": "+49 345 29989903",
    "smoking": "no",
    "takeaway": "yes",
    "wheelchair": "yes"
  }
},
{
  "type": "node",
  "id": 2794442902,
  "lat": 51.3291852,
  "lon": 12.4046668,
  "tags": {
    "addr:city": "Leipzig",
    "addr:housenumber": "21",
    "addr:postcode": "04317",
    "addr:street": "Riebeckstraße",
    "amenity": "fast_food",
    "cuisine": "lebanese;kebab",
    "diet:vegan": "yes",
    "diet:vegetarian": "yes",
    "name": "Bistro de Libanon",
    "opening_hours": "Mo-Fr 11:00-22:00, Sa,Su,PH 12:00-22:00",
    "wheelchair": "no"
  }
},
{
  "type": "node",
  "id": 2874464836,
  "lat": 51.4962613,
  "lon": 11.9665041,
  "tags": {
    "addr:city": "Halle (Saale)",
    "addr:country": "DE",
    "addr:housenumber": "131",
    "addr:postcode": "06114",
    "addr:street": "Reilstraße",
    "amenity": "restaurant",
    "contact:facebook": "https://www.facebook.com/MextremeRestaurantBar/",
    "contact:phone": "+49 345 67820730",
    "contact:website": "http://www.mextreme.net",
    "cuisine": "mexican",
    "diet:vegan": "yes",
    "diet:vegetarian": "yes",
    "name": "Mextreme",
    "opening_hours": "Mo-Th 17:00-23:00; Fr-Sa 17:00-21:00; Su 17:00-22:00",
    "wheelchair": "no"
  }
},
{
  "type": "node",
  "id": 2876144684,
  "lat": 51.3336832,
  "lon": 12.3383429,
  "tags": {
    "addr:city": "Leipzig",
    "addr:housenumber": "12",
    "addr:postcode": "04229",
    "addr:street": "Zschochersche Straße",
    "amenity": "cafe",
    "cuisine": "regional",
    "diet:vegan": "yes",
    "diet:vegetarian": "yes",
    "name": "Annalinde Gemeinschaftsgarten",
    "opening_hours": "Fr 16:00-19:00; Sa 14:00-19:00",
    "website": "http://annalinde-leipzig.de/"
  }
},
{
  "type": "node",
  "id": 2876264915,
  "lat": 51.4793653,
  "lon": 11.9797147,
  "tags": {
    "addr:city": "Halle (Saale)",
    "addr:country": "DE",
    "addr:housenumber": "17",
    "addr:postcode": "06108",
    "addr:street": "Martinstraße",
    "amenity": "restaurant",
    "capacity": "25",
    "cuisine": "vietnamese",
    "diet:vegan": "yes",
    "diet:vegetarian": "yes",
    "name": "Sao Mai",
    "opening_hours": "Tu-Sa 11:00-22:30; Su,PH 12:00-22:00; Mo off",
    "phone": "+49 345 4722962",
    "toilets:wheelchair": "no",
    "website": "https://www.saomai-halle.de/",
    "wheelchair": "no",
    "wheelchair:description": "Hohe Stufe in den Gastraum aber auf der anderen Straßenseite befindet sich ein kleiner Biergarten wo Speisen und Getränke serviert werden. Biergarten ist mit einem Rollstuhl befahrbar"
  }
},
{
  "type": "node",
  "id": 2916390816,
  "lat": 51.3387025,
  "lon": 12.3743238,
  "tags": {
    "addr:city": "Leipzig",
    "addr:country": "DE",
    "addr:housenumber": "22-24",
    "addr:postcode": "04109",
    "addr:street": "Petersstraße",
    "amenity": "restaurant",
    "cuisine": "sushi",
    "diet:vegetarian": "yes",
    "email": "info@sushinem.de",
    "name": "Sushi&Nem",
    "opening_hours": "Mo-Th 11:00-21:00; Fr,Sa 11:00-22:00; PH,Su 12:00-22:00",
    "phone": "+49 341 26186644",
    "website": "http://www.sushinem.de",
    "wheelchair": "limited"
  }
},
{
  "type": "node",
  "id": 2932869816,
  "lat": 51.4758150,
  "lon": 11.9701334,
  "tags": {
    "addr:city": "Halle (Saale)",
    "addr:housenumber": "38",
    "addr:postcode": "06110",
    "addr:street": "Steinweg",
    "amenity": "fast_food",
    "cuisine": "syrisch",
    "diet:vegan": "yes",
    "diet:vegetarian": "yes",
    "internet_access": "no",
    "name": "Yasmin",
    "opening_hours": "Mo-Su 11:00-22:00",
    "wheelchair": "no"
  }
},
{
  "type": "node",
  "id": 2969150134,
  "lat": 51.4661476,
  "lon": 11.7833499,
  "tags": {
    "addr:city": "Teutschenthal",
    "addr:country": "DE",
    "addr:housenumber": "17",
    "addr:postcode": "06179",
    "addr:street": "Straße der Einheit",
    "contact:facebook": "https://www.facebook.com/B%C3%A4ckerei-Sch%C3%A4l-467517753397255/",
    "contact:instagram": "https://instagram.com/martin.schael/",
    "contact:website": "https://www.bäckerei-schäl.de",
    "diet:vegan": "limited",
    "diet:vegetarian": "yes",
    "image": "http://i.imgur.com/Bo8i1GHl.jpg",
    "name": "Schäl",
    "opening_hours": "Mo 06:00-13:00; Tu-Fr 06:00-16:30; Sa 06:00-10:00; Su off",
    "operator": "Martin Schäl",
    "shop": "bakery",
    "source": "Panasonic DMC-TZ41;https://www.bäckerei-schäl.de/"
  }
},
{
  "type": "node",
  "id": 3052291182,
  "lat": 51.4942999,
  "lon": 11.9663396,
  "tags": {
    "addr:city": "Halle (Saale)",
    "addr:country": "DE",
    "addr:housenumber": "21",
    "addr:postcode": "06108",
    "addr:street": "Bernburger Straße",
    "amenity": "restaurant",
    "contact:facebook": "https://www.facebook.com/pages/Seoul-Kulinarisch/1448074335456319",
    "contact:phone": "+49 345 24980596",
    "contact:website": "http://seoulkulinarisch.cafelists.com/",
    "cuisine": "asian",
    "diet:vegan": "limited",
    "diet:vegetarian": "yes",
    "name": "Seoul Kulinarisch",
    "opening_hours": "Mo 11:00-15:00,17:00-20:00; Tu-Su 11:00-15:00",
    "toilets:wheelchair": "no",
    "wheelchair": "limited"
  }
},
{
  "type": "node",
  "id": 3122763481,
  "lat": 51.4754624,
  "lon": 11.9703938,
  "tags": {
    "addr:city": "Halle (Saale)",
    "addr:country": "DE",
    "addr:housenumber": "19a",
    "addr:postcode": "06110",
    "addr:street": "Steinweg",
    "amenity": "fast_food",
    "brand": "Domino's",
    "brand:wikidata": "Q839466",
    "brand:wikipedia": "en:Domino's Pizza",
    "contact:phone": "+49 345 68 57 999",
    "contact:website": "https://www.dominos.de/kaufhaus/de-hallesteinweg-33848",
    "cuisine": "pizza",
    "diet:vegan": "yes",
    "diet:vegetarian": "yes",
    "name": "Domino's",
    "opening_hours": "Mo-Su , PH 11:00-23:00",
    "short_name": "Domino's",
    "takeaway": "yes",
    "wheelchair": "yes"
  }
},
{
  "type": "node",
  "id": 3162408061,
  "lat": 51.3782963,
  "lon": 12.4321823,
  "tags": {
    "addr:city": "Leipzig",
    "addr:housenumber": "6",
    "addr:postcode": "04349",
    "addr:street": "Stollberger Straße",
    "amenity": "fast_food",
    "cuisine": "kebab",
    "diet:vegetarian": "yes",
    "name": "Piccolino",
    "opening_hours": "Mo-Sa 10:00-22:00",
    "operator": "Ben Hadia"
  }
},
{
  "type": "node",
  "id": 3173527817,
  "lat": 51.4954925,
  "lon": 11.9658855,
  "tags": {
    "addr:city": "Halle (Saale)",
    "addr:country": "DE",
    "addr:housenumber": "1",
    "addr:postcode": "06114",
    "addr:street": "Richard-Wagner-Straße",
    "amenity": "fast_food",
    "capacity": "0",
    "contact:facebook": "https://www.facebook.com/burgerservice/",
    "contact:phone": "+49 345 52503748",
    "contact:website": "http://www.burgerservice-halle.de",
    "cuisine": "burger",
    "diet:vegan": "yes",
    "diet:vegetarian": "yes",
    "name": "Burgerservice",
    "opening_hours": "Mo off; Tu-Th 11:00-22:00; Fr-Sa 11:00-00:00; Su 11:00-22:00",
    "wheelchair": "yes"
  }
},
{
  "type": "node",
  "id": 3208898648,
  "lat": 51.3439014,
  "lon": 12.1780337,
  "tags": {
    "addr:city": "Leuna",
    "addr:postcode": "06237",
    "addr:street": "Einkaufszentrum NOVA",
    "amenity": "cafe",
    "brand": "Coffee Fellows",
    "brand:wikidata": "Q23461429",
    "brand:wikipedia": "en:Coffee Fellows",
    "contact:phone": "+49 34638 39793",
    "contact:website": "https://coffee-fellows.com/locations/coffee-fellows-leuna-nova-eventis",
    "cuisine": "coffee_shop",
    "diet:vegan": "yes",
    "diet:vegetarian": "yes",
    "internet_access": "yes",
    "level": "1",
    "name": "Coffee Fellows",
    "opening_hours": "Mo-Th 09:00-20:00; Fr 09:00-22:00; Sa 09:00-20:00; Su off",
    "operator": "Coffee Fellows GmbH",
    "smoking": "no",
    "takeaway": "yes",
    "toilets:wheelchair": "yes",
    "wheelchair": "yes"
  }
},
{
  "type": "node",
  "id": 3278558767,
  "lat": 51.3367680,
  "lon": 12.3501016,
  "tags": {
    "addr:city": "Leipzig",
    "addr:postcode": "04109",
    "addr:street": "Am Elsterwehr",
    "amenity": "cafe",
    "contact:facebook": "https://www.facebook.com/zierlichmanierlichcafe/",
    "contact:instagram": "https://www.instagram.com/zierlichmanierlichcafe/",
    "cuisine": "sandwich;ice_cream;cake",
    "diet:vegan": "yes",
    "diet:vegetarian": "yes",
    "drink": "retail",
    "name": "ZierlichManierlich",
    "opening_hours": "10:00-20:00; Nov-Mar off",
    "operator": "Rebecca Salentin",
    "website": "http://www.zierlichmanierlich.de/",
    "wheelchair": "yes"
  }
},
{
  "type": "node",
  "id": 3343904427,
  "lat": 51.3407583,
  "lon": 12.3329424,
  "tags": {
    "addr:city": "Leipzig",
    "addr:housenumber": "24",
    "addr:postcode": "04177",
    "addr:street": "Erich-Köhn-Straße",
    "amenity": "restaurant",
    "cuisine": "greek",
    "diet:vegan": "no",
    "diet:vegetarian": "yes",
    "entrance": "yes",
    "name": "Herkules",
    "opening_hours": "Mo-Su 11:30-14:30,17:30-23:00",
    "website": "http://www.herkules-leipzig.de",
    "wheelchair": "no"
  }
},
{
  "type": "node",
  "id": 3364559365,
  "lat": 51.4923084,
  "lon": 11.9721516,
  "tags": {
    "addr:city": "Halle (Saale)",
    "addr:country": "DE",
    "addr:housenumber": "22",
    "addr:postcode": "06108",
    "addr:street": "Puschkinstraße",
    "amenity": "cafe",
    "contact:email": "info@theshabby.de",
    "contact:facebook": "https://www.facebook.com/theshabby/",
    "contact:instagram": "https://www.instagram.com/the_shabby/",
    "contact:phone": "+49 345 13252299",
    "contact:website": "https://www.theshabby.de",
    "cuisine": "coffee_shop;cake",
    "diet:vegan": "yes",
    "diet:vegetarian": "yes",
    "internet_access": "wlan",
    "name": "The Shabby",
    "opening_hours": "Tu-Su 09:00-15:00; PH 09:00-15:00; Mo off",
    "outdoor_seating": "yes",
    "toilets:wheelchair": "no",
    "wheelchair": "no"
  }
},
{
  "type": "node",
  "id": 3387395693,
  "lat": 51.4801097,
  "lon": 11.9245461,
  "tags": {
    "addr:city": "Halle (Saale)",
    "addr:country": "DE",
    "addr:housenumber": "9",
    "addr:postcode": "06122",
    "addr:street": "Neustädter Passage",
    "amenity": "fast_food",
    "contact:phone": "+49 345 678 8999",
    "contact:website": "https://www.uno-pizza.de/uno-pizza-halle/",
    "cuisine": "pizza",
    "diet:vegan": "yes",
    "diet:vegetarian": "yes",
    "name": "Uno Pizza",
    "opening_hours": "Su-Fr 11:00-23:00; Sa 11:00-24:00",
    "wheelchair": "yes"
  }
},
{
  "type": "node",
  "id": 3405309504,
  "lat": 51.3524841,
  "lon": 12.4595816,
  "tags": {
    "amenity": "fast_food",
    "brand": "Hallo Pizza",
    "brand:wikidata": "Q1571798",
    "brand:wikipedia": "de:Hallo Pizza",
    "cuisine": "pizza",
    "diet:vegan": "yes",
    "name": "Hallo Pizza",
    "takeaway": "yes"
  }
},
{
  "type": "node",
  "id": 3407712101,
  "lat": 51.3327532,
  "lon": 12.4042322,
  "tags": {
    "addr:city": "Leipzig",
    "addr:housenumber": "2",
    "addr:postcode": "04317",
    "addr:street": "Albert-Schweitzer-Straße",
    "amenity": "cafe",
    "changing_table": "yes",
    "diet:vegan": "yes",
    "diet:vegetarian": "yes",
    "highchair": "yes",
    "internet_access": "wlan",
    "internet_access:fee": "no",
    "name": "Espresso Zack Zack",
    "opening_hours": "Mo-Fr 08:00-18:00, Sa,Su 09:00-18:00",
    "outdoor_seating": "yes",
    "website": "http://www.espressozackzack.de",
    "wheelchair": "no"
  }
},
{
  "type": "node",
  "id": 3470964354,
  "lat": 51.3351256,
  "lon": 12.3891260,
  "tags": {
    "addr:city": "Leipzig",
    "addr:housenumber": "39",
    "addr:postcode": "04103",
    "addr:street": "Goldschmidtstraße",
    "amenity": "cafe",
    "contact:email": "info@franzmorish.de",
    "contact:phone": "+49 341 97463892",
    "contact:website": "http://franzmorish.de",
    "diet:vegetarian": "yes",
    "name": "Franz Morish",
    "opening_hours": "Mo-Fr 07:00-18:00; Sa 09:00-16:00",
    "outdoor_seating": "yes",
    "wheelchair": "yes"
  }
},
{
  "type": "node",
  "id": 3472821387,
  "lat": 51.3580521,
  "lon": 12.3678363,
  "tags": {
    "addr:city": "Leipzig",
    "addr:housenumber": "43",
    "addr:postcode": "04155",
    "addr:street": "Gohliser Straße",
    "amenity": "cafe",
    "check_date:opening_hours": "2020-09-29",
    "diet:vegetarian": "yes",
    "internet_access": "no",
    "name": "Wendl",
    "opening_hours": "Mo-Fr 06:30-18:30; Sa-Su 07:00-18:00",
    "outdoor_seating": "yes",
    "shop": "bakery",
    "toilets:wheelchair": "no",
    "website": "http://www.konditorei-wendl.de/",
    "wheelchair": "no"
  }
},
{
  "type": "node",
  "id": 3517905043,
  "lat": 51.3331872,
  "lon": 12.3966427,
  "tags": {
    "addr:city": "Leipzig",
    "addr:housenumber": "7",
    "addr:postcode": "04317",
    "addr:street": "Johannisallee",
    "amenity": "restaurant",
    "contact:phone": "+49 341 35055591",
    "contact:website": "https://www.restaurant-greensoul.de",
    "diet:vegan": "yes",
    "diet:vegetarian": "yes",
    "name": "GreenSoul",
    "opening_hours": "Mo-Fr 11:30-22:00; Sa 17:30-22:00; Su off",
    "wheelchair": "yes"
  }
},
{
  "type": "node",
  "id": 3578624655,
  "lat": 51.3253369,
  "lon": 12.4108742,
  "tags": {
    "addr:city": "Leipzig",
    "addr:housenumber": "2",
    "addr:postcode": "04317",
    "addr:street": "Hofer Straße",
    "amenity": "fast_food",
    "cuisine": "vietnamese;thai;chinese;turkish;german",
    "diet:vegan": "no",
    "diet:vegetarian": "yes",
    "name": "Internationale Spezialitäten",
    "opening_hours": "Tu-Sa 10:00-21:00; PH,Su 12:00-20:00; Mo off",
    "wheelchair": "yes"
  }
},
{
  "type": "node",
  "id": 3590210914,
  "lat": 51.4912396,
  "lon": 11.9690337,
  "tags": {
    "addr:city": "Halle (Saale)",
    "addr:country": "DE",
    "addr:housenumber": "18",
    "addr:postcode": "06108",
    "addr:street": "August-Bebel-Straße",
    "amenity": "restaurant",
    "contact:facebook": "https://www.facebook.com/KumaraAnne/",
    "contact:instagram": "https://www.instagram.com/kumara.soulfood/",
    "contact:phone": "+49 163 3849254",
    "contact:website": "https://www.kumara-soulfood.de",
    "cuisine": "organic",
    "delivery": "no",
    "diet:organic": "only",
    "diet:vegan": "yes",
    "diet:vegetarian": "yes",
    "name": "Kumara soulfood",
    "opening_hours": "Mo-Th 11:00-15:00; Fr 11:00-15:00, 18:00-22:00",
    "takeaway": "yes",
    "wheelchair": "limited"
  }
},
{
  "type": "node",
  "id": 3658458714,
  "lat": 51.4864335,
  "lon": 11.9674203,
  "tags": {
    "addr:city": "Halle (Saale)",
    "addr:country": "DE",
    "addr:housenumber": "40",
    "addr:postcode": "06108",
    "addr:street": "Große Ulrichstraße",
    "amenity": "cafe",
    "contact:facebook": "https://www.facebook.com/KornLiebchen-375530942489161/",
    "contact:phone": "+49 345 4723780",
    "contact:website": "http://www.kornliebchen.de",
    "diet:vegan": "yes",
    "diet:vegetarian": "yes",
    "name": "KornLiebchen",
    "opening_hours": "Tu-Fr 09:00-18:30; Sa 09:00-16:00",
    "outdoor_seating": "yes",
    "shop": "bakery",
    "toilets:wheelchair": "no",
    "wheelchair": "limited",
    "wheelchair:description": "Rampe vorhanden, Toiletten sehr klein und nicht mit Rolli erreichbar"
  }
},
{
  "type": "node",
  "id": 3667782036,
  "lat": 51.3462484,
  "lon": 12.4033458,
  "tags": {
    "addr:city": "Leipzig",
    "addr:housenumber": "6",
    "addr:postcode": "04315",
    "addr:street": "Hedwigstraße",
    "amenity": "restaurant",
    "contact:website": "https://www.pizzeriatito.de",
    "diet:vegan": "yes",
    "diet:vegetarian": "yes",
    "name": "Pizzeria Tito",
    "opening_hours": "Mo-Th, Sa, Su 11:00-23:00; Fr 15:00-23:00",
    "phone": "+49 341 69936012",
    "wheelchair": "limited"
  }
},
{
  "type": "node",
  "id": 3724388225,
  "lat": 51.4872768,
  "lon": 11.9682060,
  "tags": {
    "addr:city": "Halle (Saale)",
    "addr:country": "DE",
    "addr:housenumber": "6a",
    "addr:postcode": "06108",
    "addr:street": "Universitätsring",
    "amenity": "restaurant",
    "contact:facebook": "https://www.facebook.com/burgerheart.halle",
    "contact:instagram": "https://www.instagram.com/burgerheart_halle",
    "contact:website": "https://halle.burgerheart.com",
    "cuisine": "burger",
    "diet:vegan": "yes",
    "diet:vegetarian": "yes",
    "name": "Burgerheart",
    "opening_hours": "Mo-Su 12:00-23:00",
    "wheelchair": "no"
  }
},
{
  "type": "node",
  "id": 3736192675,
  "lat": 51.3385102,
  "lon": 12.3844542,
  "tags": {
    "addr:city": "Leipzig",
    "addr:housenumber": "11",
    "addr:postcode": "04103",
    "addr:street": "Querstraße",
    "amenity": "restaurant",
    "cuisine": "vietnamese",
    "delivery": "no",
    "diet:vegetarian": "yes",
    "name": "Viet Green",
    "opening_hours": "Mo-Fr 08:00-18:00",
    "outdoor_seating": "yes",
    "smoking": "outside",
    "takeaway": "yes",
    "wheelchair": "yes"
  }
},
{
  "type": "node",
  "id": 3752087074,
  "lat": 51.4863948,
  "lon": 11.9669050,
  "tags": {
    "addr:city": "Halle (Saale)",
    "addr:housenumber": "26",
    "addr:postcode": "06108",
    "addr:street": "Große Ulrichstraße",
    "amenity": "restaurant",
    "contact:facebook": "https://www.facebook.com/rotesossehalle/",
    "contact:phone": "+49 345 68252080",
    "contact:website": "https://www.rotesosse.de",
    "cuisine": "italian",
    "diet:vegan": "yes",
    "diet:vegetarian": "yes",
    "name": "Rote Soße",
    "opening_hours": "Mo-Su 12:00-22:00",
    "opening_hours:covid19": "Mo-Su 17:00-21:00",
    "toilets:wheelchair": "no",
    "wheelchair": "limited",
    "wheelchair:description": "eine Stufe am Eingang"
  }
},
{
  "type": "node",
  "id": 3820929262,
  "lat": 51.3549709,
  "lon": 11.9924674,
  "tags": {
    "addr:city": "Merseburg",
    "addr:country": "DE",
    "addr:housenumber": "2",
    "addr:postcode": "06217",
    "addr:street": "König-Heinrich-Straße",
    "amenity": "fast_food",
    "brand": "Subway",
    "brand:wikidata": "Q244457",
    "brand:wikipedia": "en:Subway (restaurant)",
    "contact:phone": "+49 3461 8249020",
    "contact:website": "https://restaurants.subway.com/germany/st/merseburg/konig-heinrich-stra%C3%9Fe-2",
    "cuisine": "sandwich",
    "delivery": "no",
    "diet:vegan": "limited",
    "diet:vegetarian": "yes",
    "drive_through": "no",
    "name": "Subway",
    "opening_hours": "Mo-Fr 09:00-21:00; Sa 10:00-21:00; Su 12:00-21:00",
    "smoking": "no",
    "takeaway": "yes",
    "wheelchair": "no"
  }
},
{
  "type": "node",
  "id": 3821868244,
  "lat": 51.4872473,
  "lon": 11.9662899,
  "tags": {
    "addr:city": "Halle (Saale)",
    "addr:housenumber": "33",
    "addr:postcode": "06108",
    "addr:street": "Große Ulrichstraße",
    "amenity": "restaurant",
    "contact:facebook": "https://www.facebook.com/sakurahalle/",
    "contact:phone": "+49 345 97606360",
    "contact:website": "https://www.sakura-halle.de",
    "cuisine": "japanese",
    "diet:vegan": "limited",
    "diet:vegetarian": "yes",
    "name": "Sakura",
    "opening_hours": "Mo-Sa 11:30-14:30,17:30-23:00; Su,PH 11:30-15:00,17:30-22:00",
    "wheelchair": "limited",
    "wheelchair:description": "Fahrstuhl vorhanden!"
  }
},
{
  "type": "node",
  "id": 3843069907,
  "lat": 51.3379460,
  "lon": 12.3672146,
  "tags": {
    "addr:city": "Leipzig",
    "addr:housenumber": "7",
    "addr:postcode": "04109",
    "addr:street": "Kolonnadenstraße",
    "amenity": "cafe",
    "contact:facebook": "https://www.facebook.com/cafe.tunichtgut",
    "cuisine": "regional;cake;coffee_shop",
    "diet:vegetarian": "yes",
    "internet_access": "wlan",
    "name": "Café Tunichtgut",
    "opening_hours": "Mo-Fr 09:00-23:00; Sa,Su 10:00-18:00"
  }
},
{
  "type": "node",
  "id": 3874838048,
  "lat": 51.3351912,
  "lon": 12.4102676,
  "tags": {
    "addr:city": "Leipzig",
    "addr:housenumber": "15",
    "addr:postcode": "04318",
    "addr:street": "Zweinaundorfer Straße",
    "amenity": "fast_food",
    "cuisine": "vietnamese",
    "diet:vegan": "no",
    "diet:vegetarian": "yes",
    "name": "Viet Corner",
    "opening_hours": "Mo-Fr 11:00-15:00,17:00-20:30; PH,Sa 12:00-20:30",
    "toilets:wheelchair": "yes",
    "wheelchair": "limited"
  }
},
{
  "type": "node",
  "id": 3955648926,
  "lat": 51.3304027,
  "lon": 12.3733427,
  "tags": {
    "addr:city": "Leipzig",
    "addr:housenumber": "8",
    "addr:postcode": "04107",
    "addr:street": "Karl-Liebknecht-Straße",
    "amenity": "fast_food",
    "brand": "Subway",
    "brand:wikidata": "Q244457",
    "brand:wikipedia": "en:Subway (restaurant)",
    "contact:website": "https://restaurants.subway.com/de/deutschland/sn/leipzig/karl-liebknecht-stra%C3%9Fe-8",
    "cuisine": "sandwich",
    "diet:vegetarian": "yes",
    "name": "Subway",
    "opening_hours": "Mo-Fr 10:00-22:00, Sa,Su 11:00-22:00",
    "takeaway": "yes",
    "wheelchair": "yes"
  }
},
{
  "type": "node",
  "id": 3964858647,
  "lat": 51.3285909,
  "lon": 12.3365850,
  "tags": {
    "addr:city": "Leipzig",
    "addr:housenumber": "53",
    "addr:postcode": "04229",
    "addr:street": "Zschochersche Straße",
    "amenity": "fast_food",
    "diet:vegan": "yes",
    "name": "Bistro Sindbad",
    "opening_hours": "Mo-Fr 10:00-22:00; Sa-Su 12:00-22:00"
  }
},
{
  "type": "node",
  "id": 4009282675,
  "lat": 51.3390431,
  "lon": 12.4016174,
  "tags": {
    "addr:city": "Leipzig",
    "addr:housenumber": "56",
    "addr:postcode": "04317",
    "addr:street": "Dresdner Straße",
    "amenity": "fast_food",
    "cuisine": "kebab",
    "diet:vegan": "yes",
    "diet:vegetarian": "yes",
    "name": "Habibi",
    "opening_hours": "Mo-Th, Sa, Su 11:00-23:00; Fr 15:00-23:00",
    "wheelchair": "limited"
  }
},
{
  "type": "node",
  "id": 4036431410,
  "lat": 51.4933783,
  "lon": 11.9699697,
  "tags": {
    "addr:city": "Halle (Saale)",
    "addr:country": "DE",
    "addr:housenumber": "29",
    "addr:postcode": "06108",
    "addr:street": "Ludwig-Wucherer-Straße",
    "amenity": "fast_food",
    "contact:email": "vegs.halle@gmx.de",
    "contact:facebook": "https://www.facebook.com/vegs.halle/",
    "contact:instagram": "https://www.instagram.com/vegs.halle/",
    "contact:phone": "+49 176 20796828",
    "contact:website": "https://www.vegs-halle.de",
    "cuisine": "wraps",
    "delivery": "no",
    "description": "Halles einzige ausschließlich-vegane Gastronomie",
    "diet:dairy_free": "only",
    "diet:lactose_free": "only",
    "diet:vegan": "only",
    "diet:vegetarian": "only",
    "drive_through": "no",
    "name": "Vegs",
    "opening_hours": "Mo-Fr 12:00-20:00; Sa,Su,PH off",
    "outdoor_seating": "limited",
    "payment:cash": "yes",
    "payment:maestro": "yes",
    "smoking": "outside",
    "takeaway": "yes",
    "toilets:wheelchair": "no",
    "wheelchair": "no"
  }
},
{
  "type": "node",
  "id": 4225601054,
  "lat": 51.3237812,
  "lon": 12.3315035,
  "tags": {
    "addr:city": "Leipzig",
    "addr:housenumber": "3",
    "addr:postcode": "04229",
    "addr:street": "Wachsmuthstraße",
    "brand": "dm",
    "brand:wikidata": "Q266572",
    "brand:wikipedia": "en:Dm-drogerie markt",
    "diet:vegan": "yes",
    "name": "dm",
    "opening_hours": "Mo-Sa 08:00-20:00",
    "shop": "chemist",
    "wheelchair": "yes"
  }
},
{
  "type": "node",
  "id": 4425695288,
  "lat": 51.3205855,
  "lon": 12.3967841,
  "tags": {
    "addr:city": "Leipzig",
    "addr:housenumber": "5",
    "addr:postcode": "04103",
    "addr:street": "Deutscher Platz",
    "amenity": "restaurant",
    "contact:website": "https://www.bistro-biocity.de",
    "description": "Bistro in der Bio City",
    "diet:vegan": "no",
    "diet:vegetarian": "yes",
    "name": "Bistro Biocity",
    "opening_hours": "Mo-Fr 07:30-10:30, 11:30-14:00; Sa,Su,PH off",
    "wheelchair": "yes"
  }
},
{
  "type": "node",
  "id": 4465518868,
  "lat": 51.4758258,
  "lon": 11.9703747,
  "tags": {
    "addr:city": "Halle (Saale)",
    "addr:housenumber": "17",
    "addr:postcode": "06110",
    "addr:street": "Steinweg",
    "amenity": "restaurant",
    "cuisine": "sushi",
    "delivery": "yes",
    "diet:vegan": "yes",
    "diet:vegetarian": "yes",
    "name": "Sushifreunde",
    "opening_hours": "Mo-Su 11:30-22:00",
    "takeaway": "yes",
    "website": "http://www.sushifreunde.de/anfahrt-kontakt/#sctab541"
  }
},
{
  "type": "node",
  "id": 4482096476,
  "lat": 51.3128901,
  "lon": 12.3762373,
  "tags": {
    "addr:city": "Leipzig",
    "addr:housename": "Hochschule für Telekommunikation Leipzig",
    "addr:housenumber": "45",
    "addr:postcode": "04277",
    "addr:street": "Gustav-Freytag-Straße",
    "amenity": "fast_food",
    "cuisine": "german",
    "diet:vegan": "yes",
    "diet:vegetarian": "yes",
    "name": "Campus Bistro",
    "opening_hours": "Mo-Fr 07:00-14:00",
    "website": "http://www.campus-bistro.com/"
  }
},
{
  "type": "node",
  "id": 4547888778,
  "lat": 51.3430426,
  "lon": 12.3724701,
  "tags": {
    "addr:city": "Leipzig",
    "addr:housenumber": "4",
    "addr:postcode": "04109",
    "addr:street": "Große Fleischergasse",
    "amenity": "restaurant",
    "contact:facebook": "https://www.facebook.com/primeburgerleipzig/",
    "contact:instagram": "https://www.instagram.com/primeburger_leipzig/",
    "contact:phone": "+49 341 30853717",
    "contact:website": "http://www.prime-burger.de/",
    "cuisine": "burger",
    "diet:vegetarian": "yes",
    "name": "Prime Burger",
    "opening_hours": "Mo-Th 11:00-23:00, Fr,Sa 11:00-03:00; Su,PH off",
    "opening_hours:covid19": "Mo-Sa 12:00-19:00; Su,PH off",
    "wheelchair": "limited"
  }
},
{
  "type": "node",
  "id": 4730436532,
  "lat": 51.4977698,
  "lon": 11.9555747,
  "tags": {
    "addr:city": "Halle (Saale)",
    "addr:housenumber": "47a",
    "addr:postcode": "06114",
    "addr:street": "Burgstraße",
    "amenity": "ice_cream",
    "cuisine": "ice_cream",
    "diet:vegan": "yes",
    "diet:vegetarian": "yes",
    "name": "Eisburg",
    "opening_hours": "Mo-Fr 13:00-20:00; Sa-Su 12:00-20:00",
    "outdoor_seating": "yes"
  }
},
{
  "type": "node",
  "id": 4815445923,
  "lat": 51.4849077,
  "lon": 11.9664563,
  "tags": {
    "addr:city": "Halle (Saale)",
    "addr:country": "DE",
    "addr:housenumber": "33",
    "addr:postcode": "06108",
    "addr:street": "Kleine Ulrichstraße",
    "amenity": "restaurant",
    "cuisine": "hungarian",
    "diet:vegan": "yes",
    "diet:vegetarian": "yes",
    "name": "Budapest Restaurant",
    "opening_hours": "We-Fr 11:30-14:30,17:30-22:00 Sa 11:30-14:30,17:30-23:00 Su 11:30-15:00",
    "phone": "+49 345 68879585",
    "website": "https://www.budapest-jambor.de",
    "wheelchair": "no",
    "wheelchair:description": "Anhand von Foto sind am Eingang zwei Stufen zu überwinden"
  }
},
{
  "type": "node",
  "id": 4815463722,
  "lat": 51.4863491,
  "lon": 11.9661277,
  "tags": {
    "addr:city": "Halle (Saale)",
    "addr:country": "DE",
    "addr:housenumber": "1",
    "addr:postcode": "06108",
    "addr:street": "Bergstraße",
    "amenity": "restaurant",
    "cuisine": "vietnamese",
    "diet:vegan": "limited",
    "diet:vegetarian": "yes",
    "name": "Viet Village",
    "opening_hours": "Mo-Su 11:00-23:00",
    "website": "https://www.facebook.com/pg/vietvillagehalle/",
    "wheelchair:description": "keine Angaben, Eckgebäude zur Ulrichstraße"
  }
},
{
  "type": "node",
  "id": 4832028123,
  "lat": 51.4979599,
  "lon": 11.9619390,
  "tags": {
    "addr:city": "Halle (Saale)",
    "addr:housenumber": "1",
    "addr:postcode": "06114",
    "addr:street": "Triftstraße",
    "amenity": "fast_food",
    "cuisine": "kebab;pizza",
    "diet:vegetarian": "yes",
    "name": "Döner & Pizza Chef",
    "opening_hours": "Mo-Fr 10:30-23:00; Sa,Su,PH 11:00-23:00",
    "wheelchair": "no"
  }
},
{
  "type": "node",
  "id": 4868552820,
  "lat": 51.4994094,
  "lon": 11.9330975,
  "tags": {
    "addr:city": "Halle (Saale)",
    "addr:country": "DE",
    "addr:housenumber": "1a",
    "addr:postcode": "06120",
    "addr:street": "Hubertusplatz",
    "amenity": "fast_food",
    "contact:phone": "+49 345 678 8999",
    "contact:website": "https://www.uno-pizza.de/uno-pizza-halle/",
    "cuisine": "pizza",
    "diet:vegan": "yes",
    "diet:vegetarian": "yes",
    "name": "Uno Pizza",
    "opening_hours": "11:00-23:00; Fr 11:00-23:59; Sa 11:00-24:00",
    "survey:date": "2020-12-25",
    "wheelchair": "yes",
    "wheelchair:description": "unklar ob nur Lieferservice oder auch Restaurant bzw. Imbiss"
  }
},
{
  "type": "node",
  "id": 4893692292,
  "lat": 51.4939567,
  "lon": 11.9687571,
  "tags": {
    "addr:city": "Halle (Saale)",
    "addr:housenumber": "29",
    "addr:postcode": "06114",
    "addr:street": "Mühlweg",
    "amenity": "restaurant",
    "contact:facebook": "https://www.facebook.com/pandileoFood/",
    "contact:phone": "+49 1522 1410403",
    "cuisine": "burrito;bowl",
    "diet:vegan": "yes",
    "diet:vegetarian": "yes",
    "name": "Pandileo",
    "opening_hours": "We-Mo 12:00-20:00",
    "outdoor_seating": "yes",
    "wheelchair": "limited"
  }
},
{
  "type": "node",
  "id": 4893782127,
  "lat": 51.4929590,
  "lon": 11.9708593,
  "tags": {
    "addr:city": "Halle (Saale)",
    "addr:housenumber": "27",
    "addr:postcode": "06108",
    "addr:street": "Ludwig-Wucherer-Straße",
    "amenity": "fast_food",
    "contact:facebook": "https://www.facebook.com/Yasmine-Grillhaus-Oriental-Diner-107727340809090/",
    "cuisine": "oriental",
    "diet:vegan": "limited",
    "diet:vegetarian": "yes",
    "name": "Yasmine",
    "opening_hours": "Mo-Su 11:00-23:00",
    "outdoor_seating": "yes",
    "wheelchair": "no"
  }
},
{
  "type": "node",
  "id": 4893812414,
  "lat": 51.4914512,
  "lon": 11.9740497,
  "tags": {
    "addr:city": "Halle (Saale)",
    "addr:housenumber": "12",
    "addr:postcode": "06108",
    "addr:street": "Ludwig-Wucherer-Straße",
    "amenity": "fast_food",
    "contact:facebook": "https://www.facebook.com/KiezDoenerLuWu/",
    "contact:instagram": "https://www.instagram.com/kiezdoenerluwu/",
    "cuisine": "kebab",
    "diet:vegan": "yes",
    "drive_through": "no",
    "name": "Kiez Döner",
    "opening_hours": "Mo-Th 10:00-01:00; Fr-Su,PH 10:00-03:00",
    "outdoor_seating": "yes",
    "takeaway": "yes"
  }
},
{
  "type": "node",
  "id": 4914539421,
  "lat": 51.4854444,
  "lon": 11.9699118,
  "tags": {
    "addr:city": "Halle (Saale)",
    "addr:housenumber": "11",
    "addr:postcode": "06108",
    "addr:street": "Barfüßerstraße",
    "amenity": "cafe",
    "contact:facebook": "https://www.facebook.com/7Grammcafe/",
    "cuisine": "coffee_shop",
    "diet:vegan": "yes",
    "diet:vegetarian": "yes",
    "email": "cafe@7gramm.com",
    "internet_access": "wlan",
    "name": "7 Gramm",
    "opening_hours": "Mo-Fr 09:00-22:00; Sa 10:00-22:00; Su 12:00-18:00",
    "phone": "+49 151 43239924",
    "website": "http://7gramm.com"
  }
},
{
  "type": "node",
  "id": 4948443538,
  "lat": 51.4909923,
  "lon": 11.9657436,
  "tags": {
    "addr:city": "Halle (Saale)",
    "addr:country": "DE",
    "addr:housenumber": "28",
    "addr:postcode": "06108",
    "addr:street": "Geiststraße",
    "amenity": "fast_food",
    "cuisine": "asian",
    "diet:vegan": "yes",
    "diet:vegetarian": "yes",
    "name": "Thang-Long Imbiss",
    "opening_hours": "Mo-Fr 09:30-19:30; Sa 10:30-19:00; Su off",
    "phone": "+49 174 7863204",
    "wheelchair": "no"
  }
},
{
  "type": "node",
  "id": 4971464334,
  "lat": 51.5011975,
  "lon": 11.9619723,
  "tags": {
    "addr:city": "Halle (Saale)",
    "addr:housenumber": "20",
    "addr:postcode": "06114",
    "addr:street": "Eichendorffstraße",
    "amenity": "cafe",
    "contact:facebook": "https://www.facebook.com/cafeludwig/",
    "contact:instagram": "https://www.instagram.com/ludwigcafe/",
    "contact:phone": "+49 177 1567566",
    "contact:website": "https://www.cafeludwig-halle.de",
    "diet:vegan": "yes",
    "diet:vegetarian": "yes",
    "name": "Café Ludwig",
    "opening_hours": "Tu-Fr 13:00-00:00; Sa 10:00-00:00; Su 10:00-19:00",
    "outdoor_seating": "yes",
    "payment:cash": "yes",
    "wheelchair": "no"
  }
},
{
  "type": "node",
  "id": 4974999721,
  "lat": 51.4867456,
  "lon": 11.9667696,
  "tags": {
    "addr:city": "Halle (Saale)",
    "addr:country": "DE",
    "addr:housenumber": "29",
    "addr:postcode": "06108",
    "addr:street": "Große Ulrichstraße",
    "amenity": "cafe",
    "contact:facebook": "https://www.facebook.com/Bagel29Halle/",
    "contact:phone": "+49 345 51725821",
    "contact:website": "https://bagel29.hpage.com",
    "cuisine": "bagel",
    "diet:vegan": "yes",
    "diet:vegetarian": "yes",
    "name": "Bagel 29",
    "opening_hours": "Mo-Sa 10:00-18:00; Su off",
    "wheelchair": "yes",
    "wheelchair:description": "Rampe wird auf Nachfrage ausgelegt"
  }
},
{
  "type": "node",
  "id": 5002304661,
  "lat": 51.4015360,
  "lon": 12.3999481,
  "tags": {
    "addr:city": "Leipzig",
    "addr:country": "DE",
    "addr:housenumber": "4",
    "addr:postcode": "04356",
    "addr:street": "Handelsstraße",
    "amenity": "restaurant",
    "cuisine": "asian",
    "diet:vegetarian": "yes",
    "name": "Glücksboot Asia-Erlebnisgastronomie",
    "opening_hours": "12:00 - 14:30; 18:00 - 23:00",
    "phone": "+49 341 52578389",
    "website": "http://www.gluecksboot.de",
    "wheelchair": "yes"
  }
},
{
  "type": "node",
  "id": 5066794632,
  "lat": 51.3384673,
  "lon": 12.3274388,
  "tags": {
    "addr:city": "Leipzig",
    "addr:housenumber": "10",
    "addr:postcode": "04177",
    "addr:street": "Georg-Schwarz-Straße",
    "amenity": "restaurant",
    "cuisine": "pizza",
    "delivery": "no",
    "diet:vegan": "yes",
    "diet:vegetarian": "yes",
    "name": "Pizza Lab",
    "opening_hours": "Tu-Sa 18:00-22:00",
    "outdoor_seating": "yes",
    "phone": "+49 176 66557313",
    "smoking": "isolated",
    "takeaway": "no",
    "website": "https://de-de.facebook.com/pizzalableipzig/"
  }
},
{
  "type": "node",
  "id": 5140190741,
  "lat": 51.3515358,
  "lon": 12.4067962,
  "tags": {
    "addr:city": "Leipzig",
    "addr:housenumber": "1",
    "addr:postcode": "04347",
    "addr:street": "Paul-Heyse-Straße",
    "amenity": "cafe",
    "changing_table": "yes",
    "diet:vegan": "yes",
    "diet:vegetarian": "yes",
    "email": "mail@cafetrago.de",
    "highchair": "yes",
    "internet_access": "wlan",
    "internet_access:fee": "no",
    "name": "TRAGO",
    "opening_hours": "Sa, Su 10:00-18:00; Mo-Fr 12:00-18:00",
    "outdoor_seating": "yes",
    "website": "http://cafetrago.de/",
    "wheelchair": "limited"
  }
},
{
  "type": "node",
  "id": 5245541311,
  "lat": 51.4816909,
  "lon": 11.9721836,
  "tags": {
    "addr:city": "Halle (Saale)",
    "addr:housenumber": "100",
    "addr:postcode": "06108",
    "addr:street": "Leipziger Straße",
    "brand": "denn's Biomarkt",
    "brand:wikidata": "Q48883773",
    "contact:phone": "+49 345 68169155",
    "contact:website": "https://www.denns-biomarkt.de/halle-leipziger-str-100/marktseite/",
    "diet:vegan": "yes",
    "diet:vegetarian": "yes",
    "name": "denn's Biomarkt",
    "opening_hours": "Mo-Sa 08:00-20:00",
    "organic": "only",
    "shop": "supermarket",
    "wheelchair": "yes"
  }
},
{
  "type": "node",
  "id": 5260816560,
  "lat": 51.3421083,
  "lon": 12.3763628,
  "tags": {
    "addr:city": "Leipzig",
    "addr:housenumber": "15",
    "addr:postcode": "04109",
    "addr:street": "Reichsstraße",
    "amenity": "restaurant",
    "contact:facebook": "https://www.facebook.com/indiancrown/",
    "cuisine": "indian",
    "diet:vegetarian": "yes",
    "level": "0",
    "name": "Indian Crown",
    "name:ja": "インディアンクラウン",
    "opening_hours": "Mo-Su 11:00-22:30",
    "outdoor_seating": "yes",
    "reservation": "yes",
    "takeaway": "no",
    "toilets:wheelchair": "no",
    "website": "http://www.indian-crown.de/",
    "wheelchair": "limited"
  }
},
{
  "type": "node",
  "id": 5270733721,
  "lat": 51.3677850,
  "lon": 12.3662502,
  "tags": {
    "addr:city": "Leipzig",
    "addr:country": "DE",
    "addr:housenumber": "3",
    "addr:postcode": "04157",
    "addr:street": "Landsberger Straße",
    "amenity": "fast_food",
    "diet:vegan": "yes",
    "diet:vegetarian": "yes",
    "name": "yoko Sushi",
    "opening_hours": "11:30-21:30",
    "phone": "+49 341 91886566",
    "website": "https://webshop.yoko.de/storedata/listStore"
  }
},
{
  "type": "node",
  "id": 5291347221,
  "lat": 51.3425202,
  "lon": 12.3751104,
  "tags": {
    "addr:city": "Leipzig",
    "addr:country": "DE",
    "addr:housenumber": "12",
    "addr:postcode": "04109",
    "addr:street": "Katharinenstraße",
    "amenity": "restaurant",
    "check_date": "2020-09-17",
    "contact:email": "leipzig@peterpane.de",
    "contact:phone": "+49 341 99858340",
    "contact:website": "https://www.peterpane.de/restaurants/leipzig-bernsteincarre/",
    "cuisine": "burger",
    "description": "Burgergrill & Bar",
    "diet:vegan": "yes",
    "diet:vegetarian": "yes",
    "internet_access": "wlan",
    "name": "Peter Pane Burgergrill & Bar",
    "opening_hours": "11:00+",
    "outdoor_seating": "yes",
    "toilets:wheelchair": "yes",
    "wheelchair": "yes"
  }
},
{
  "type": "node",
  "id": 5552751027,
  "lat": 51.3428669,
  "lon": 12.3730056,
  "tags": {
    "addr:city": "Leipzig",
    "addr:housenumber": "23",
    "addr:postcode": "04109",
    "addr:street": "Hainstraße",
    "amenity": "fast_food",
    "contact:facebook": "https://www.facebook.com/frittz.cool/",
    "contact:phone": "+49 341 68417525",
    "diet:vegetarian": "yes",
    "name": "Frittz",
    "opening_hours": "Mo-Sa 10:00-20:00",
    "wheelchair": "yes"
  }
},
{
  "type": "node",
  "id": 5556046139,
  "lat": 51.3322024,
  "lon": 12.3360510,
  "tags": {
    "addr:city": "Leipzig",
    "addr:country": "DE",
    "addr:postcode": "04229",
    "addr:street": "Karl-Heine-Straße",
    "amenity": "fast_food",
    "cuisine": "sausage;grill;fast_food",
    "diet:vegan": "yes",
    "drive_through": "no",
    "name": "Jürgen & Jürgen (Wurst geht immer)",
    "opening_hours": "Su-Th 16:30-00:30, Fr-Sa 16:30-04:00",
    "outdoor_seating": "yes",
    "phone": "+49 1578 4939324",
    "smoking": "outside",
    "takeaway": "yes",
    "wheelchair": "yes"
  }
},
{
  "type": "node",
  "id": 5583171123,
  "lat": 51.4737109,
  "lon": 11.9688803,
  "tags": {
    "addr:city": "Halle (Saale)",
    "addr:housenumber": "1",
    "addr:postcode": "06110",
    "addr:street": "Torstraße",
    "contact:email": "info@yenso.eu",
    "contact:facebook": "https://www.facebook.com/yenso.markt/",
    "contact:phone": "+49 176 57882542",
    "contact:website": "https://www.yenso.eu",
    "diet:vegan": "yes",
    "diet:vegetarian": "yes",
    "name": "YENSO Asia Markt",
    "opening_hours": "Mo-Sa 09:00-19:00; Su off",
    "shop": "convenience",
    "wheelchair": "no"
  }
},
{
  "type": "node",
  "id": 5592955318,
  "lat": 51.4707364,
  "lon": 11.9632008,
  "tags": {
    "addr:city": "Halle (Saale)",
    "addr:housenumber": "37",
    "addr:postcode": "06110",
    "addr:street": "Ludwigstraße",
    "description": "Veganes Essen gegen Spende. Jeden Dienstag ab 20:00 Uhr.",
    "diet:vegan": "only",
    "diet:vegetarian": "only",
    "name": "VL-Küfa",
    "opening_hours": "Tu 20:00+",
    "website": "https://www.ludwigstrasse37.de/kuefa.html"
  }
},
{
  "type": "node",
  "id": 5592987513,
  "lat": 51.5071812,
  "lon": 11.9661347,
  "tags": {
    "addr:city": "Halle (Saale)",
    "addr:housenumber": "78",
    "addr:postcode": "06114",
    "addr:street": "Reilstraße",
    "contact:facebook": "https://www.facebook.com/reil78/",
    "contact:website": "https://www.reil78.de",
    "diet:vegan": "only",
    "name": "Reil-Küfa",
    "opening_hours": "Su 19:00+"
  }
},
{
  "type": "node",
  "id": 5593108867,
  "lat": 51.5002376,
  "lon": 11.9573124,
  "tags": {
    "addr:city": "Halle (Saale)",
    "addr:housenumber": "63",
    "addr:postcode": "06114",
    "addr:street": "Große Brunnenstraße",
    "contact:facebook": "https://www.facebook.com/Himmel-Erde-HalleSaale-148488261909246/",
    "contact:website": "https://kleinfolgenreich.de/archive/himmel-und-erde/",
    "description": "„ausgesuchte Waren des täglichen Bedarfs in Bio-Qualität“\nvegetarische (meist vegane) Tagessuppe",
    "diet:vegan": "yes",
    "diet:vegetarian": "yes",
    "name": "Himmel & Erde",
    "opening_hours": "Mo-Fr 12:00-18:00",
    "organic": "only",
    "shop": "supermarket"
  }
},
{
  "type": "node",
  "id": 5599806557,
  "lat": 51.4854936,
  "lon": 11.9678025,
  "tags": {
    "addr:city": "Halle (Saale)",
    "addr:housenumber": "18",
    "addr:postcode": "06108",
    "addr:street": "Große Ulrichstraße",
    "amenity": "restaurant",
    "contact:facebook": "https://www.facebook.com/Yaman.Sham.Restaurant/",
    "contact:website": "https://www.sham-restaurant.com",
    "cuisine": "arabic;fast_food",
    "delivery": "no",
    "description": "Kein typischer Dönerladen, sondern ein arabischer Imbiss. Man bekommt bei Bestellung einen Pieper, der laut wird, wenn das Essen abholbereit ist. Es gibt zwar auch Dönergerichte, aber auch viele andere nahöstliche Spezialitäten. Die Eröffnung war 2018.",
    "diet:vegan": "yes",
    "diet:vegetarian": "yes",
    "name": "Yaman Sham",
    "opening_hours": "Mo-Su 10:30-23:00; Fr 10:00-23:00",
    "outdoor_seating": "no",
    "smoking": "no",
    "takeaway": "yes",
    "toilets:wheelchair": "no",
    "wheelchair": "limited"
  }
},
{
  "type": "node",
  "id": 5839971986,
  "lat": 51.3282324,
  "lon": 12.3368275,
  "tags": {
    "addr:city": "Leipzig",
    "addr:housenumber": "15A",
    "addr:postcode": "04229",
    "addr:street": "Lauchstädter Straße",
    "amenity": "cafe",
    "cuisine": "tea;cake;coffee_shop;ice_cream",
    "diet:vegan": "yes",
    "email": "cafe.oink@posteo.de",
    "internet_access": "wlan",
    "name": "Café Oink",
    "opening_hours": "Sa-Su 11:00-19:00; Tu-Fr 09:00-19:00",
    "website": "https://facebook.com/CafeOink",
    "wheelchair": "no"
  }
},
{
  "type": "node",
  "id": 5868832962,
  "lat": 51.4737130,
  "lon": 11.9701787,
  "tags": {
    "addr:city": "Halle (Saale)",
    "addr:housenumber": "1",
    "addr:postcode": "06110",
    "addr:street": "Liebenauer Straße",
    "amenity": "restaurant",
    "contact:facebook": "https://www.facebook.com/TandooriSteakhaus/",
    "contact:website": "https://www.tandoori-halle.de/",
    "cuisine": "indian;latin_american",
    "diet:vegan": "yes",
    "diet:vegetarian": "yes",
    "internet_access": "wlan",
    "internet_access:fee": "no",
    "name": "Tandoori Steakhaus",
    "opening_hours": "Mo-Su 11:30-14:30, 17:30-23:00"
  }
},
{
  "type": "node",
  "id": 5894646253,
  "lat": 51.3378570,
  "lon": 12.3850879,
  "tags": {
    "addr:city": "Leipzig",
    "addr:housenumber": "1",
    "addr:postcode": "04103",
    "addr:street": "Nürnberger Straße",
    "air_conditioning": "no",
    "amenity": "cafe",
    "diet:vegan": "only",
    "diet:vegetarian": "only",
    "email": "reservierungleipzig@katzentempel.de",
    "name": "Cafe Katzentempel",
    "opening_hours": "Mo-Fr 11:00-20:00; Sa 10:00-20:00; Su 10:00-18:00",
    "outdoor_seating": "no",
    "phone": "+49 341 25690874",
    "smoking": "no",
    "website": "https://www.katzentempel.de/standorte/leipzig/",
    "wheelchair": "limited"
  }
},
{
  "type": "node",
  "id": 5942265574,
  "lat": 51.4791470,
  "lon": 11.9788562,
  "tags": {
    "addr:city": "Halle (Saale)",
    "addr:housenumber": "70",
    "addr:postcode": "06108",
    "addr:street": "Leipziger Straße",
    "amenity": "cafe",
    "contact:email": "halle@koffij.de",
    "contact:facebook": "https://www.facebook.com/koffij.hal/",
    "contact:instagram": "https://www.instagram.com/koffijhalle/",
    "contact:phone": "+49 345 21389065",
    "contact:website": "https://saltlabs.de/koffij/",
    "diet:vegan": "yes",
    "diet:vegetarian": "yes",
    "internet_access": "wlan",
    "name": "koffij",
    "opening_hours": "Mo-Fr 09:00-21:00; Sa 10:00-16:00; Su off",
    "toilets:wheelchair": "yes",
    "wheelchair": "yes"
  }
},
{
  "type": "node",
  "id": 6033781352,
  "lat": 51.4956755,
  "lon": 11.9655539,
  "tags": {
    "addr:city": "Halle (Saale)",
    "addr:country": "DE",
    "addr:housenumber": "2",
    "addr:postcode": "06114",
    "addr:street": "Richard-Wagner-Straße",
    "amenity": "cafe",
    "contact:phone": "+49 345 13252434",
    "contact:website": "https://www.toertcheneck.de",
    "cuisine": "cake",
    "diet:vegan": "yes",
    "diet:vegetarian": "only",
    "name": "Törtcheneck",
    "opening_hours": "Tu-Su 11:00-18:00; Su 12:00-16:00"
  }
},
{
  "type": "node",
  "id": 6058174307,
  "lat": 51.3486129,
  "lon": 12.4025146,
  "tags": {
    "addr:city": "Leipzig",
    "addr:housenumber": "19",
    "addr:postcode": "04315",
    "addr:street": "Schulze-Delitzsch-Straße",
    "amenity": "restaurant",
    "changing_table": "yes",
    "contact:facebook": "https://www.facebook.com/malaleipzig",
    "contact:phone": "+49 341 65839766",
    "diet:vegan": "yes",
    "diet:vegetarian": "yes",
    "highchair": "yes",
    "internet_access": "wlan",
    "name": "Café Mala",
    "opening_hours": "Tu-Fr 15:00-22:30; Sa, Su 09:30-22:30",
    "opening_hours:kitchen": "Tu-Fr 17:00-22:30"
  }
},
{
  "type": "node",
  "id": 6179289405,
  "lat": 51.3471122,
  "lon": 12.4031741,
  "tags": {
    "addr:city": "Leipzig",
    "addr:country": "DE",
    "addr:housenumber": "11",
    "addr:postcode": "04315",
    "addr:street": "Hedwigstraße",
    "amenity": "restaurant",
    "contact:facebook": "https://www.facebook.com/GUMBO-635071550024234",
    "diet:vegetarian": "yes",
    "name": "Gumbo",
    "opening_hours": "We-Su 12:00-21:00"
  }
},
{
  "type": "node",
  "id": 6366059605,
  "lat": 51.4969861,
  "lon": 11.9628071,
  "tags": {
    "addr:city": "Halle (Saale)",
    "addr:housenumber": "23 a",
    "addr:postcode": "06114",
    "addr:street": "Karl-Liebknecht-Straße",
    "diet:vegan": "yes",
    "diet:vegetarian": "yes",
    "name": "Rübchen",
    "opening_hours": "Mo 13:00-19:00; Tu-Th 16:00-19:00; Fr 10:00-13:00,16:00-19:00; Sa 10:00-13:00; Su,PH off",
    "organic": "only",
    "shop": "foodcoop",
    "website": "https://www.rübchen.de"
  }
},
{
  "type": "node",
  "id": 6380783117,
  "lat": 51.4861224,
  "lon": 11.9674092,
  "tags": {
    "addr:city": "Halle (Saale)",
    "addr:housenumber": "23",
    "addr:postcode": "06108",
    "addr:street": "Große Ulrichstraße",
    "amenity": "restaurant",
    "contact:facebook": "https://www.facebook.com/rootshalle",
    "contact:instagram": "https://www.instagram.com/roots_halle",
    "contact:phone": "+49 345 27976527",
    "contact:website": "https://www.roots-halle.de",
    "diet:vegan": "yes",
    "diet:vegetarian": "yes",
    "name": "roots",
    "opening_hours": "Mo 12:00-15:00; Tu-Fr 12:00-15:00,18:00-23:00; Sa 18:00-23:00; Su off",
    "opening_hours:covid19": "off"
  }
},
{
  "type": "node",
  "id": 6510099865,
  "lat": 51.3446006,
  "lon": 12.3823625,
  "tags": {
    "addr:city": "Leipzig",
    "addr:housenumber": "5",
    "addr:postcode": "04109",
    "addr:street": "Willy-Brandt-Platz",
    "amenity": "fast_food",
    "cuisine": "asian",
    "diet:vegetarian": "yes",
    "level": "1",
    "name": "asiahung",
    "old_name": "Subway Express",
    "old_name:ja": "サブウェイ・エキスプレス",
    "opening_hours": "Mo-Su 10:00-20:00",
    "opening_hours:signed": "no",
    "takeaway": "only"
  }
},
{
  "type": "node",
  "id": 6569044919,
  "lat": 51.4849106,
  "lon": 11.9610697,
  "tags": {
    "addr:city": "Halle (Saale)",
    "addr:housenumber": "4",
    "addr:postcode": "06108",
    "addr:street": "Pfälzer Ufer",
    "amenity": "bar",
    "contact:facebook": "https://www.facebook.com/Hafenmeister-Docks-154417685229693/",
    "diet:vegan": "yes",
    "name": "Hafenmeister & Docks",
    "opening_hours": "Mo-Fr 11:30-18:00; Sa 10:00-18:00; Su 09:00-18:00",
    "outdoor_seating": "yes"
  }
},
{
  "type": "node",
  "id": 6652719424,
  "lat": 51.2849088,
  "lon": 11.8841424,
  "tags": {
    "addr:city": "Braunsbedra",
    "addr:housenumber": "14",
    "addr:postcode": "06242",
    "addr:street": "Markt",
    "amenity": "restaurant",
    "contact:email": "info@warias-restaurant.de",
    "contact:phone": "+49 34633 9090",
    "contact:website": "https://www.warias-restaurant.de",
    "cuisine": "german",
    "diet:vegetarian": "yes",
    "internet_access": "yes",
    "name": "Warias am Markt",
    "opening_hours": "Mo-Su 11:30-22:00; Fr,Sa 11:30-24:00",
    "opening_hours:kitchen": "Mo-Su 11:30-21:00",
    "outdoor_seating": "yes",
    "payment:coins": "yes",
    "payment:ep_geldkarte": "yes",
    "payment:mastercard": "yes",
    "payment:notes": "yes",
    "wheelchair": "yes"
  }
},
{
  "type": "node",
  "id": 6805328949,
  "lat": 51.4778531,
  "lon": 11.9872248,
  "tags": {
    "addr:city": "Halle (Saale)",
    "addr:housenumber": "1",
    "addr:postcode": "06112",
    "addr:street": "Hans-Dietrich-Genscher-Platz",
    "diet:vegan": "yes",
    "diet:vegetarian": "yes",
    "name": "Bio im Bahnhof",
    "opening_hours": "Mo-Su 08:00-20:00",
    "organic": "yes",
    "shop": "convenience",
    "wheelchair": "yes"
  }
},
{
  "type": "node",
  "id": 6820930072,
  "lat": 51.4740020,
  "lon": 11.9700357,
  "tags": {
    "addr:city": "Halle (Saale)",
    "addr:housenumber": "29",
    "addr:postcode": "06110",
    "addr:street": "Steinweg",
    "amenity": "cafe",
    "contact:facebook": "https://www.facebook.com/Pirashki-Halle-464419094098752/",
    "cuisine": "russian",
    "diet:vegan": "yes",
    "diet:vegetarian": "yes",
    "name": "Pirashki",
    "opening_hours": "Mo-Su 15:00-20:00"
  }
},
{
  "type": "node",
  "id": 7027316371,
  "lat": 51.4875765,
  "lon": 11.9764108,
  "tags": {
    "addr:city": "Halle (Saale)",
    "addr:housenumber": "34",
    "addr:postcode": "06108",
    "addr:street": "Große Steinstraße",
    "amenity": "restaurant",
    "contact:facebook": "https://www.facebook.com/BistroLorraine",
    "cuisine": "international",
    "diet:vegan": "yes",
    "diet:vegetarian": "yes",
    "name": "Bistro Lorraine",
    "opening_hours": "Mo 12:30-16:00; Tu-Fr 11:30-16:00; Sa,Su,PH off"
  }
},
{
  "type": "node",
  "id": 7055418094,
  "lat": 51.3450634,
  "lon": 12.4124227,
  "tags": {
    "addr:city": "Leipzig",
    "addr:housenumber": "128",
    "addr:postcode": "04315",
    "addr:street": "Eisenbahnstraße",
    "amenity": "fast_food",
    "cuisine": "burger;kebab",
    "diet:vegan": "yes",
    "diet:vegetarian": "yes",
    "drink:club-mate": "yes",
    "name": "Vleischerei",
    "opening_hours": "Tu-Th 16:00-22:00; Fr-Su 12:00-22:00",
    "website": "https://vleischerei.de/",
    "wheelchair": "no"
  }
},
{
  "type": "node",
  "id": 7068127430,
  "lat": 51.4282383,
  "lon": 11.9661048,
  "tags": {
    "access": "customers",
    "addr:city": "Halle (Saale)",
    "addr:housenumber": "1",
    "addr:postcode": "06132",
    "addr:street": "Am Wasserwerk",
    "amenity": "restaurant",
    "cuisine": "mexican",
    "diet:vegan": "limited",
    "diet:vegetarian": "yes",
    "name": "Cancun-Bar",
    "opening_hours": "Mo-Su 10:00-22:00",
    "website": "https://www.mayamare.de/sauna-wellness/#cancunbar"
  }
},
{
  "type": "node",
  "id": 7087040984,
  "lat": 51.3293505,
  "lon": 12.3367592,
  "tags": {
    "addr:city": "Leipzig",
    "addr:housenumber": "48",
    "addr:postcode": "04229",
    "addr:street": "Zschochersche Straße",
    "amenity": "restaurant",
    "cocktails": "yes",
    "cuisine": "vietnamese;asian",
    "diet:vegan": "only",
    "name": "Quan Xanh - vietnamnese vegan food",
    "opening_hours": "Tu-Fr 11:00-22:00; Sa-Su 13:00-22:00",
    "payment:cash": "only",
    "payment:credit_cards": "no",
    "payment:electronic_purses": "no",
    "phone": "+49 341 20068390",
    "smoking": "no",
    "takeaway": "yes",
    "toilets": "yes",
    "wheelchair": "yes"
  }
},
{
  "type": "node",
  "id": 7087048589,
  "lat": 51.3467282,
  "lon": 12.3782495,
  "tags": {
    "addr:city": "Leipzig",
    "addr:housenumber": "19",
    "addr:postcode": "04105",
    "addr:street": "Kurt-Schumacher-Straße",
    "amenity": "fast_food",
    "contact:phone": "+49 341 67944750",
    "cuisine": "burger;pizza;kebab",
    "diet:halal": "yes",
    "diet:vegan": "yes",
    "diet:vegetarian": "yes",
    "name": "Hallo Döner",
    "opening_hours": "Mo-Th 10:00-23:00; Fr 10:00-21:00; Sa 11:00-21:00; Su 11:00-22:30",
    "takeaway": "yes",
    "wheelchair": "limited"
  }
},
{
  "type": "node",
  "id": 7199676092,
  "lat": 51.3459261,
  "lon": 12.4062019,
  "tags": {
    "addr:city": "Leipzig",
    "addr:housenumber": "92",
    "addr:postcode": "04315",
    "addr:street": "Hermann-Liebmann-Straße",
    "amenity": "cafe",
    "description": "Vegan hot dogs and soft ice, coffee and pastries.",
    "diet:vegan": "yes",
    "name": "fredo",
    "opening_hours": "Tu-Su 14:00-19:00",
    "phone": "+49 341 24884132"
  }
},
{
  "type": "node",
  "id": 7203557745,
  "lat": 51.3485123,
  "lon": 12.4782598,
  "tags": {
    "addr:city": "Leipzig",
    "addr:housenumber": "1",
    "addr:postcode": "04329",
    "addr:street": "Paunsdorfer Allee",
    "amenity": "fast_food",
    "cuisine": "asian",
    "diet:vegetarian": "yes",
    "name": "Long Food",
    "opening_hours": "Mo-Fr 10:00-20:00; Su off"
  }
},
{
  "type": "node",
  "id": 7206763585,
  "lat": 51.4961558,
  "lon": 11.9653379,
  "tags": {
    "addr:city": "Halle (Saale)",
    "addr:housenumber": "57",
    "addr:postcode": "06114",
    "addr:street": "Richard-Wagner-Straße",
    "amenity": "restaurant",
    "bar": "yes",
    "capacity": "20",
    "contact:facebook": "https://www.facebook.com/Laube57/",
    "cuisine": "coffee_shop;international",
    "description": "Großartiges Bistro, prima für Pausen zwischendurch und zum länger Verweilen. Bietet von Mittag über Nachmittag bis Abend in entspannter Atmosphäre wechselndes Angebot: Suppen mit Vorspeisen, überbackene Baguettes, Kuchen, Kaffee, Tees, Saleb..",
    "diet:vegetarian": "yes",
    "name": "Laube 57",
    "opening_hours": "Tu-Fr 12:00-22:00; Sa-Su 15:00-22:00",
    "outdoor_seating": "yes",
    "reservation": "yes",
    "start_date": "2020-02"
  }
},
{
  "type": "node",
  "id": 7274026776,
  "lat": 51.3354293,
  "lon": 12.4092501,
  "tags": {
    "addr:city": "Leipzig",
    "addr:housenumber": "7",
    "addr:postcode": "04318",
    "addr:street": "Zweinaundorfer Straße",
    "amenity": "fast_food",
    "cuisine": "asian",
    "diet:vegan": "no",
    "diet:vegetarian": "yes",
    "name": "Kenkō",
    "opening_hours": "Mo-Su 10:00-22:00",
    "takeaway": "yes",
    "wheelchair": "no"
  }
},
{
  "type": "node",
  "id": 7388445891,
  "lat": 51.4958187,
  "lon": 11.9657115,
  "tags": {
    "addr:city": "Halle (Saale)",
    "addr:housenumber": "60",
    "addr:postcode": "06114",
    "addr:street": "Richard-Wagner-Straße",
    "amenity": "fast_food",
    "contact:facebook": "https://www.facebook.com/pg/City-Döner-104417934452006/",
    "contact:phone": "+49 345 23968706",
    "cuisine": "kebab",
    "diet:vegan": "yes",
    "diet:vegetarian": "yes",
    "name": "City Döner",
    "opening_hours": "Mo-Fr 11:00-22:00; Sa 12:00-23:00; Su 12:00-22:00",
    "website": "https://city-doner-halle-restaurant.business.site/"
  }
},
{
  "type": "node",
  "id": 7508729470,
  "lat": 51.5317995,
  "lon": 11.9669807,
  "tags": {
    "addr:city": "Halle (Saale)",
    "addr:housenumber": "30",
    "addr:postcode": "06118",
    "addr:street": "An der Witschke",
    "amenity": "cafe",
    "bar": "yes",
    "cuisine": "regional;international;coffee_shop",
    "description": "Das Ding in Seeben ist eine sozial-gastronomische Einrichtung, in der am Wochenende der gastronomische Betrieb geöffnet ist und tagesabhängig soziale Veranstaltungen stattfinden",
    "diet:gluten_free": "yes",
    "diet:organic": "yes",
    "diet:vegan": "yes",
    "diet:vegetarian": "yes",
    "email": "kontakt@das-ding-in-seeben.de",
    "internet_access": "yes",
    "internet_access:fee": "customers",
    "name": "Das Ding in Seeben",
    "note": "Kleinunternehmen",
    "opening_hours": "Fr-Su 10:00-19:00",
    "outdoor_seating": "yes",
    "phone": "+49 178 5851535",
    "website": "https://www.das-ding-in-seeben.de"
  }
},
{
  "type": "node",
  "id": 7889732163,
  "lat": 51.3355824,
  "lon": 12.4087928,
  "tags": {
    "addr:city": "Leipzig",
    "addr:housenumber": "3",
    "addr:postcode": "04318",
    "addr:street": "Zweinaundorfer Straße",
    "amenity": "fast_food",
    "diet:vegan": "no",
    "diet:vegetarian": "yes",
    "name": "Best Kebab",
    "opening_hours": "Mo-Fr 10:00-23:00; Sa,Su 11:00-23:00",
    "wheelchair": "no"
  }
},
{
  "type": "node",
  "id": 8018723343,
  "lat": 51.4910051,
  "lon": 11.9718784,
  "tags": {
    "addr:city": "Halle (Saale)",
    "addr:housenumber": "30",
    "addr:postcode": "06108",
    "addr:street": "Adam-Kuckhoff-Straße",
    "amenity": "cafe",
    "contact:email": "kontakt@cafe-kuckhoff.de",
    "contact:instagram": "https://www.instagram.com/cafekuckhoff/",
    "contact:phone": "+49 345 13256501",
    "contact:website": "https://www.cafe-kuckhoff.de",
    "diet:vegan": "yes",
    "diet:vegetarian": "yes",
    "name": "Café Kuckhoff",
    "opening_hours": "Mo,We,Th 09:00-21:00; Tu off; Fr-Sa 09:00-22:00; Su 09:00-18:00"
  }
},
{
  "type": "node",
  "id": 8018835847,
  "lat": 51.5029969,
  "lon": 11.9546175,
  "tags": {
    "addr:city": "Halle (Saale)",
    "addr:housenumber": "1",
    "addr:postcode": "06114",
    "addr:street": "Seebener Straße",
    "amenity": "restaurant",
    "contact:website": "https://www.studentenwerk-halle.de/mensen-cafebars/mensen-in-halle/mensa-burg",
    "cuisine": "canteen",
    "diet:vegetarian": "yes",
    "name": "Mensa Burg",
    "opening_hours": "Mo-Th 09:30-14:15; Fr 09:30-13:45; Sa,Su off",
    "opening_hours:covid19": "off",
    "outdoor_seating": "yes",
    "smoking": "no"
  }
},
{
  "type": "node",
  "id": 8018837433,
  "lat": 51.4908416,
  "lon": 11.9574035,
  "tags": {
    "addr:city": "Halle (Saale)",
    "addr:housenumber": "7",
    "addr:postcode": "06108",
    "addr:street": "Neuwerk",
    "amenity": "restaurant",
    "contact:website": "https://www.studentenwerk-halle.de/mensen-cafebars/mensen-in-halle/mensa-neuwerk",
    "cuisine": "canteen",
    "diet:vegan": "yes",
    "diet:vegetarian": "yes",
    "name": "Mensa Neuwerk",
    "opening_hours": "Mo-Th 11:30-14:00; Fr 11:30-13:30",
    "outdoor_seating": "yes"
  }
},
{
  "type": "node",
  "id": 8018875351,
  "lat": 51.5030097,
  "lon": 11.9569211,
  "tags": {
    "addr:city": "Halle (Saale)",
    "addr:housenumber": "5",
    "addr:postcode": "06114",
    "addr:street": "Seebener Straße",
    "amenity": "restaurant",
    "contact:phone": "+49 345 47823360",
    "contact:website": "https://www.objekt5.com/index.php/kontakte/restaurant-ruine",
    "diet:vegan": "yes",
    "diet:vegetarian": "yes",
    "name": "Restaurant Ruine",
    "opening_hours": "Mo 17:00-24:00; Tu-Th 12:00-24:00; Fr-Su 12:00-01:00"
  }
},
{
  "type": "node",
  "id": 8093932875,
  "lat": 51.3259914,
  "lon": 12.3272715,
  "tags": {
    "addr:city": "Leipzig",
    "addr:housenumber": "32a",
    "addr:postcode": "04229",
    "addr:street": "Gießerstraße",
    "amenity": "fast_food",
    "diet:lactose_free": "only",
    "diet:vegan": "only",
    "diet:vegetarian": "only",
    "name": "Vöner",
    "opening_hours": "We 11:00-13:00, 16:00-21:00; Th 11:00-13:00, 16:00-22:00; Sa 16:00-22:00; Su 16:00-21:00",
    "takeaway": "yes"
  }
},
{
  "type": "way",
  "id": 22883232,
  "center": {
    "lat": 51.4965308,
    "lon": 11.9339655
  },
  "nodes": [
    246053428,
    1579647287,
    246053429,
    3943019475,
    246053430,
    246053433,
    3943019476,
    246053428
  ],
  "tags": {
    "addr:city": "Halle (Saale)",
    "addr:housenumber": "7",
    "addr:postcode": "06120",
    "addr:street": "Theodor-Lieser-Straße",
    "alt_name": "Mensa Heide-Süd",
    "amenity": "fast_food",
    "building": "yes",
    "building:levels": "1",
    "contact:website": "https://www.studentenwerk-halle.de/mensen-cafebars/mensen-in-halle/heidemensa-mit-cafebar",
    "diet:vegan": "limited",
    "diet:vegetarian": "yes",
    "name": "Heidemensa",
    "opening_hours": "Mo-Fr 11:30-14:00",
    "operator": "Studentenwerk Halle",
    "outdoor_seating": "yes",
    "roof:colour": "grey",
    "roof:shape": "flat",
    "smoking": "no",
    "takeaway": "yes",
    "toilets:wheelchair": "no",
    "wheelchair": "yes"
  }
},
{
  "type": "way",
  "id": 27177218,
  "center": {
    "lat": 51.4869272,
    "lon": 11.9688723
  },
  "nodes": [
    298190873,
    298184379,
    298190876,
    298190880,
    942721127,
    298190884,
    298190889,
    298190892,
    4271319107,
    298190873
  ],
  "tags": {
    "addr:city": "Halle (Saale)",
    "addr:housenumber": "5",
    "addr:postcode": "06108",
    "addr:street": "Universitätsring",
    "amenity": "restaurant",
    "building": "yes",
    "cuisine": "canteen",
    "diet:vegan": "limited",
    "diet:vegetarian": "yes",
    "name": "Burse zur Tulpe",
    "opening_hours": "Mo-Th 09:00-19:00; Fr 09:00-15:00; Sa 12:00-14:00; Su off",
    "opening_hours:covid19": "off",
    "toilets:wheelchair": "yes",
    "website": "https://www.studentenwerk-halle.de/mensen-cafebars/mensen-in-halle/mensa-tulpe",
    "wheelchair": "yes",
    "wheelchair:description": "WC im Keller mit Fahrstuhl",
    "wikidata": "Q1017039"
  }
},
{
  "type": "way",
  "id": 28143594,
  "center": {
    "lat": 51.3393846,
    "lon": 12.3792860
  },
  "nodes": [
    309119637,
    309119638,
    286219676,
    309119639,
    309119637
  ],
  "tags": {
    "addr:city": "Leipzig",
    "addr:country": "DE",
    "addr:housenumber": "14",
    "addr:postcode": "04109",
    "addr:street": "Grimmaische Straße",
    "amenity": "cafe",
    "brand": "Starbucks",
    "brand:wikidata": "Q37158",
    "brand:wikipedia": "en:Starbucks",
    "cuisine": "coffee_shop",
    "diet:vegan": "yes",
    "diet:vegetarian": "yes",
    "internet_access": "wlan",
    "internet_access:fee": "no",
    "name": "Starbucks",
    "official_name": "Starbucks Coffee",
    "opening_hours": "Mo-Fr 07:00-21:00; Sa 07:30-21:00; Su,PH 07:30-20:30",
    "outdoor_seating": "yes",
    "takeaway": "yes",
    "toilets:wheelchair": "yes",
    "website": "https://www.starbucks.de/",
    "wheelchair": "yes"
  }
},
{
  "type": "way",
  "id": 32804265,
  "center": {
    "lat": 51.4799460,
    "lon": 11.9981454
  },
  "nodes": [
    369655497,
    369655499,
    369655496,
    369655501,
    369655497
  ],
  "tags": {
    "addr:city": "Halle (Saale)",
    "addr:country": "DE",
    "addr:housenumber": "49a",
    "addr:postcode": "06112",
    "addr:street": "Delitzscher Straße",
    "amenity": "fast_food",
    "building": "yes",
    "contact:phone": "+49 345 68597862",
    "contact:website": "https://www.freddy-fresh.de",
    "cuisine": "pizza",
    "diet:vegan": "yes",
    "diet:vegetarian": "yes",
    "name": "Freddy Fresh",
    "opening_hours": "Mo-Su 11:00-22:00",
    "wheelchair": "limited"
  }
},
{
  "type": "way",
  "id": 35602263,
  "center": {
    "lat": 51.3109138,
    "lon": 12.3728378
  },
  "nodes": [
    50837906,
    417265174,
    417265175,
    417265176,
    50837906
  ],
  "tags": {
    "addr:city": "Leipzig",
    "addr:country": "DE",
    "addr:housenumber": "154",
    "addr:postcode": "04277",
    "addr:street": "Karl-Liebknecht-Straße",
    "amenity": "restaurant",
    "building": "yes",
    "diet:vegan": "no",
    "diet:vegetarian": "yes",
    "heritage": "4",
    "heritage:operator": "lfd",
    "historic": "heritage",
    "name": "Südbrause",
    "opening_hours": "Tu-Sa 09:00+; Mo off",
    "phone": "+49 341 3910181",
    "toilets:wheelchair": "no",
    "website": "https://suedbrause.de/",
    "wheelchair": "limited"
  }
},
{
  "type": "way",
  "id": 40522878,
  "center": {
    "lat": 51.3208695,
    "lon": 12.3744527
  },
  "nodes": [
    491490181,
    491490184,
    491490185,
    2089270048,
    2089270053,
    2089270052,
    2089270047,
    491490186,
    491490182,
    491490181
  ],
  "tags": {
    "addr:city": "Leipzig",
    "addr:country": "DE",
    "addr:housenumber": "43",
    "addr:postcode": "04275",
    "addr:street": "Kurt-Eisner-Straße",
    "amenity": "pub",
    "building": "apartments",
    "building:levels": "5",
    "cuisine": "burger;sandwich;irish;fish_and_chips",
    "diet:vegetarian": "yes",
    "email": "info@noels-ballroom.com",
    "name": "Noels Ballroom",
    "opening_hours": "Mo-Su 17:00+",
    "opening_hours:lastcheck": "2015-11-15",
    "phone": "+49 341 3032007",
    "smoking": "separated",
    "theme": "irish",
    "website": "http://noels-ballroom.com"
  }
},
{
  "type": "way",
  "id": 47571137,
  "center": {
    "lat": 51.4574074,
    "lon": 11.9542164
  },
  "nodes": [
    605229830,
    605229835,
    605229833,
    605229831,
    605229830
  ],
  "tags": {
    "addr:city": "Halle (Saale)",
    "addr:country": "DE",
    "addr:housenumber": "68",
    "addr:postcode": "06128",
    "addr:street": "Ammendorfer Weg",
    "amenity": "fast_food",
    "building": "yes",
    "contact:phone": "+49 345 6788999",
    "contact:website": "https://www.uno-pizza.de/uno-pizza-halle/",
    "cuisine": "pizza",
    "diet:vegan": "yes",
    "diet:vegetarian": "yes",
    "name": "Uno Pizza",
    "opening_hours": "Su-Fr 11:00-23:00; Sa 11:00-24:00",
    "operator": "Uno Pizza",
    "toilets:wheelchair": "no",
    "wheelchair": "no"
  }
},
{
  "type": "way",
  "id": 53062443,
  "center": {
    "lat": 51.4938724,
    "lon": 11.9665461
  },
  "nodes": [
    671926371,
    671926372,
    671926373,
    2049929697,
    2049929698,
    671926374,
    671926375,
    3933961562,
    671926376,
    671926371
  ],
  "tags": {
    "addr:city": "Halle (Saale)",
    "addr:country": "DE",
    "addr:housenumber": "22",
    "addr:postcode": "06114",
    "addr:street": "Mühlweg",
    "amenity": "fast_food",
    "building": "yes",
    "contact:phone": "+49 345 6788999",
    "contact:website": "https://www.uno-pizza.de/uno-pizza-halle/",
    "cuisine": "pizza",
    "diet:vegan": "yes",
    "diet:vegetarian": "yes",
    "name": "Uno Pizza",
    "opening_hours": "Su-Fr 11:00-23:00; Sa 11:00-24:00",
    "toilets:wheelchair": "no",
    "wheelchair": "limited"
  }
},
{
  "type": "way",
  "id": 57837812,
  "center": {
    "lat": 51.3303048,
    "lon": 12.3982693
  },
  "nodes": [
    717567260,
    717567238,
    717567199,
    717567224,
    717567260
  ],
  "tags": {
    "addr:city": "Leipzig",
    "addr:country": "DE",
    "addr:housenumber": "49",
    "addr:postcode": "04317",
    "addr:street": "Prager Straße",
    "amenity": "cafe",
    "building": "apartments",
    "building:levels": "4",
    "cuisine": "italian",
    "diet:vegetarian": "yes",
    "name": "Tiziano",
    "opening_hours": "Tu-Th 12:00-21:00; Fr 12:00-22:00; Sa 14:00-22:00; Su 14:00-20:00",
    "roof:levels": "2",
    "roof:shape": "gambrel",
    "website": "http://www.dolci-tiziano.de",
    "wheelchair": "no"
  }
},
{
  "type": "way",
  "id": 57961250,
  "center": {
    "lat": 51.4986311,
    "lon": 11.9434794
  },
  "nodes": [
    719186432,
    719186512,
    4942765957,
    4942765956,
    1968747239,
    719186533,
    1607317827,
    719186406,
    1607317830,
    4942765802,
    4942765797,
    719186432
  ],
  "tags": {
    "addr:city": "Halle (Saale)",
    "addr:country": "DE",
    "addr:housename": "Weinbergmensa",
    "addr:housenumber": "3",
    "addr:postcode": "06120",
    "addr:street": "Wolfgang-Langenbeck-Straße",
    "amenity": "fast_food",
    "building": "yes",
    "contact:website": "https://www.studentenwerk-halle.de/mensen-cafebars/mensen-in-halle/weinbergmensa-mit-cafebar",
    "diet:vegetarian": "yes",
    "name": "Weinbergmensa",
    "opening_hours": "Mo-Fr 11:30-14:00",
    "operator": "Studentenwerk Halle",
    "smoking": "no",
    "wheelchair": "yes"
  }
},
{
  "type": "way",
  "id": 58255205,
  "center": {
    "lat": 51.3958899,
    "lon": 12.4036366
  },
  "nodes": [
    722502860,
    722502861,
    722502862,
    7098769928,
    7098769929,
    722502930,
    722502937,
    722502932,
    722502933,
    722502939,
    722502935,
    722502863,
    722502864,
    7093628449,
    7093628452,
    722502865,
    722502860
  ],
  "tags": {
    "addr:city": "Leipzig",
    "addr:housenumber": "1-F",
    "addr:postcode": "04356",
    "addr:street": "Messe-Allee",
    "amenity": "restaurant",
    "building": "yes",
    "diet:vegetarian": "yes",
    "height": "7",
    "name": "Restaurant 3 (Snack 3-5)",
    "opening_hours": "\"Nur zu Veranstaltungen besetzt \"",
    "roof:colour": "#D3D3D3",
    "roof:shape": "flat",
    "wheelchair": "yes"
  }
},
{
  "type": "way",
  "id": 58255211,
  "center": {
    "lat": 51.3961359,
    "lon": 12.4007900
  },
  "nodes": [
    722502839,
    722502840,
    722502842,
    7098769940,
    7098769941,
    722502855,
    722502856,
    722502857,
    722502858,
    722502859,
    722502847,
    722502827,
    722502844,
    722502845,
    722502839
  ],
  "tags": {
    "addr:city": "Leipzig",
    "addr:housenumber": "1-E",
    "addr:postcode": "04356",
    "addr:street": "Messe-Allee",
    "amenity": "restaurant",
    "building": "yes",
    "diet:vegetarian": "yes",
    "height": "7",
    "name": "Restaurant 1 (Snack 1-3)",
    "opening_hours": "\"Nur zu Veranstaltungen besetzt \"",
    "roof:colour": "#D3D3D3",
    "roof:shape": "flat",
    "wheelchair": "yes"
  }
},
{
  "type": "way",
  "id": 58255214,
  "center": {
    "lat": 51.3975675,
    "lon": 12.4011176
  },
  "nodes": [
    722502883,
    722502919,
    722502908,
    722502910,
    722502911,
    7016916301,
    722502913,
    722502914,
    722502916,
    722502885,
    7098769943,
    7098769946,
    722502900,
    722502917,
    205097387,
    722502883
  ],
  "tags": {
    "addr:city": "Leipzig",
    "addr:housenumber": "1-C",
    "addr:postcode": "04356",
    "addr:street": "Messe-Allee",
    "amenity": "restaurant",
    "building": "yes",
    "diet:vegetarian": "yes",
    "height": "7",
    "name": "Restaurant 2 (Snack C-2)",
    "opening_hours": "\"Nur zu Veranstaltungen besetzt \"",
    "roof:colour": "#D3D3D3",
    "roof:shape": "flat",
    "wheelchair": "yes"
  }
},
{
  "type": "way",
  "id": 58255222,
  "center": {
    "lat": 51.3973214,
    "lon": 12.4039433
  },
  "nodes": [
    722502968,
    7016916296,
    722502969,
    722502981,
    722502970,
    722502971,
    7016916298,
    722502977,
    722502978,
    722502972,
    722502973,
    7098769934,
    7098769935,
    722502974,
    722502975,
    722502976,
    722502968
  ],
  "tags": {
    "addr:city": "Leipzig",
    "addr:housenumber": "1-D",
    "addr:postcode": "04356",
    "addr:street": "Messe-Allee",
    "alt_name": "Restaurant Petershof",
    "amenity": "restaurant",
    "building": "yes",
    "diet:vegetarian": "yes",
    "height": "7",
    "name": "Restaurant 4 (Snack 2-4)",
    "opening_hours": "\"Nur zu Veranstaltungen besetzt \"",
    "roof:colour": "#D3D3D3",
    "roof:shape": "flat",
    "smoking": "no",
    "wheelchair": "yes"
  }
},
{
  "type": "way",
  "id": 60962078,
  "center": {
    "lat": 51.4952182,
    "lon": 11.9658478
  },
  "nodes": [
    763096419,
    668917631,
    3933961578,
    763152387,
    3933961579,
    763152388,
    668917615,
    763096421,
    763096419
  ],
  "tags": {
    "addr:city": "Halle (Saale)",
    "addr:country": "DE",
    "addr:housenumber": "38",
    "addr:postcode": "06114",
    "addr:street": "Händelstraße",
    "amenity": "fast_food",
    "brand": "Domino's Pizza",
    "brand:wikidata": "Q839466",
    "brand:wikipedia": "en:Domino's Pizza",
    "building": "apartments",
    "contact:facebook": "https://www.dominos.de/kaufhaus/de-hallereileck-33831",
    "contact:phone": "+49 345 530 130",
    "cuisine": "pizza",
    "diet:vegan": "yes",
    "diet:vegetarian": "yes",
    "name": "Domino's Pizza",
    "opening_hours": "Mo-Su 11:00-23:00",
    "short_name": "Domino's",
    "takeaway": "yes",
    "wheelchair": "limited"
  }
},
{
  "type": "way",
  "id": 61561597,
  "center": {
    "lat": 51.4936383,
    "lon": 11.9475137
  },
  "nodes": [
    767887419,
    767887432,
    767887437,
    767887443,
    767887447,
    767887453,
    767887458,
    767887476,
    767887485,
    767887487,
    767887488,
    767887489,
    767887490,
    767887491,
    767887419
  ],
  "tags": {
    "addr:city": "Halle (Saale)",
    "addr:housenumber": "1",
    "addr:postcode": "06108",
    "addr:street": "Peißnitzinsel",
    "amenity": "cafe",
    "biergarten": "yes",
    "building": "yes",
    "contact:facebook": "https://www.facebook.com/peissnitzhauspiraten/",
    "contact:instagram": "https://www.instagram.com/peissnitzhaus/",
    "contact:website": "https://www.peissnitzhaus.de/index.php/gartenlokal",
    "diet:vegan": "yes",
    "diet:vegetarian": "yes",
    "name": "Gartenlokal am Peißnitzhaus/Peißnitzhaus-Café",
    "opening_hours": "Mo-Fr 11:30-17:00 +Sa-Su 10:00-18:00",
    "outdoor_seating": "yes",
    "source": "https://www.peissnitzhaus.de/index.php/gartenlokal",
    "toilets:wheelchair": "yes",
    "wheelchair": "yes",
    "wheelchair:description": "doppelter Eintrag (siehe Peißnitzhaus)"
  }
},
{
  "type": "way",
  "id": 65739613,
  "center": {
    "lat": 51.3289622,
    "lon": 12.4045574
  },
  "nodes": [
    801053026,
    718043780,
    347056853,
    347056852,
    801053026
  ],
  "tags": {
    "addr:city": "Leipzig",
    "addr:housenumber": "23",
    "addr:postcode": "04317",
    "addr:street": "Riebeckstraße",
    "amenity": "cafe",
    "building": "retail",
    "building:levels": "1",
    "contact:website": "https://www.eistraeumerei.de",
    "cuisine": "ice_cream",
    "diet:vegan": "yes",
    "diet:vegetarian": "yes",
    "name": "Eisträumerei",
    "opening_hours": "Tu-Su 13:00-20:00",
    "roof:levels": "0",
    "toilets:wheelchair": "no",
    "wheelchair": "yes"
  }
},
{
  "type": "way",
  "id": 86928521,
  "center": {
    "lat": 51.3023221,
    "lon": 12.3745480
  },
  "nodes": [
    1011249972,
    1436020577,
    1011249945,
    1011249960,
    1011249948,
    1011249965,
    1011249974,
    1011249953,
    1011249940,
    538606602,
    1011249954,
    1011249972
  ],
  "tags": {
    "addr:city": "Leipzig",
    "addr:housenumber": "3",
    "addr:postcode": "04277",
    "addr:street": "Koburger Straße",
    "amenity": "cafe",
    "building": "yes",
    "contact:facebook": "https://www.facebook.com/ConneIslandCafe/",
    "diet:vegan": "no",
    "diet:vegetarian": "yes",
    "drink:club-mate": "yes",
    "internet_access": "wlan",
    "name": "Conne Island",
    "opening_hours:covid19": "closed",
    "website": "https://www.conne-island.de",
    "wheelchair": "yes"
  }
},
{
  "type": "way",
  "id": 120005523,
  "center": {
    "lat": 51.4929782,
    "lon": 11.9716425
  },
  "nodes": [
    1346619646,
    1346619624,
    1346619659,
    1346619619,
    1346619646
  ],
  "tags": {
    "addr:city": "Halle (Saale)",
    "addr:country": "DE",
    "addr:housenumber": "62",
    "addr:postcode": "06108",
    "addr:street": "Ludwig-Wucherer-Straße",
    "amenity": "ice_cream",
    "building": "yes",
    "contact:email": "info@eisdeal.de",
    "contact:facebook": "https://www.facebook.com/eisdeal.de",
    "contact:instagram": "https://www.instagram.com/eisdealerhalle",
    "contact:website": "https://www.eisdeal.de",
    "cuisine": "ice_cream",
    "delivery": "no",
    "diet:vegan": "yes",
    "diet:vegetarian": "only",
    "name": "Eis-Dealer",
    "opening_hours": "12:00-18:00",
    "outdoor_seating": "no",
    "takeaway": "yes",
    "toilets:wheelchair": "no",
    "wheelchair": "no"
  }
},
{
  "type": "way",
  "id": 120082234,
  "center": {
    "lat": 51.4932826,
    "lon": 11.9744950
  },
  "nodes": [
    1347317717,
    1347317685,
    1347317707,
    1347317686,
    1347317725,
    1347317638,
    1347317664,
    1347317689,
    1347317669,
    1347317613,
    1347317717
  ],
  "tags": {
    "addr:city": "Halle (Saale)",
    "addr:country": "DE",
    "addr:housenumber": "8",
    "addr:postcode": "06114",
    "addr:street": "Viktor-Scheffel-Straße",
    "amenity": "restaurant",
    "building": "yes",
    "contact:facebook": "https://www.facebook.com/colonne.morris/",
    "contact:instagram": "https://www.instagram.com/cafebarcolonne/",
    "contact:phone": "+49 345 27983176",
    "cuisine": "crepe;french;breakfast;coffee_shop;cake;pasta;tea",
    "diet:vegan": "limited",
    "diet:vegetarian": "yes",
    "internet_access": "wlan",
    "internet_access:fee": "no",
    "name": "Colonne Morris",
    "opening_hours": "Mo-Th 09:00-01:00; Fr-Sa 09:00-02:00; Su 09:00-00:00",
    "toilets:wheelchair": "no",
    "wheelchair": "no"
  }
},
{
  "type": "way",
  "id": 134238289,
  "center": {
    "lat": 51.4827162,
    "lon": 11.9673010
  },
  "nodes": [
    1476641303,
    3321375768,
    1476641263,
    1476641266,
    1476641307,
    1476641352,
    2626497916,
    2626497918,
    2626497920,
    2626497923,
    2626497914,
    1476641405,
    1476641303
  ],
  "tags": {
    "addr:city": "Halle (Saale)",
    "addr:country": "DE",
    "addr:housenumber": "6",
    "addr:postcode": "06108",
    "addr:street": "Talamtstraße",
    "amenity": "restaurant",
    "building": "apartments",
    "cuisine": "german",
    "diet:vegan": "yes",
    "diet:vegetarian": "yes",
    "email": "kontakt@moenchshof-halle.de",
    "fax": "+49 345 2091065",
    "historic": "yes",
    "name": "Mönchshof",
    "opening_hours": "Mo-Sa 11:00-23:00; Su,PH 11:00-15:00",
    "operator": "Jens Liebezeit",
    "outdoor_seating": "yes",
    "phone": "+49 345 2021726",
    "toilets:wheelchair": "no",
    "website": "https://moenchshof-halle.de/",
    "wheelchair": "limited",
    "wheelchair:description": "2 Stufen + Schild \"Rollstuhlfahrer bitte melden\", 2 Rampen vorhanden, bei Reservierung \"Rollstuhlfahrer\" angeben"
  }
},
{
  "type": "way",
  "id": 135440450,
  "center": {
    "lat": 51.3540120,
    "lon": 12.4117092
  },
  "nodes": [
    1487575448,
    1487575447,
    1487575442,
    123909455,
    1487575446,
    1487575448
  ],
  "tags": {
    "addr:city": "Leipzig",
    "addr:housenumber": "95",
    "addr:postcode": "04347",
    "addr:street": "Gorkistraße",
    "amenity": "fast_food",
    "building": "yes",
    "diet:vegetarian": "yes",
    "name": "Speedy BBQ",
    "opening_hours": "Mo-Su 08:00-01:00",
    "opening_hours:signed": "no"
  }
},
{
  "type": "way",
  "id": 136198059,
  "center": {
    "lat": 51.3142806,
    "lon": 12.3666938
  },
  "nodes": [
    1494377873,
    1494377868,
    1494377867,
    1494377872,
    1494377873
  ],
  "tags": {
    "addr:city": "Leipzig",
    "addr:country": "DE",
    "addr:housenumber": "2",
    "addr:postcode": "04277",
    "addr:street": "Heilemannstraße",
    "amenity": "fast_food",
    "building": "yes",
    "diet:vegan": "yes",
    "diet:vegetarian": "yes",
    "name": "Sabine's Imbisseck",
    "opening_hours": "Mo-Fr 12:00-21:00"
  }
},
{
  "type": "way",
  "id": 149827703,
  "center": {
    "lat": 51.3243301,
    "lon": 12.3733263
  },
  "nodes": [
    1627739190,
    1627739188,
    1627739186,
    1627739187,
    1627739190
  ],
  "tags": {
    "addr:city": "Leipzig",
    "addr:country": "DE",
    "addr:housenumber": "1",
    "addr:postcode": "04275",
    "addr:street": "Südplatz",
    "amenity": "fast_food",
    "building": "commercial",
    "building:levels": "1",
    "contact:email": "suedplatz@bigburgester.de",
    "contact:facebook": "https://www.facebook.com/bigburgester.leipzig",
    "contact:instagram": "https://www.instagram.com/bigburgesterleipzig/",
    "contact:mobile": "+49 176 24137989",
    "contact:website": "https://bigburgester.de/suedplatz-leipzig/",
    "cuisine": "burger",
    "diet:vegetarian": "yes",
    "drive_through": "no",
    "name": "Big Burgester",
    "opening_hours": "Mo-Su,PH11:00-00:00",
    "operator:tax": "231/162/32901",
    "roof:levels": "0",
    "wheelchair": "yes"
  }
},
{
  "type": "way",
  "id": 164756625,
  "center": {
    "lat": 51.4945584,
    "lon": 11.9664306
  },
  "nodes": [
    1763600536,
    1763600538,
    1763600545,
    1763600544,
    1763600536
  ],
  "tags": {
    "addr:city": "Halle (Saale)",
    "addr:country": "DE",
    "addr:housenumber": "19",
    "addr:postcode": "06108",
    "addr:street": "Bernburger Straße",
    "amenity": "fast_food",
    "building": "yes",
    "contact:facebook": "https://www.facebook.com/Falafello-593697840999599/",
    "contact:instagram": "https://www.instagram.com/falafello_the_world_of_falafel/",
    "contact:website": "https://www.falafello.de",
    "cuisine": "oriental;international",
    "description": "Falafel-Bistro mit großem vegetarisch-veganen Angebot Sitzplätze innen und außen",
    "diet:vegan": "yes",
    "diet:vegetarian": "only",
    "drive_through": "no",
    "name": "Falafello",
    "opening_hours": "Mo-Su,PH 10:00-24:00",
    "opening_hours:covid19": "Mo-Su,PH 11:00-23:00",
    "outdoor_seating": "yes",
    "takeaway": "yes",
    "toilets:wheelchair": "no",
    "wheelchair": "limited"
  }
},
{
  "type": "way",
  "id": 164756646,
  "center": {
    "lat": 51.4948689,
    "lon": 11.9668081
  },
  "nodes": [
    1763600575,
    1763600594,
    1763600559,
    1763600558,
    1763600557,
    1763600563,
    1763600560,
    1763600575
  ],
  "tags": {
    "addr:city": "Halle (Saale)",
    "addr:country": "DE",
    "addr:housenumber": "43",
    "addr:postcode": "06108",
    "addr:street": "Ludwig-Wucherer-Straße",
    "amenity": "fast_food",
    "building": "yes",
    "contact:facebook": "https://www.facebook.com/NICE-the-healthy-kebab-eatery-475148036602683/",
    "contact:instagram": "https://www.instagram.com/nice_eatery/",
    "contact:website": "https://www.nice-kebab.de/",
    "cuisine": "kebab",
    "diet:vegan": "yes",
    "diet:vegetarian": "yes",
    "drive_through": "no",
    "name": "NICE",
    "opening_hours": "Mo-Su 11:00-21:00"
  }
},
{
  "type": "way",
  "id": 178744104,
  "center": {
    "lat": 51.4838231,
    "lon": 11.9685990
  },
  "nodes": [
    1891008546,
    1891008545,
    2787725888,
    1891008539,
    1891008531,
    1891008532,
    1891008546
  ],
  "tags": {
    "addr:city": "Halle (Saale)",
    "addr:country": "DE",
    "addr:housenumber": "2",
    "addr:postcode": "06108",
    "addr:street": "Große Nikolaistraße",
    "amenity": "restaurant",
    "building": "yes",
    "contact:email": "info@halleschesbrauhaus.de",
    "contact:phone": "+49 345 212570",
    "contact:website": "https://www.halleschesbrauhaus.de",
    "cuisine": "german",
    "diet:vegan": "yes",
    "diet:vegetarian": "yes",
    "microbrewery": "yes",
    "name": "Hallesches Brauhaus",
    "opening_hours": "Mo-Fr 16:00-24:00; Sa 11:00-24:00; Su 11:00-21:00; PH 11:00-24:00",
    "toilets:wheelchair": "yes",
    "wheelchair": "yes"
  }
},
{
  "type": "way",
  "id": 182854644,
  "center": {
    "lat": 51.3558742,
    "lon": 11.9992993
  },
  "nodes": [
    1932197657,
    1932197619,
    1932197615,
    1932197605,
    1932197603,
    1932197616,
    1932197617,
    1932197622,
    1932197659,
    1932197658,
    1932197677,
    1932197679,
    1932197657
  ],
  "tags": {
    "addr:city": "Merseburg",
    "addr:housenumber": "6",
    "addr:postcode": "06217",
    "addr:street": "Burgstraße",
    "amenity": "restaurant",
    "building": "yes",
    "cuisine": "indian",
    "diet:vegan": "yes",
    "diet:vegetarian": "yes",
    "name": "Tajmahal",
    "opening_hours": "Mo-Su 11:00-23:00",
    "website": "http://www.tajmahal-merseburg.de/",
    "wheelchair": "no"
  }
},
{
  "type": "way",
  "id": 189926769,
  "center": {
    "lat": 51.4807172,
    "lon": 11.9669297
  },
  "nodes": [
    2005386101,
    2005386095,
    2005386099,
    2005386098,
    2005386101
  ],
  "tags": {
    "addr:city": "Halle (Saale)",
    "addr:country": "DE",
    "addr:housenumber": "3",
    "addr:postcode": "06108",
    "addr:street": "Dreyhauptstraße",
    "amenity": "cafe",
    "building": "yes",
    "contact:facebook": "https://www.facebook.com/LichthausHalle",
    "contact:instagram": "https://www.instagram.com/lichthaushalle/",
    "diet:vegan": "yes",
    "internet_access": "wlan",
    "internet_access:fee": "no",
    "name": "Lichthaus",
    "opening_hours": "We-Th 14:00-18:00; Fr-Sa 14:00-24:00",
    "operator": "Operation Mobilisation e. V.",
    "phone": "+49 345 69494454",
    "smoking": "no",
    "toilets:wheelchair": "yes",
    "website": "https://www.lichthaushalle.de",
    "wheelchair": "yes",
    "wheelchair:description": "über eine Rollstuhlrampe erreichbar"
  }
},
{
  "type": "way",
  "id": 261692804,
  "center": {
    "lat": 51.4491067,
    "lon": 12.0237008
  },
  "nodes": [
    2672936941,
    2672936939,
    2672936933,
    2672936936,
    2672936941
  ],
  "tags": {
    "addr:city": "Halle (Saale)",
    "addr:country": "DE",
    "addr:housenumber": "2",
    "addr:postcode": "06112",
    "addr:street": "Messestraße",
    "amenity": "restaurant",
    "building": "yes",
    "contact:facebook": "https://www.facebook.com/Espitas.Halle/",
    "contact:phone": "+49 345 68878555",
    "contact:website": "https://www.espitas.de/restaurants/espitas-halle",
    "cuisine": "mexican",
    "description": "mexikanisches omnivores Restaurant mit veganem Angebot die veganen Speisen sind auch als solche gekennzeichnet viele vegane Angebote: Flautas, Nachos, Chili sin carne, Salate, Kräuerbrot, Tacos, Patata, Enchiladas, Chimichangas, usw.",
    "diet:vegan": "yes",
    "diet:vegetarian": "yes",
    "layer": "1",
    "name": "Espitas",
    "opening_hours": "Mo-Th 11:00-23:00; Fr 11:00-24:00; Sa 10:00-24:00; Su 10:00-23:00",
    "operator": "ESPITAS GmbH & Co. KG",
    "outdoor_seating": "yes",
    "payment:cash": "yes",
    "payment:maestro": "yes",
    "payment:mastercard": "yes",
    "payment:visa": "yes",
    "smoking": "outside",
    "wheelchair": "yes"
  }
},
{
  "type": "way",
  "id": 265175836,
  "center": {
    "lat": 51.2962244,
    "lon": 12.4013757
  },
  "nodes": [
    2708427601,
    2708427598,
    2708427600,
    2708427599,
    2708427594,
    2708427597,
    2708427592,
    2708427595,
    2708427601
  ],
  "tags": {
    "addr:city": "Leipzig",
    "addr:housenumber": "40",
    "addr:postcode": "04279",
    "addr:street": "Siegfriedstraße",
    "amenity": "restaurant",
    "building": "detached",
    "building:levels": "1",
    "cuisine": "german;regional",
    "diet:vegetarian": "yes",
    "fax": "+49 34298 49844",
    "internet_access": "no",
    "internet_access:fee": "no",
    "name": "Zur Schäferei",
    "opening_hours": "Tu-Fr 12:00-20:00; Sa-Su 11:00-20:00",
    "phone": "+49 341 4777661",
    "wheelchair": "limited"
  }
},
{
  "type": "way",
  "id": 303470451,
  "center": {
    "lat": 51.4667190,
    "lon": 11.9631510
  },
  "nodes": [
    3078311804,
    3078311803,
    3078311805,
    3078311806,
    3078311804
  ],
  "tags": {
    "addr:city": "Halle (Saale)",
    "addr:country": "DE",
    "addr:housenumber": "140",
    "addr:postcode": "06128",
    "addr:street": "Straße der Republik",
    "amenity": "fast_food",
    "building": "retail",
    "building:levels": "1",
    "cuisine": "kebab",
    "diet:vegan": "no",
    "diet:vegetarian": "yes",
    "name": "Berlin Döner - Dilan Imbiss",
    "opening_hours": "Mo-Su 10:00-21:00",
    "opening_hours:signed": "no",
    "roof:levels": "0",
    "wheelchair": "no"
  }
},
{
  "type": "way",
  "id": 304682735,
  "center": {
    "lat": 51.4779569,
    "lon": 11.9713475
  },
  "nodes": [
    3092584827,
    3092584826,
    271226989,
    3092584820,
    3092584821,
    3092584822,
    3092584827
  ],
  "tags": {
    "addr:city": "Halle (Saale)",
    "addr:country": "DE",
    "addr:housename": "Haus 27",
    "addr:housenumber": "1",
    "addr:postcode": "06110",
    "addr:street": "Franckeplatz",
    "amenity": "restaurant",
    "building": "yes",
    "capacity": "210",
    "contact:website": "https://www.studentenwerk-halle.de/mensen-cafebars/mensen-in-halle/mensa-franckesche-stiftungen",
    "cuisine": "canteen",
    "diet:vegan": "limited",
    "diet:vegetarian": "yes",
    "drive_through": "no",
    "menu:url": "https://www.studentenwerk-halle.de/mensen-cafebars/speiseplaene",
    "name": "Mensa Franckesche Stiftungen",
    "opening_hours": "Mo-Th 10:00-14:15; Fr 10:00-14:00",
    "operator": "Studentenwerk Halle",
    "outdoor_seating": "yes",
    "smoking": "no",
    "takeaway": "yes",
    "toilets:wheelchair": "no",
    "wheelchair": "yes",
    "wheelchair:description": "Zugang Eingang Frankeplatz Weg bis zu Haus 25 folgen, 2x links abbiegen, Mensa befindet sich hinten links, Weg führt über Schotter;Rampe zum Eingang kann verrutschen;Tablett – Lauf an der Essensausgabe nicht durchgängig"
  }
},
{
  "type": "way",
  "id": 375345326,
  "center": {
    "lat": 51.4893364,
    "lon": 11.9737470
  },
  "nodes": [
    3787144821,
    3787144822,
    3787144825,
    3787144826,
    3787144827,
    3787144828,
    3787144821
  ],
  "tags": {
    "addr:city": "Halle (Saale)",
    "addr:country": "DE",
    "addr:housenumber": "34b",
    "addr:postcode": "06108",
    "addr:street": "Adam-Kuckhoff-Straße",
    "amenity": "cafe",
    "building": "yes",
    "diet:vegan": "yes",
    "diet:vegetarian": "yes",
    "name": "Cafebar Steintor-Campus",
    "opening_hours": "Mo-Th 08:00-17:00; Fr 08:00-14:30",
    "operator": "Studentenwerk Halle",
    "outdoor_seating": "yes",
    "phone": "+49 345 5524980",
    "smoking": "no",
    "takeaway": "yes",
    "toilets:wheelchair": "yes",
    "website": "https://www.studentenwerk-halle.de/hochschulgastronomie/halle/cafebar-steintor-campus/",
    "wheelchair": "yes"
  }
},
{
  "type": "way",
  "id": 467769739,
  "center": {
    "lat": 51.4973787,
    "lon": 11.9659804
  },
  "nodes": [
    3814088029,
    671894831,
    4623705853,
    4623705856,
    671894825,
    671894824,
    4623705859,
    3814088029
  ],
  "tags": {
    "addr:city": "Halle (Saale)",
    "addr:country": "DE",
    "addr:housenumber": "13",
    "addr:postcode": "06114",
    "addr:street": "Reilstraße",
    "amenity": "restaurant",
    "building": "yes",
    "contact:phone": "+49 345 6846567",
    "contact:website": "http://www.kim-halle.de/",
    "cuisine": "asian",
    "delivery": "yes",
    "diet:vegan": "limited",
    "diet:vegetarian": "yes",
    "name": "Goldene Schildkröte",
    "opening_hours": "Mo-Su 11:00-22:00",
    "source": "Bing",
    "wheelchair": "limited",
    "wheelchair:description": "Eingang mit Rampe, kein behindertengerechtes WC"
  }
}

  ]
}
